{"type":"FeatureCollection","crs":{"type":"name","properties":{"name":"urn:ogc:def:crs:OGC:1.3:CRS84"}},"features":[{"type":"Feature","properties":{"pid":"051002800028"},"geometry":{"type":"Polygon","coordinates":[[[-84.636676,39.30652],[-84.63703,39.306672],[-84.635968,39.307836],[-84.635359,39.308282],[-84.634592,39.308651],[-84.634088,39.308805],[-84.634096,39.308704],[-84.634251,39.308587],[-84.633199,39.308131],[-84.633937,39.307181],[-84.635431,39.306329],[-84.636114,39.306627],[-84.636313,39.306841],[-84.636676,39.30652]]]}},{"type":"Feature","properties":{"pid":"051002800180"},"geometry":{"type":"Polygon","coordinates":[[[-84.634096,39.308704],[-84.633114,39.308334],[-84.632562,39.309044],[-84.632468,39.309072],[-84.633199,39.308131],[-84.634251,39.308587],[-84.634096,39.308704]]]}},{"type":"Feature","properties":{"pid":"051002800207"},"geometry":{"type":"Polygon","coordinates":[[[-84.630264,39.308771],[-84.630879,39.309461],[-84.6309,39.309569],[-84.630837,39.309643],[-84.629837,39.310217],[-84.629202,39.309625],[-84.629459,39.309421],[-84.6298,39.309056],[-84.630264,39.308771]]]}},{"type":"Feature","properties":{"pid":"051002800185"},"geometry":{"type":"Polygon","coordinates":[[[-84.630255,39.312016],[-84.627296,39.311834],[-84.627969,39.311444],[-84.628062,39.311558],[-84.62913,39.31091],[-84.630255,39.312016]]]}},{"type":"Feature","properties":{"pid":"051002800029"},"geometry":{"type":"Polygon","coordinates":[[[-84.630876,39.311192],[-84.630018,39.310363],[-84.631284,39.3096],[-84.633058,39.309106],[-84.633729,39.309053],[-84.634353,39.309068],[-84.632383,39.310818],[-84.632396,39.310955],[-84.631337,39.311667],[-84.631049,39.311385],[-84.631153,39.31131],[-84.631082,39.311241],[-84.630876,39.311192]]]}},{"type":"Feature","properties":{"pid":"051002800001"},"geometry":{"type":"Polygon","coordinates":[[[-84.634445,39.308988],[-84.634787,39.308851],[-84.633131,39.310836],[-84.632396,39.310955],[-84.632383,39.310818],[-84.634445,39.308988]]]}},{"type":"Feature","properties":{"pid":"051002800041"},"geometry":{"type":"Polygon","coordinates":[[[-84.632562,39.309044],[-84.633114,39.308334],[-84.634096,39.308704],[-84.634088,39.308805],[-84.633956,39.308836],[-84.633687,39.308887],[-84.633138,39.308873],[-84.632562,39.309044]]]}},{"type":"Feature","properties":{"pid":"051002800078"},"geometry":{"type":"Polygon","coordinates":[[[-84.638052,39.309599],[-84.635684,39.308223],[-84.635881,39.308074],[-84.63635,39.30756],[-84.638732,39.308953],[-84.638314,39.309435],[-84.638052,39.309599]]]}},{"type":"Feature","properties":{"pid":"051002800077"},"geometry":{"type":"Polygon","coordinates":[[[-84.639217,39.308391],[-84.637304,39.306405],[-84.637696,39.305886],[-84.637944,39.305687],[-84.639797,39.307619],[-84.639628,39.307907],[-84.639217,39.308391]]]}},{"type":"Feature","properties":{"pid":"051002800079"},"geometry":{"type":"Polygon","coordinates":[[[-84.639217,39.308391],[-84.638732,39.308953],[-84.63635,39.30756],[-84.637123,39.306712],[-84.637087,39.306697],[-84.637304,39.306405],[-84.639217,39.308391]]]}},{"type":"Feature","properties":{"pid":"051002800073"},"geometry":{"type":"Polygon","coordinates":[[[-84.640337,39.306683],[-84.639797,39.307619],[-84.637944,39.305687],[-84.638458,39.30527],[-84.638561,39.305084],[-84.638716,39.304994],[-84.640337,39.306683]]]}},{"type":"Feature","properties":{"pid":"051002800002"},"geometry":{"type":"Polygon","coordinates":[[[-84.638458,39.30527],[-84.637696,39.305886],[-84.637087,39.306697],[-84.635779,39.306131],[-84.636376,39.305773],[-84.637788,39.305518],[-84.638561,39.305084],[-84.638458,39.30527]],[[-84.636237,39.306075],[-84.636344,39.306155],[-84.63645,39.306071],[-84.636339,39.305992],[-84.636237,39.306075]]]}},{"type":"Feature","properties":{"pid":"051002800081"},"geometry":{"type":"Polygon","coordinates":[[[-84.635169,39.308609],[-84.635684,39.308223],[-84.638052,39.309599],[-84.637699,39.30982],[-84.63679,39.310155],[-84.635169,39.308609]]]}},{"type":"Feature","properties":{"pid":"051002800004"},"geometry":{"type":"Polygon","coordinates":[[[-84.633417,39.310751],[-84.633131,39.310836],[-84.634787,39.308851],[-84.63485,39.308826],[-84.634794,39.309055],[-84.635045,39.30932],[-84.63489,39.30982],[-84.633417,39.310751]]]}},{"type":"Feature","properties":{"pid":"051002800083"},"geometry":{"type":"Polygon","coordinates":[[[-84.635817,39.309235],[-84.63489,39.30982],[-84.635045,39.30932],[-84.634794,39.309055],[-84.63485,39.308826],[-84.635169,39.308609],[-84.635817,39.309235]]]}}],"name":"parcels-45014"}