{"type":"FeatureCollection","crs":{"type":"name","properties":{"name":"urn:ogc:def:crs:OGC:1.3:CRS84"}},"features":[{"type":"Feature","properties":{"pid":"053000600009"},"geometry":{"type":"MultiPolygon","coordinates":[[[[-84.680137,39.288306],[-84.679994,39.287056],[-84.685541,39.286987],[-84.685729,39.287459],[-84.683999,39.287846],[-84.682748,39.288044],[-84.680137,39.288306]]],[[[-84.678365,39.288457],[-84.677373,39.288332],[-84.676478,39.288158],[-84.676801,39.287095],[-84.678207,39.287078],[-84.678365,39.288457]]],[[[-84.676382,39.28848],[-84.677126,39.288602],[-84.67761,39.288656],[-84.676282,39.288815],[-84.676382,39.28848]]]]}},{"type":"Feature","properties":{"pid":"053000900005"},"geometry":{"type":"Polygon","coordinates":[[[-84.690976,39.286244],[-84.690369,39.286345],[-84.688869,39.286698],[-84.688594,39.286],[-84.687735,39.285978],[-84.688091,39.286882],[-84.686902,39.287162],[-84.6867,39.286629],[-84.686313,39.28672],[-84.686512,39.287254],[-84.686089,39.287354],[-84.685622,39.283671],[-84.691578,39.283697],[-84.692145,39.284742],[-84.692632,39.284977],[-84.692869,39.286473],[-84.691373,39.286253],[-84.690976,39.286244]]]}},{"type":"Feature","properties":{"pid":"053000200002"},"geometry":{"type":"Polygon","coordinates":[[[-84.659345,39.304845],[-84.661355,39.303159],[-84.663463,39.304794],[-84.659345,39.304845]]]}},{"type":"Feature","properties":{"pid":"053000200003"},"geometry":{"type":"Polygon","coordinates":[[[-84.661744,39.303461],[-84.662559,39.302764],[-84.662077,39.302426],[-84.662738,39.301868],[-84.665406,39.30353],[-84.662908,39.304363],[-84.661744,39.303461]]]}},{"type":"Feature","properties":{"pid":"053000200006"},"geometry":{"type":"Polygon","coordinates":[[[-84.661278,39.3031],[-84.658113,39.30061],[-84.658021,39.300538],[-84.659003,39.300383],[-84.66068,39.299842],[-84.663348,39.301352],[-84.6623,39.302238],[-84.661752,39.301802],[-84.661282,39.302181],[-84.661841,39.302626],[-84.661278,39.3031]]]}},{"type":"Feature","properties":{"pid":"053000200008"},"geometry":{"type":"Polygon","coordinates":[[[-84.655966,39.304878],[-84.65502,39.303955],[-84.653508,39.301049],[-84.65559,39.301048],[-84.659246,39.304703],[-84.659075,39.304848],[-84.655966,39.304878]]]}},{"type":"Feature","properties":{"pid":"053000200010"},"geometry":{"type":"Polygon","coordinates":[[[-84.661841,39.302626],[-84.661282,39.302181],[-84.661752,39.301802],[-84.6623,39.302238],[-84.661841,39.302626]]]}},{"type":"Feature","properties":{"pid":"053000200013"},"geometry":{"type":"Polygon","coordinates":[[[-84.661744,39.303461],[-84.661278,39.3031],[-84.662077,39.302426],[-84.662559,39.302764],[-84.661744,39.303461]]]}},{"type":"Feature","properties":{"pid":"053000200014"},"geometry":{"type":"Polygon","coordinates":[[[-84.665406,39.30353],[-84.662738,39.301868],[-84.663348,39.301352],[-84.666397,39.303203],[-84.665406,39.30353]]]}},{"type":"Feature","properties":{"pid":"053000200015"},"geometry":{"type":"Polygon","coordinates":[[[-84.660049,39.304136],[-84.659271,39.303581],[-84.659972,39.302999],[-84.660746,39.303549],[-84.660049,39.304136]]]}},{"type":"Feature","properties":{"pid":"053000600001"},"geometry":{"type":"Polygon","coordinates":[[[-84.679055,39.290274],[-84.678854,39.288644],[-84.683537,39.288072],[-84.68611,39.287515],[-84.686478,39.290415],[-84.679055,39.290274]]]}},{"type":"Feature","properties":{"pid":"053000600002"},"geometry":{"type":"Polygon","coordinates":[[[-84.67602,39.289459],[-84.676146,39.288967],[-84.676565,39.288915],[-84.676531,39.289536],[-84.67602,39.289459]]]}},{"type":"Feature","properties":{"pid":"053000600022"},"geometry":{"type":"Polygon","coordinates":[[[-84.675887,39.290192],[-84.676061,39.2895],[-84.676011,39.289492],[-84.67602,39.289459],[-84.676531,39.289536],[-84.676565,39.288915],[-84.678098,39.288735],[-84.678104,39.289301],[-84.678516,39.289327],[-84.678438,39.288745],[-84.678872,39.288794],[-84.679055,39.290274],[-84.675887,39.290192]]]}},{"type":"Feature","properties":{"pid":"053000600023"},"geometry":{"type":"Polygon","coordinates":[[[-84.678104,39.289301],[-84.67807,39.288903],[-84.678102,39.28871],[-84.678438,39.288745],[-84.678516,39.289327],[-84.678104,39.289301]]]}},{"type":"Feature","properties":{"pid":"053000600025"},"geometry":{"type":"Polygon","coordinates":[[[-84.685729,39.287459],[-84.685512,39.286912],[-84.686019,39.286798],[-84.686093,39.287382],[-84.685729,39.287459]]]}},{"type":"Feature","properties":{"pid":"053000700011"},"geometry":{"type":"Polygon","coordinates":[[[-84.669462,39.302764],[-84.662525,39.29916],[-84.663218,39.298769],[-84.663788,39.298334],[-84.664192,39.297936],[-84.673825,39.300989],[-84.673832,39.302655],[-84.669462,39.302764]]]}},{"type":"Feature","properties":{"pid":"053000700027"},"geometry":{"type":"Polygon","coordinates":[[[-84.67627,39.298741],[-84.668381,39.297235],[-84.669622,39.296389],[-84.671065,39.295529],[-84.673408,39.295976],[-84.673562,39.2955],[-84.675003,39.295784],[-84.675598,39.296616],[-84.676197,39.298132],[-84.67627,39.298741]]]}},{"type":"Feature","properties":{"pid":"053000700028"},"geometry":{"type":"Polygon","coordinates":[[[-84.671065,39.295529],[-84.671716,39.295141],[-84.673562,39.2955],[-84.673408,39.295976],[-84.671065,39.295529]]]}},{"type":"Feature","properties":{"pid":"053000900003"},"geometry":{"type":"Polygon","coordinates":[[[-84.695518,39.287454],[-84.69488,39.287195],[-84.694138,39.286755],[-84.694415,39.286347],[-84.695518,39.287454]]]}},{"type":"Feature","properties":{"pid":"053000900004"},"geometry":{"type":"Polygon","coordinates":[[[-84.686111,39.287523],[-84.690434,39.286501],[-84.690988,39.28641],[-84.691363,39.286416],[-84.693033,39.286676],[-84.694058,39.286981],[-84.695249,39.28747],[-84.69539,39.288287],[-84.696265,39.289803],[-84.695924,39.289922],[-84.696055,39.290145],[-84.686478,39.290415],[-84.686111,39.287523]]]}},{"type":"Feature","properties":{"pid":"053000900031"},"geometry":{"type":"Polygon","coordinates":[[[-84.695924,39.289922],[-84.696265,39.289803],[-84.696452,39.290134],[-84.696055,39.290145],[-84.695924,39.289922]]]}},{"type":"Feature","properties":{"pid":"053000900043"},"geometry":{"type":"Polygon","coordinates":[[[-84.686512,39.287254],[-84.686313,39.28672],[-84.6867,39.286629],[-84.686902,39.287162],[-84.686512,39.287254]]]}},{"type":"Feature","properties":{"pid":"053000900044"},"geometry":{"type":"Polygon","coordinates":[[[-84.695962,39.289105],[-84.696834,39.288794],[-84.697036,39.289024],[-84.696109,39.289354],[-84.695962,39.289105]]]}},{"type":"Feature","properties":{"pid":"053000200009"},"geometry":{"type":"Polygon","coordinates":[[[-84.652316,39.30489],[-84.651416,39.303341],[-84.649478,39.300012],[-84.653508,39.301049],[-84.65502,39.303955],[-84.655966,39.304878],[-84.652316,39.30489]]]}},{"type":"Feature","properties":{"pid":"053000200012"},"geometry":{"type":"Polygon","coordinates":[[[-84.66614,39.294941],[-84.666255,39.293911],[-84.671515,39.295038],[-84.670854,39.295435],[-84.669509,39.295173],[-84.66938,39.295573],[-84.66614,39.294941]]]}},{"type":"Feature","properties":{"pid":"053000600034"},"geometry":{"type":"Polygon","coordinates":[[[-84.678365,39.288457],[-84.678169,39.286748],[-84.679941,39.286597],[-84.680137,39.288306],[-84.678365,39.288457]]]}},{"type":"Feature","properties":{"pid":"053000700019"},"geometry":{"type":"Polygon","coordinates":[[[-84.675524,39.295827],[-84.671794,39.295095],[-84.673105,39.294252],[-84.673664,39.293792],[-84.674169,39.293295],[-84.679264,39.293638],[-84.679289,39.296169],[-84.675524,39.295827]]]}},{"type":"Feature","properties":{"pid":"053000800026"},"geometry":{"type":"Polygon","coordinates":[[[-84.705694,39.303519],[-84.702208,39.303511],[-84.701931,39.30271],[-84.704984,39.302336],[-84.705694,39.303519]]]}},{"type":"Feature","properties":{"pid":"053000900062"},"geometry":{"type":"Polygon","coordinates":[[[-84.688119,39.286953],[-84.687735,39.285978],[-84.688594,39.286],[-84.688896,39.286768],[-84.688119,39.286953]]]}},{"type":"Feature","properties":{"pid":"053000200016"},"geometry":{"type":"Polygon","coordinates":[[[-84.666631,39.298704],[-84.664192,39.297936],[-84.665196,39.296631],[-84.668145,39.297192],[-84.668325,39.297281],[-84.666631,39.298704]]]}},{"type":"Feature","properties":{"pid":"053000800027"},"geometry":{"type":"Polygon","coordinates":[[[-84.701478,39.301398],[-84.702189,39.301241],[-84.702403,39.301789],[-84.701669,39.301952],[-84.701478,39.301398]]]}},{"type":"Feature","properties":{"pid":"053000900002"},"geometry":{"type":"Polygon","coordinates":[[[-84.695428,39.288201],[-84.695322,39.28746],[-84.695568,39.28751],[-84.696834,39.288794],[-84.695962,39.289105],[-84.695428,39.288201]]]}},{"type":"Feature","properties":{"pid":"053000900060"},"geometry":{"type":"Polygon","coordinates":[[[-84.697817,39.290133],[-84.696567,39.29013],[-84.696109,39.289354],[-84.697036,39.289024],[-84.697472,39.289591],[-84.697817,39.290133]]]}},{"type":"Feature","properties":{"pid":"053000800044"},"geometry":{"type":"Polygon","coordinates":[[[-84.700858,39.295072],[-84.702276,39.297426],[-84.702293,39.297981],[-84.701777,39.29834],[-84.700396,39.298363],[-84.700018,39.297355],[-84.699911,39.295969],[-84.699603,39.295274],[-84.699607,39.295087],[-84.700858,39.295072]]]}},{"type":"Feature","properties":{"pid":"053000800023"},"geometry":{"type":"Polygon","coordinates":[[[-84.700788,39.299409],[-84.702635,39.304744],[-84.695833,39.304727],[-84.695688,39.299314],[-84.700788,39.299409]]]}},{"type":"Feature","properties":{"pid":"053000800024"},"geometry":{"type":"Polygon","coordinates":[[[-84.700858,39.295072],[-84.699607,39.295087],[-84.699612,39.29489],[-84.700743,39.294877],[-84.700858,39.295072]]]}},{"type":"Feature","properties":{"pid":"053000800006"},"geometry":{"type":"Polygon","coordinates":[[[-84.700041,39.297416],[-84.700788,39.299409],[-84.695688,39.299314],[-84.695674,39.297342],[-84.700041,39.297416]]]}},{"type":"Feature","properties":{"pid":"053000800025"},"geometry":{"type":"Polygon","coordinates":[[[-84.70328,39.304745],[-84.702635,39.304744],[-84.702208,39.303511],[-84.705694,39.303519],[-84.706405,39.3047],[-84.70328,39.304691],[-84.70328,39.304745]]]}},{"type":"Feature","properties":{"pid":"053000800028"},"geometry":{"type":"Polygon","coordinates":[[[-84.704181,39.301008],[-84.701384,39.301128],[-84.701084,39.300261],[-84.703733,39.300265],[-84.704181,39.301008]]]}}],"name":"parcels-45013"}