{"type":"FeatureCollection","crs":{"type":"name","properties":{"name":"urn:ogc:def:crs:OGC:1.3:CRS84"}},"features":[{"type":"Feature","properties":{"pid":"063001210112"},"geometry":{"type":"Polygon","coordinates":[[[-84.759839,39.176711],[-84.759838,39.176561],[-84.760046,39.17656],[-84.759953,39.176711],[-84.759839,39.176711]]]}},{"type":"Feature","properties":{"pid":"063001210113"},"geometry":{"type":"Polygon","coordinates":[[[-84.759838,39.176561],[-84.759837,39.176493],[-84.760089,39.176489],[-84.760046,39.17656],[-84.759838,39.176561]]]}},{"type":"Feature","properties":{"pid":"063001210114"},"geometry":{"type":"Polygon","coordinates":[[[-84.759837,39.176493],[-84.759837,39.176431],[-84.760126,39.176428],[-84.760089,39.176489],[-84.759837,39.176493]]]}},{"type":"Feature","properties":{"pid":"063001210115"},"geometry":{"type":"Polygon","coordinates":[[[-84.759837,39.176431],[-84.759836,39.176362],[-84.760169,39.176359],[-84.760126,39.176428],[-84.759837,39.176431]]]}},{"type":"Feature","properties":{"pid":"063001210117"},"geometry":{"type":"Polygon","coordinates":[[[-84.759836,39.176294],[-84.759835,39.176223],[-84.760254,39.17622],[-84.760211,39.176289],[-84.759836,39.176294]]]}},{"type":"Feature","properties":{"pid":"063001210118"},"geometry":{"type":"Polygon","coordinates":[[[-84.759835,39.176223],[-84.759835,39.176153],[-84.760301,39.176143],[-84.760254,39.17622],[-84.759835,39.176223]]]}},{"type":"Feature","properties":{"pid":"063001210120"},"geometry":{"type":"Polygon","coordinates":[[[-84.759834,39.176088],[-84.759834,39.176012],[-84.760383,39.176008],[-84.760341,39.176078],[-84.759834,39.176088]]]}},{"type":"Feature","properties":{"pid":"063001210121"},"geometry":{"type":"Polygon","coordinates":[[[-84.759834,39.176012],[-84.759833,39.175942],[-84.760424,39.175942],[-84.760383,39.176008],[-84.759834,39.176012]]]}},{"type":"Feature","properties":{"pid":"063001210124"},"geometry":{"type":"Polygon","coordinates":[[[-84.759445,39.177955],[-84.759141,39.177954],[-84.759141,39.177885],[-84.759456,39.177888],[-84.759445,39.177955]]]}},{"type":"Feature","properties":{"pid":"063001210127"},"geometry":{"type":"Polygon","coordinates":[[[-84.759479,39.177747],[-84.759141,39.177747],[-84.75914,39.17768],[-84.75949,39.177681],[-84.759479,39.177747]]]}},{"type":"Feature","properties":{"pid":"063001210128"},"geometry":{"type":"Polygon","coordinates":[[[-84.75949,39.177681],[-84.75914,39.17768],[-84.75914,39.177614],[-84.759501,39.177615],[-84.75949,39.177681]]]}},{"type":"Feature","properties":{"pid":"063001210129"},"geometry":{"type":"Polygon","coordinates":[[[-84.759501,39.177615],[-84.75914,39.177614],[-84.75914,39.177536],[-84.759513,39.177541],[-84.759501,39.177615]]]}},{"type":"Feature","properties":{"pid":"063001210136"},"geometry":{"type":"Polygon","coordinates":[[[-84.759668,39.177058],[-84.759137,39.177059],[-84.759137,39.176995],[-84.759668,39.176993],[-84.759668,39.177058]]]}},{"type":"Feature","properties":{"pid":"063001210145"},"geometry":{"type":"Polygon","coordinates":[[[-84.759667,39.176287],[-84.759134,39.176291],[-84.759133,39.176222],[-84.759667,39.17622],[-84.759667,39.176287]]]}},{"type":"Feature","properties":{"pid":"063001210148"},"geometry":{"type":"Polygon","coordinates":[[[-84.759667,39.17608],[-84.759133,39.176084],[-84.759132,39.176015],[-84.759667,39.176013],[-84.759667,39.17608]]]}},{"type":"Feature","properties":{"pid":"063001210175"},"geometry":{"type":"Polygon","coordinates":[[[-84.759291,39.176753],[-84.759291,39.176717],[-84.759668,39.176713],[-84.759668,39.176751],[-84.759291,39.176753]]]}},{"type":"Feature","properties":{"pid":"063001210161"},"geometry":{"type":"Polygon","coordinates":[[[-84.760263,39.178093],[-84.759633,39.178095],[-84.759664,39.177929],[-84.760262,39.177933],[-84.760263,39.178093]]]}},{"type":"Feature","properties":{"pid":"063001210165"},"geometry":{"type":"Polygon","coordinates":[[[-84.760262,39.177933],[-84.759664,39.177929],[-84.759697,39.177745],[-84.760262,39.177743],[-84.760262,39.177933]]]}},{"type":"Feature","properties":{"pid":"063001210171"},"geometry":{"type":"Polygon","coordinates":[[[-84.760262,39.177743],[-84.759697,39.177745],[-84.75973,39.17757],[-84.760261,39.177569],[-84.760262,39.177743]]]}},{"type":"Feature","properties":{"pid":"063001210166"},"geometry":{"type":"Polygon","coordinates":[[[-84.760263,39.178093],[-84.760263,39.178259],[-84.759605,39.178259],[-84.759633,39.178095],[-84.760263,39.178093]]]}},{"type":"Feature","properties":{"pid":"063001210178"},"geometry":{"type":"Polygon","coordinates":[[[-84.760261,39.177569],[-84.760367,39.177569],[-84.760368,39.177981],[-84.76086,39.177986],[-84.760811,39.178805],[-84.760265,39.178977],[-84.760261,39.177569]]]}},{"type":"Feature","properties":{"pid":"063001210180"},"geometry":{"type":"Polygon","coordinates":[[[-84.760264,39.178606],[-84.760265,39.178977],[-84.759339,39.179266],[-84.759443,39.178607],[-84.760264,39.178606]]]}},{"type":"Feature","properties":{"pid":"063001210182"},"geometry":{"type":"Polygon","coordinates":[[[-84.760263,39.178259],[-84.760264,39.178606],[-84.759443,39.178607],[-84.759498,39.17826],[-84.760263,39.178259]]]}},{"type":"Feature","properties":{"pid":"063001210051"},"geometry":{"type":"Polygon","coordinates":[[[-84.761428,39.177811],[-84.761623,39.177809],[-84.761624,39.178183],[-84.76143,39.178184],[-84.761428,39.177811]]]}},{"type":"Feature","properties":{"pid":"063001210052"},"geometry":{"type":"Polygon","coordinates":[[[-84.761276,39.177812],[-84.761428,39.177811],[-84.76143,39.178184],[-84.761282,39.178185],[-84.761276,39.177812]]]}},{"type":"Feature","properties":{"pid":"063001210158"},"geometry":{"type":"Polygon","coordinates":[[[-84.760903,39.177575],[-84.76086,39.177986],[-84.760631,39.177984],[-84.760638,39.177572],[-84.760903,39.177575]]]}},{"type":"Feature","properties":{"pid":"063001210159"},"geometry":{"type":"Polygon","coordinates":[[[-84.760368,39.177981],[-84.760367,39.177569],[-84.760638,39.177572],[-84.760631,39.177984],[-84.760368,39.177981]]]}},{"type":"Feature","properties":{"pid":"063001210029"},"geometry":{"type":"Polygon","coordinates":[[[-84.763907,39.176706],[-84.76373,39.176706],[-84.763731,39.176357],[-84.763906,39.176357],[-84.763907,39.176706]]]}},{"type":"Feature","properties":{"pid":"063001210030"},"geometry":{"type":"Polygon","coordinates":[[[-84.764078,39.176705],[-84.763907,39.176706],[-84.763906,39.176357],[-84.764076,39.176357],[-84.764078,39.176705]]]}},{"type":"Feature","properties":{"pid":"063001210031"},"geometry":{"type":"Polygon","coordinates":[[[-84.764257,39.176704],[-84.764078,39.176705],[-84.764076,39.176357],[-84.76426,39.176356],[-84.764257,39.176704]]]}},{"type":"Feature","properties":{"pid":"063001100027"},"geometry":{"type":"Polygon","coordinates":[[[-84.762571,39.171652],[-84.764012,39.171799],[-84.764799,39.171796],[-84.764826,39.175858],[-84.763203,39.175864],[-84.763193,39.174177],[-84.763243,39.174139],[-84.763247,39.174001],[-84.762642,39.173991],[-84.762571,39.171652]]]}},{"type":"Feature","properties":{"pid":"063001210034"},"geometry":{"type":"Polygon","coordinates":[[[-84.764967,39.176313],[-84.764431,39.176312],[-84.764431,39.176177],[-84.764966,39.176176],[-84.764967,39.176313]]]}},{"type":"Feature","properties":{"pid":"063001210090"},"geometry":{"type":"Polygon","coordinates":[[[-84.761157,39.176711],[-84.761157,39.176297],[-84.761339,39.176295],[-84.761332,39.176711],[-84.761157,39.176711]]]}},{"type":"Feature","properties":{"pid":"063001210091"},"geometry":{"type":"Polygon","coordinates":[[[-84.761332,39.176711],[-84.761339,39.176295],[-84.76151,39.176293],[-84.76151,39.176712],[-84.761332,39.176711]]]}},{"type":"Feature","properties":{"pid":"063001210092"},"geometry":{"type":"Polygon","coordinates":[[[-84.76151,39.176712],[-84.76151,39.176293],[-84.761683,39.176292],[-84.76168,39.176711],[-84.76151,39.176712]]]}},{"type":"Feature","properties":{"pid":"063001210095"},"geometry":{"type":"Polygon","coordinates":[[[-84.76248,39.176712],[-84.762487,39.176353],[-84.762675,39.176353],[-84.762673,39.176712],[-84.76248,39.176712]]]}},{"type":"Feature","properties":{"pid":"063001210096"},"geometry":{"type":"Polygon","coordinates":[[[-84.762673,39.176712],[-84.762675,39.176353],[-84.76285,39.176353],[-84.762851,39.176711],[-84.762673,39.176712]]]}},{"type":"Feature","properties":{"pid":"063001210097"},"geometry":{"type":"Polygon","coordinates":[[[-84.762851,39.176711],[-84.76285,39.176353],[-84.76303,39.176353],[-84.76303,39.176711],[-84.762851,39.176711]]]}},{"type":"Feature","properties":{"pid":"063001210098"},"geometry":{"type":"Polygon","coordinates":[[[-84.762487,39.176311],[-84.762488,39.176187],[-84.763029,39.176184],[-84.763029,39.176313],[-84.762487,39.176311]]]}},{"type":"Feature","properties":{"pid":"063001210055"},"geometry":{"type":"Polygon","coordinates":[[[-84.761274,39.177673],[-84.761059,39.177674],[-84.761063,39.177279],[-84.761278,39.177278],[-84.761274,39.177673]]]}},{"type":"Feature","properties":{"pid":"063001210056"},"geometry":{"type":"Polygon","coordinates":[[[-84.761448,39.177672],[-84.761274,39.177673],[-84.761278,39.177278],[-84.761456,39.177277],[-84.761448,39.177672]]]}},{"type":"Feature","properties":{"pid":"063001210057"},"geometry":{"type":"Polygon","coordinates":[[[-84.761624,39.177671],[-84.761448,39.177672],[-84.761456,39.177277],[-84.761628,39.177277],[-84.761624,39.177671]]]}},{"type":"Feature","properties":{"pid":"063001210059"},"geometry":{"type":"Polygon","coordinates":[[[-84.762151,39.177666],[-84.761974,39.177668],[-84.761971,39.177274],[-84.762149,39.177274],[-84.762151,39.177666]]]}},{"type":"Feature","properties":{"pid":"063001210060"},"geometry":{"type":"Polygon","coordinates":[[[-84.762322,39.177665],[-84.762151,39.177666],[-84.762149,39.177274],[-84.762322,39.177273],[-84.762322,39.177665]]]}},{"type":"Feature","properties":{"pid":"063001210061"},"geometry":{"type":"Polygon","coordinates":[[[-84.762506,39.177664],[-84.762322,39.177665],[-84.762322,39.177273],[-84.762505,39.177273],[-84.762506,39.177664]]]}},{"type":"Feature","properties":{"pid":"063001210066"},"geometry":{"type":"Polygon","coordinates":[[[-84.762853,39.177231],[-84.76268,39.177232],[-84.76268,39.176842],[-84.762851,39.176842],[-84.762853,39.177231]]]}},{"type":"Feature","properties":{"pid":"063001210067"},"geometry":{"type":"Polygon","coordinates":[[[-84.76268,39.177232],[-84.762504,39.177232],[-84.762503,39.176843],[-84.76268,39.176842],[-84.76268,39.177232]]]}},{"type":"Feature","properties":{"pid":"063001210068"},"geometry":{"type":"Polygon","coordinates":[[[-84.762504,39.177232],[-84.762321,39.177233],[-84.762322,39.176844],[-84.762503,39.176843],[-84.762504,39.177232]]]}},{"type":"Feature","properties":{"pid":"063001910029"},"geometry":{"type":"Polygon","coordinates":[[[-84.765499,39.177648],[-84.765319,39.177649],[-84.765318,39.177268],[-84.765498,39.177267],[-84.765499,39.177648]]]}},{"type":"Feature","properties":{"pid":"063001210108"},"geometry":{"type":"Polygon","coordinates":[[[-84.760427,39.177095],[-84.759954,39.177092],[-84.759994,39.177026],[-84.760429,39.177028],[-84.760427,39.177095]]]}},{"type":"Feature","properties":{"pid":"063001910030"},"geometry":{"type":"Polygon","coordinates":[[[-84.765849,39.17766],[-84.765665,39.177659],[-84.765667,39.177268],[-84.76585,39.177269],[-84.765849,39.17766]]]}},{"type":"Feature","properties":{"pid":"063001210109"},"geometry":{"type":"Polygon","coordinates":[[[-84.760429,39.177028],[-84.759994,39.177026],[-84.760036,39.176958],[-84.760431,39.176959],[-84.760429,39.177028]]]}},{"type":"Feature","properties":{"pid":"063001910061"},"geometry":{"type":"Polygon","coordinates":[[[-84.765497,39.177226],[-84.765144,39.177226],[-84.765141,39.176834],[-84.765493,39.176834],[-84.765497,39.177226]]]}},{"type":"Feature","properties":{"pid":"063001910052"},"geometry":{"type":"Polygon","coordinates":[[[-84.767269,39.177226],[-84.76709,39.177225],[-84.767086,39.176838],[-84.767266,39.176838],[-84.767269,39.177226]]]}},{"type":"Feature","properties":{"pid":"063001910026"},"geometry":{"type":"Polygon","coordinates":[[[-84.764963,39.177651],[-84.764787,39.177652],[-84.764789,39.177268],[-84.764964,39.177268],[-84.764963,39.177651]]]}},{"type":"Feature","properties":{"pid":"063001910028"},"geometry":{"type":"Polygon","coordinates":[[[-84.765319,39.177649],[-84.765142,39.17765],[-84.765142,39.177268],[-84.765318,39.177268],[-84.765319,39.177649]]]}},{"type":"Feature","properties":{"pid":"063001910054"},"geometry":{"type":"Polygon","coordinates":[[[-84.766556,39.177224],[-84.766556,39.176836],[-84.766738,39.176836],[-84.766739,39.177225],[-84.766556,39.177224]]]}},{"type":"Feature","properties":{"pid":"063001910034"},"geometry":{"type":"Polygon","coordinates":[[[-84.76674,39.177665],[-84.766387,39.177663],[-84.766387,39.177272],[-84.76674,39.177274],[-84.76674,39.177665]]]}},{"type":"Feature","properties":{"pid":"063001910037"},"geometry":{"type":"Polygon","coordinates":[[[-84.767277,39.177652],[-84.767094,39.177651],[-84.767091,39.177274],[-84.76727,39.177274],[-84.767277,39.177652]]]}},{"type":"Feature","properties":{"pid":"063001210070"},"geometry":{"type":"Polygon","coordinates":[[[-84.762149,39.177235],[-84.761972,39.177236],[-84.761971,39.176844],[-84.762146,39.176844],[-84.762149,39.177235]]]}},{"type":"Feature","properties":{"pid":"063001210071"},"geometry":{"type":"Polygon","coordinates":[[[-84.761972,39.177236],[-84.7618,39.177237],[-84.761805,39.176844],[-84.761971,39.176844],[-84.761972,39.177236]]]}},{"type":"Feature","properties":{"pid":"063001210072"},"geometry":{"type":"Polygon","coordinates":[[[-84.76163,39.17724],[-84.761456,39.17724],[-84.761463,39.176841],[-84.761634,39.17684],[-84.76163,39.17724]]]}},{"type":"Feature","properties":{"pid":"063001210073"},"geometry":{"type":"Polygon","coordinates":[[[-84.761456,39.17724],[-84.761277,39.17724],[-84.761283,39.176841],[-84.761463,39.176841],[-84.761456,39.17724]]]}},{"type":"Feature","properties":{"pid":"063001210074"},"geometry":{"type":"Polygon","coordinates":[[[-84.761277,39.17724],[-84.761064,39.177239],[-84.761066,39.176841],[-84.761283,39.176841],[-84.761277,39.17724]]]}},{"type":"Feature","properties":{"pid":"063001210075"},"geometry":{"type":"Polygon","coordinates":[[[-84.761004,39.177446],[-84.760829,39.177444],[-84.760832,39.17716],[-84.761008,39.177159],[-84.761004,39.177446]]]}},{"type":"Feature","properties":{"pid":"063001210076"},"geometry":{"type":"Polygon","coordinates":[[[-84.760829,39.177444],[-84.760648,39.177442],[-84.76065,39.17716],[-84.760832,39.17716],[-84.760829,39.177444]]]}},{"type":"Feature","properties":{"pid":"063001210078"},"geometry":{"type":"Polygon","coordinates":[[[-84.761009,39.177117],[-84.760832,39.177118],[-84.760831,39.176842],[-84.761014,39.176842],[-84.761009,39.177117]]]}},{"type":"Feature","properties":{"pid":"063001910038"},"geometry":{"type":"Polygon","coordinates":[[[-84.76745,39.177652],[-84.767277,39.177652],[-84.76727,39.177274],[-84.767445,39.177275],[-84.76745,39.177652]]]}},{"type":"Feature","properties":{"pid":"063001910039"},"geometry":{"type":"Polygon","coordinates":[[[-84.767626,39.177653],[-84.76745,39.177652],[-84.767445,39.177275],[-84.767622,39.177275],[-84.767626,39.177653]]]}},{"type":"Feature","properties":{"pid":"063001910040"},"geometry":{"type":"Polygon","coordinates":[[[-84.767802,39.177653],[-84.767626,39.177653],[-84.767622,39.177275],[-84.767798,39.177275],[-84.767802,39.177653]]]}},{"type":"Feature","properties":{"pid":"063001910041"},"geometry":{"type":"Polygon","coordinates":[[[-84.767975,39.177653],[-84.767802,39.177653],[-84.767798,39.177275],[-84.76797,39.177276],[-84.767975,39.177653]]]}},{"type":"Feature","properties":{"pid":"063001910042"},"geometry":{"type":"Polygon","coordinates":[[[-84.768148,39.177653],[-84.768143,39.177277],[-84.76832,39.177277],[-84.768321,39.177653],[-84.768148,39.177653]]]}},{"type":"Feature","properties":{"pid":"063001910043"},"geometry":{"type":"Polygon","coordinates":[[[-84.768321,39.177653],[-84.76832,39.177277],[-84.768496,39.177278],[-84.768497,39.177654],[-84.768321,39.177653]]]}},{"type":"Feature","properties":{"pid":"063001910044"},"geometry":{"type":"Polygon","coordinates":[[[-84.768497,39.177654],[-84.768496,39.177278],[-84.768664,39.177278],[-84.768667,39.177654],[-84.768497,39.177654]]]}},{"type":"Feature","properties":{"pid":"063001910059"},"geometry":{"type":"Polygon","coordinates":[[[-84.76585,39.177222],[-84.765852,39.176834],[-84.766025,39.176834],[-84.766026,39.177223],[-84.76585,39.177222]]]}},{"type":"Feature","properties":{"pid":"063001910070"},"geometry":{"type":"Polygon","coordinates":[[[-84.766034,39.176695],[-84.765858,39.176696],[-84.765854,39.176352],[-84.76603,39.176352],[-84.766034,39.176695]]]}},{"type":"Feature","properties":{"pid":"063001910046"},"geometry":{"type":"Polygon","coordinates":[[[-84.768318,39.177229],[-84.768316,39.176837],[-84.768493,39.176838],[-84.768495,39.17723],[-84.768318,39.177229]]]}},{"type":"Feature","properties":{"pid":"063001910047"},"geometry":{"type":"Polygon","coordinates":[[[-84.768144,39.177228],[-84.768141,39.176837],[-84.768316,39.176837],[-84.768318,39.177229],[-84.768144,39.177228]]]}},{"type":"Feature","properties":{"pid":"063001910048"},"geometry":{"type":"Polygon","coordinates":[[[-84.767969,39.177229],[-84.767797,39.177228],[-84.767797,39.176836],[-84.76797,39.176836],[-84.767969,39.177229]]]}},{"type":"Feature","properties":{"pid":"063001910071"},"geometry":{"type":"Polygon","coordinates":[[[-84.76621,39.176695],[-84.766034,39.176695],[-84.76603,39.176352],[-84.766206,39.176352],[-84.76621,39.176695]]]}},{"type":"Feature","properties":{"pid":"063001210079"},"geometry":{"type":"Polygon","coordinates":[[[-84.760832,39.177118],[-84.760651,39.177119],[-84.760654,39.176843],[-84.760831,39.176842],[-84.760832,39.177118]]]}},{"type":"Feature","properties":{"pid":"063001210080"},"geometry":{"type":"Polygon","coordinates":[[[-84.760651,39.177119],[-84.760482,39.17712],[-84.760488,39.176843],[-84.760654,39.176843],[-84.760651,39.177119]]]}},{"type":"Feature","properties":{"pid":"063001210083"},"geometry":{"type":"Polygon","coordinates":[[[-84.760748,39.176574],[-84.760266,39.176574],[-84.760308,39.176507],[-84.760751,39.176506],[-84.760748,39.176574]]]}},{"type":"Feature","properties":{"pid":"063001910093"},"geometry":{"type":"Polygon","coordinates":[[[-84.767435,39.176042],[-84.766907,39.17604],[-84.766906,39.175895],[-84.767435,39.175896],[-84.767435,39.176042]]]}},{"type":"Feature","properties":{"pid":"063001910094"},"geometry":{"type":"Polygon","coordinates":[[[-84.766733,39.176312],[-84.766199,39.176312],[-84.766198,39.176175],[-84.766732,39.176174],[-84.766733,39.176312]]]}},{"type":"Feature","properties":{"pid":"063001910095"},"geometry":{"type":"Polygon","coordinates":[[[-84.766732,39.176174],[-84.766198,39.176175],[-84.766196,39.176037],[-84.766731,39.176038],[-84.766732,39.176174]]]}},{"type":"Feature","properties":{"pid":"063001910096"},"geometry":{"type":"Polygon","coordinates":[[[-84.766731,39.176038],[-84.766196,39.176037],[-84.766194,39.175895],[-84.76673,39.175897],[-84.766731,39.176038]]]}},{"type":"Feature","properties":{"pid":"063001910097"},"geometry":{"type":"Polygon","coordinates":[[[-84.766199,39.176312],[-84.765663,39.176311],[-84.765661,39.176177],[-84.766198,39.176175],[-84.766199,39.176312]]]}},{"type":"Feature","properties":{"pid":"063001210011"},"geometry":{"type":"Polygon","coordinates":[[[-84.763558,39.177659],[-84.763385,39.177659],[-84.763381,39.177268],[-84.763557,39.177268],[-84.763558,39.177659]]]}},{"type":"Feature","properties":{"pid":"063001210012"},"geometry":{"type":"Polygon","coordinates":[[[-84.763733,39.177658],[-84.763558,39.177659],[-84.763557,39.177268],[-84.763732,39.177268],[-84.763733,39.177658]]]}},{"type":"Feature","properties":{"pid":"063001210013"},"geometry":{"type":"Polygon","coordinates":[[[-84.763912,39.177658],[-84.763733,39.177658],[-84.763732,39.177268],[-84.76391,39.177268],[-84.763912,39.177658]]]}},{"type":"Feature","properties":{"pid":"063001210015"},"geometry":{"type":"Polygon","coordinates":[[[-84.764257,39.177657],[-84.764084,39.177657],[-84.764085,39.177268],[-84.764257,39.177268],[-84.764257,39.177657]]]}},{"type":"Feature","properties":{"pid":"063001210016"},"geometry":{"type":"Polygon","coordinates":[[[-84.764612,39.177652],[-84.764435,39.177653],[-84.764437,39.177268],[-84.764611,39.177268],[-84.764612,39.177652]]]}},{"type":"Feature","properties":{"pid":"063001210017"},"geometry":{"type":"Polygon","coordinates":[[[-84.764787,39.177652],[-84.764612,39.177652],[-84.764611,39.177268],[-84.764789,39.177268],[-84.764787,39.177652]]]}},{"type":"Feature","properties":{"pid":"063001210020"},"geometry":{"type":"Polygon","coordinates":[[[-84.764259,39.177221],[-84.764083,39.177222],[-84.764082,39.176837],[-84.76426,39.176836],[-84.764259,39.177221]]]}},{"type":"Feature","properties":{"pid":"063001210021"},"geometry":{"type":"Polygon","coordinates":[[[-84.764083,39.177222],[-84.763912,39.177222],[-84.76391,39.176838],[-84.764082,39.176837],[-84.764083,39.177222]]]}},{"type":"Feature","properties":{"pid":"063001210022"},"geometry":{"type":"Polygon","coordinates":[[[-84.763912,39.177222],[-84.763733,39.177223],[-84.763734,39.176839],[-84.76391,39.176838],[-84.763912,39.177222]]]}},{"type":"Feature","properties":{"pid":"063001210023"},"geometry":{"type":"Polygon","coordinates":[[[-84.763733,39.177223],[-84.763557,39.177223],[-84.763556,39.17684],[-84.763734,39.176839],[-84.763733,39.177223]]]}},{"type":"Feature","properties":{"pid":"063001210024"},"geometry":{"type":"Polygon","coordinates":[[[-84.763557,39.177223],[-84.763381,39.177224],[-84.763378,39.176841],[-84.763556,39.17684],[-84.763557,39.177223]]]}},{"type":"Feature","properties":{"pid":"063001910098"},"geometry":{"type":"Polygon","coordinates":[[[-84.766198,39.176175],[-84.765661,39.176177],[-84.76566,39.176037],[-84.766196,39.176037],[-84.766198,39.176175]]]}},{"type":"Feature","properties":{"pid":"063001910099"},"geometry":{"type":"Polygon","coordinates":[[[-84.766196,39.176037],[-84.76566,39.176037],[-84.765659,39.175893],[-84.766194,39.175895],[-84.766196,39.176037]]]}},{"type":"Feature","properties":{"pid":"063001910105"},"geometry":{"type":"Polygon","coordinates":[[[-84.768839,39.17723],[-84.768662,39.177231],[-84.768661,39.176766],[-84.768838,39.176767],[-84.768839,39.17723]]]}},{"type":"Feature","properties":{"pid":"063001910050"},"geometry":{"type":"Polygon","coordinates":[[[-84.767622,39.177228],[-84.767444,39.177227],[-84.767439,39.176837],[-84.767618,39.176837],[-84.767622,39.177228]]]}},{"type":"Feature","properties":{"pid":"063001910081"},"geometry":{"type":"Polygon","coordinates":[[[-84.767969,39.176697],[-84.767797,39.176697],[-84.767795,39.176357],[-84.767967,39.176357],[-84.767969,39.176697]]]}},{"type":"Feature","properties":{"pid":"063001910085"},"geometry":{"type":"Polygon","coordinates":[[[-84.768142,39.176313],[-84.76814,39.176176],[-84.768659,39.176174],[-84.768661,39.176316],[-84.768142,39.176313]]]}},{"type":"Feature","properties":{"pid":"063001910086"},"geometry":{"type":"Polygon","coordinates":[[[-84.76814,39.176176],[-84.768138,39.176042],[-84.768657,39.176042],[-84.768659,39.176174],[-84.76814,39.176176]]]}},{"type":"Feature","properties":{"pid":"063001910087"},"geometry":{"type":"Polygon","coordinates":[[[-84.768657,39.176042],[-84.768138,39.176042],[-84.768136,39.175898],[-84.768655,39.175899],[-84.768657,39.176042]]]}},{"type":"Feature","properties":{"pid":"063001910051"},"geometry":{"type":"Polygon","coordinates":[[[-84.767444,39.177227],[-84.767269,39.177226],[-84.767266,39.176838],[-84.767439,39.176837],[-84.767444,39.177227]]]}},{"type":"Feature","properties":{"pid":"063001910091"},"geometry":{"type":"Polygon","coordinates":[[[-84.767435,39.176314],[-84.766909,39.176314],[-84.766908,39.176179],[-84.767435,39.176178],[-84.767435,39.176314]]]}},{"type":"Feature","properties":{"pid":"063001910092"},"geometry":{"type":"Polygon","coordinates":[[[-84.766908,39.176179],[-84.766907,39.17604],[-84.767435,39.176042],[-84.767435,39.176178],[-84.766908,39.176179]]]}},{"type":"Feature","properties":{"pid":"063001910063"},"geometry":{"type":"Polygon","coordinates":[[[-84.765144,39.177226],[-84.764968,39.177226],[-84.764964,39.176834],[-84.765141,39.176834],[-84.765144,39.177226]]]}},{"type":"Feature","properties":{"pid":"063001910066"},"geometry":{"type":"Polygon","coordinates":[[[-84.765139,39.176697],[-84.764966,39.176698],[-84.764966,39.176355],[-84.765135,39.176354],[-84.765139,39.176697]]]}},{"type":"Feature","properties":{"pid":"063001910067"},"geometry":{"type":"Polygon","coordinates":[[[-84.76532,39.176696],[-84.765139,39.176697],[-84.765135,39.176354],[-84.765316,39.176354],[-84.76532,39.176696]]]}},{"type":"Feature","properties":{"pid":"063001910068"},"geometry":{"type":"Polygon","coordinates":[[[-84.765496,39.176695],[-84.76532,39.176696],[-84.765316,39.176354],[-84.765491,39.176353],[-84.765496,39.176695]]]}},{"type":"Feature","properties":{"pid":"063001910100"},"geometry":{"type":"Polygon","coordinates":[[[-84.765492,39.176313],[-84.764967,39.176313],[-84.764966,39.176176],[-84.765491,39.176174],[-84.765492,39.176313]]]}},{"type":"Feature","properties":{"pid":"063001910101"},"geometry":{"type":"Polygon","coordinates":[[[-84.765491,39.176174],[-84.764966,39.176176],[-84.764965,39.176038],[-84.76549,39.176036],[-84.765491,39.176174]]]}},{"type":"Feature","properties":{"pid":"063001910102"},"geometry":{"type":"Polygon","coordinates":[[[-84.76549,39.176036],[-84.764965,39.176038],[-84.764965,39.175893],[-84.765489,39.175891],[-84.76549,39.176036]]]}},{"type":"Feature","properties":{"pid":"063001210037"},"geometry":{"type":"Polygon","coordinates":[[[-84.764257,39.176313],[-84.763731,39.176316],[-84.76373,39.176178],[-84.764257,39.176175],[-84.764257,39.176313]]]}},{"type":"Feature","properties":{"pid":"063001210038"},"geometry":{"type":"Polygon","coordinates":[[[-84.764257,39.176175],[-84.76373,39.176178],[-84.763729,39.176039],[-84.764257,39.176035],[-84.764257,39.176175]]]}},{"type":"Feature","properties":{"pid":"063001210039"},"geometry":{"type":"Polygon","coordinates":[[[-84.764257,39.176035],[-84.763729,39.176039],[-84.763728,39.175898],[-84.764258,39.175895],[-84.764257,39.176035]]]}},{"type":"Feature","properties":{"pid":"063001210040"},"geometry":{"type":"Polygon","coordinates":[[[-84.763729,39.176039],[-84.763202,39.176042],[-84.763201,39.1759],[-84.763728,39.175898],[-84.763729,39.176039]]]}},{"type":"Feature","properties":{"pid":"063001210041"},"geometry":{"type":"Polygon","coordinates":[[[-84.76373,39.176178],[-84.763203,39.176181],[-84.763202,39.176042],[-84.763729,39.176039],[-84.76373,39.176178]]]}},{"type":"Feature","properties":{"pid":"063001210042"},"geometry":{"type":"Polygon","coordinates":[[[-84.763731,39.176316],[-84.763204,39.176319],[-84.763203,39.176181],[-84.76373,39.176178],[-84.763731,39.176316]]]}},{"type":"Feature","properties":{"pid":"063001210046"},"geometry":{"type":"Polygon","coordinates":[[[-84.76252,39.178179],[-84.762337,39.17818],[-84.762331,39.177805],[-84.762512,39.177804],[-84.76252,39.178179]]]}},{"type":"Feature","properties":{"pid":"063001210047"},"geometry":{"type":"Polygon","coordinates":[[[-84.762337,39.17818],[-84.762154,39.17818],[-84.762154,39.177806],[-84.762331,39.177805],[-84.762337,39.17818]]]}},{"type":"Feature","properties":{"pid":"063001100060"},"geometry":{"type":"Polygon","coordinates":[[[-84.761755,39.175028],[-84.761781,39.175868],[-84.760695,39.175872],[-84.761184,39.175025],[-84.761755,39.175028]]]}},{"type":"Feature","properties":{"pid":"063001210065"},"geometry":{"type":"Polygon","coordinates":[[[-84.76303,39.176841],[-84.763032,39.177231],[-84.762853,39.177231],[-84.762851,39.176842],[-84.76303,39.176841]]]}},{"type":"Feature","properties":{"pid":"063001210069"},"geometry":{"type":"Polygon","coordinates":[[[-84.762294,39.177233],[-84.762149,39.177235],[-84.762146,39.176844],[-84.762322,39.176844],[-84.762294,39.177233]]]}},{"type":"Feature","properties":{"pid":"063001210077"},"geometry":{"type":"Polygon","coordinates":[[[-84.760474,39.177439],[-84.760481,39.177161],[-84.76065,39.17716],[-84.760648,39.177442],[-84.760474,39.177439]]]}},{"type":"Feature","properties":{"pid":"063001210081"},"geometry":{"type":"Polygon","coordinates":[[[-84.760224,39.176644],[-84.760746,39.176644],[-84.760744,39.176711],[-84.760184,39.176709],[-84.760224,39.176644]]]}},{"type":"Feature","properties":{"pid":"063001210085"},"geometry":{"type":"Polygon","coordinates":[[[-84.760756,39.17637],[-84.760753,39.17644],[-84.760349,39.17644],[-84.760391,39.176371],[-84.760756,39.17637]]]}},{"type":"Feature","properties":{"pid":"063001210093"},"geometry":{"type":"Polygon","coordinates":[[[-84.761739,39.176738],[-84.761743,39.175907],[-84.761799,39.175907],[-84.761789,39.176538],[-84.762483,39.176544],[-84.762481,39.176737],[-84.761739,39.176738]]]}},{"type":"Feature","properties":{"pid":"063001210110"},"geometry":{"type":"Polygon","coordinates":[[[-84.760434,39.176844],[-84.760431,39.176959],[-84.760036,39.176958],[-84.760106,39.176842],[-84.760434,39.176844]]]}},{"type":"Feature","properties":{"pid":"063001910021"},"geometry":{"type":"Polygon","coordinates":[[[-84.765678,39.178157],[-84.765686,39.177787],[-84.765863,39.177786],[-84.765862,39.178156],[-84.765678,39.178157]]]}},{"type":"Feature","properties":{"pid":"063001910022"},"geometry":{"type":"Polygon","coordinates":[[[-84.765326,39.178159],[-84.765329,39.177788],[-84.765509,39.177787],[-84.765502,39.178158],[-84.765326,39.178159]]]}},{"type":"Feature","properties":{"pid":"063001910023"},"geometry":{"type":"Polygon","coordinates":[[[-84.765154,39.17816],[-84.765154,39.177788],[-84.765329,39.177788],[-84.765326,39.178159],[-84.765154,39.17816]]]}},{"type":"Feature","properties":{"pid":"063001910024"},"geometry":{"type":"Polygon","coordinates":[[[-84.764977,39.178162],[-84.764982,39.177789],[-84.765154,39.177788],[-84.765154,39.17816],[-84.764977,39.178162]]]}},{"type":"Feature","properties":{"pid":"063001910025"},"geometry":{"type":"Polygon","coordinates":[[[-84.764816,39.178162],[-84.764794,39.177789],[-84.764982,39.177789],[-84.764977,39.178162],[-84.764816,39.178162]]]}},{"type":"Feature","properties":{"pid":"063001910027"},"geometry":{"type":"Polygon","coordinates":[[[-84.764964,39.177268],[-84.765142,39.177268],[-84.765142,39.17765],[-84.764963,39.177651],[-84.764964,39.177268]]]}},{"type":"Feature","properties":{"pid":"063001910060"},"geometry":{"type":"Polygon","coordinates":[[[-84.76585,39.177222],[-84.765667,39.177222],[-84.765666,39.176833],[-84.765852,39.176834],[-84.76585,39.177222]]]}},{"type":"Feature","properties":{"pid":"063001910065"},"geometry":{"type":"Polygon","coordinates":[[[-84.764966,39.176355],[-84.764966,39.176698],[-84.76479,39.176699],[-84.764786,39.176355],[-84.764966,39.176355]]]}},{"type":"Feature","properties":{"pid":"063001910069"},"geometry":{"type":"Polygon","coordinates":[[[-84.765677,39.176353],[-84.765854,39.176352],[-84.765858,39.176696],[-84.765681,39.176696],[-84.765677,39.176353]]]}},{"type":"Feature","properties":{"pid":"063001910006"},"geometry":{"type":"Polygon","coordinates":[[[-84.768499,39.17814],[-84.768497,39.177792],[-84.76867,39.177793],[-84.768672,39.178139],[-84.768499,39.17814]]]}},{"type":"Feature","properties":{"pid":"063001910007"},"geometry":{"type":"Polygon","coordinates":[[[-84.768327,39.178141],[-84.768325,39.177792],[-84.768497,39.177792],[-84.768499,39.17814],[-84.768327,39.178141]]]}},{"type":"Feature","properties":{"pid":"063001910008"},"geometry":{"type":"Polygon","coordinates":[[[-84.768149,39.178142],[-84.768145,39.177792],[-84.768325,39.177792],[-84.768327,39.178141],[-84.768149,39.178142]]]}},{"type":"Feature","properties":{"pid":"063001910009"},"geometry":{"type":"Polygon","coordinates":[[[-84.767804,39.178144],[-84.767801,39.177792],[-84.767973,39.177792],[-84.767971,39.178143],[-84.767804,39.178144]]]}},{"type":"Feature","properties":{"pid":"063001910010"},"geometry":{"type":"Polygon","coordinates":[[[-84.767628,39.178145],[-84.767626,39.177792],[-84.767801,39.177792],[-84.767804,39.178144],[-84.767628,39.178145]]]}},{"type":"Feature","properties":{"pid":"063001910011"},"geometry":{"type":"Polygon","coordinates":[[[-84.767448,39.178146],[-84.767446,39.177793],[-84.767626,39.177792],[-84.767628,39.178145],[-84.767448,39.178146]]]}},{"type":"Feature","properties":{"pid":"063001910012"},"geometry":{"type":"Polygon","coordinates":[[[-84.767279,39.178147],[-84.767276,39.177792],[-84.767446,39.177793],[-84.767448,39.178146],[-84.767279,39.178147]]]}},{"type":"Feature","properties":{"pid":"063001910013"},"geometry":{"type":"Polygon","coordinates":[[[-84.7671,39.178149],[-84.767098,39.177791],[-84.767276,39.177792],[-84.767279,39.178147],[-84.7671,39.178149]]]}},{"type":"Feature","properties":{"pid":"063001910014"},"geometry":{"type":"Polygon","coordinates":[[[-84.766923,39.17815],[-84.766918,39.17779],[-84.767098,39.177791],[-84.7671,39.178149],[-84.766923,39.17815]]]}},{"type":"Feature","properties":{"pid":"063001910015"},"geometry":{"type":"Polygon","coordinates":[[[-84.766741,39.178151],[-84.766743,39.17779],[-84.766918,39.17779],[-84.766923,39.17815],[-84.766741,39.178151]]]}},{"type":"Feature","properties":{"pid":"063001910016"},"geometry":{"type":"Polygon","coordinates":[[[-84.766572,39.178152],[-84.766571,39.177789],[-84.766743,39.17779],[-84.766741,39.178151],[-84.766572,39.178152]]]}},{"type":"Feature","properties":{"pid":"063001910017"},"geometry":{"type":"Polygon","coordinates":[[[-84.766391,39.178153],[-84.766393,39.177788],[-84.766571,39.177789],[-84.766572,39.178152],[-84.766391,39.178153]]]}},{"type":"Feature","properties":{"pid":"063001910018"},"geometry":{"type":"Polygon","coordinates":[[[-84.766209,39.178154],[-84.766207,39.177787],[-84.766393,39.177788],[-84.766391,39.178153],[-84.766209,39.178154]]]}},{"type":"Feature","properties":{"pid":"063001910019"},"geometry":{"type":"Polygon","coordinates":[[[-84.766036,39.178155],[-84.766032,39.177787],[-84.766207,39.177787],[-84.766209,39.178154],[-84.766036,39.178155]]]}},{"type":"Feature","properties":{"pid":"063001910020"},"geometry":{"type":"Polygon","coordinates":[[[-84.765862,39.178156],[-84.765863,39.177786],[-84.766032,39.177787],[-84.766036,39.178155],[-84.765862,39.178156]]]}},{"type":"Feature","properties":{"pid":"063001910036"},"geometry":{"type":"Polygon","coordinates":[[[-84.767091,39.177274],[-84.767094,39.177651],[-84.766916,39.177651],[-84.766912,39.177274],[-84.767091,39.177274]]]}},{"type":"Feature","properties":{"pid":"063001910045"},"geometry":{"type":"Polygon","coordinates":[[[-84.768493,39.176838],[-84.768661,39.176839],[-84.768662,39.177231],[-84.768495,39.17723],[-84.768493,39.176838]]]}},{"type":"Feature","properties":{"pid":"063001910049"},"geometry":{"type":"Polygon","coordinates":[[[-84.767618,39.176837],[-84.767797,39.176836],[-84.767797,39.177228],[-84.767622,39.177228],[-84.767618,39.176837]]]}},{"type":"Feature","properties":{"pid":"063001910053"},"geometry":{"type":"Polygon","coordinates":[[[-84.767086,39.176838],[-84.76709,39.177225],[-84.766912,39.177224],[-84.76691,39.176839],[-84.767086,39.176838]]]}},{"type":"Feature","properties":{"pid":"063001910072"},"geometry":{"type":"Polygon","coordinates":[[[-84.76621,39.176695],[-84.766206,39.176352],[-84.766736,39.176351],[-84.76674,39.176694],[-84.76621,39.176695]]]}},{"type":"Feature","properties":{"pid":"063001910080"},"geometry":{"type":"Polygon","coordinates":[[[-84.767795,39.176357],[-84.767797,39.176697],[-84.76762,39.176697],[-84.767619,39.176357],[-84.767795,39.176357]]]}},{"type":"Feature","properties":{"pid":"063001910088"},"geometry":{"type":"Polygon","coordinates":[[[-84.767965,39.176178],[-84.767966,39.176313],[-84.767435,39.176314],[-84.767435,39.176178],[-84.767965,39.176178]]]}},{"type":"Feature","properties":{"pid":"063001210001"},"geometry":{"type":"Polygon","coordinates":[[[-84.764621,39.17779],[-84.764794,39.177789],[-84.764794,39.178163],[-84.764618,39.178164],[-84.764621,39.17779]]]}},{"type":"Feature","properties":{"pid":"063001210002"},"geometry":{"type":"Polygon","coordinates":[[[-84.764445,39.177792],[-84.764621,39.17779],[-84.764618,39.178164],[-84.764445,39.178165],[-84.764445,39.177792]]]}},{"type":"Feature","properties":{"pid":"063001210004"},"geometry":{"type":"Polygon","coordinates":[[[-84.764096,39.177794],[-84.76427,39.177793],[-84.764268,39.178167],[-84.764097,39.178168],[-84.764096,39.177794]]]}},{"type":"Feature","properties":{"pid":"063001210005"},"geometry":{"type":"Polygon","coordinates":[[[-84.763929,39.177795],[-84.764096,39.177794],[-84.764097,39.178168],[-84.763927,39.178169],[-84.763929,39.177795]]]}},{"type":"Feature","properties":{"pid":"063001210006"},"geometry":{"type":"Polygon","coordinates":[[[-84.763746,39.177796],[-84.763929,39.177795],[-84.763927,39.178169],[-84.76375,39.178171],[-84.763746,39.177796]]]}},{"type":"Feature","properties":{"pid":"063001210007"},"geometry":{"type":"Polygon","coordinates":[[[-84.763568,39.177798],[-84.763746,39.177796],[-84.76375,39.178171],[-84.76357,39.178172],[-84.763568,39.177798]]]}},{"type":"Feature","properties":{"pid":"063001210008"},"geometry":{"type":"Polygon","coordinates":[[[-84.763393,39.177799],[-84.763568,39.177798],[-84.76357,39.178172],[-84.763392,39.178174],[-84.763393,39.177799]]]}},{"type":"Feature","properties":{"pid":"063001210009"},"geometry":{"type":"Polygon","coordinates":[[[-84.763212,39.1778],[-84.763393,39.177799],[-84.763392,39.178174],[-84.76322,39.178175],[-84.763212,39.1778]]]}},{"type":"Feature","properties":{"pid":"063001210010"},"geometry":{"type":"Polygon","coordinates":[[[-84.763207,39.177659],[-84.763208,39.177268],[-84.763381,39.177268],[-84.763385,39.177659],[-84.763207,39.177659]]]}},{"type":"Feature","properties":{"pid":"063001210025"},"geometry":{"type":"Polygon","coordinates":[[[-84.763378,39.176841],[-84.763381,39.177224],[-84.763206,39.177224],[-84.763205,39.176843],[-84.763378,39.176841]]]}},{"type":"Feature","properties":{"pid":"063001210032"},"geometry":{"type":"Polygon","coordinates":[[[-84.764433,39.176701],[-84.764432,39.176356],[-84.764606,39.176356],[-84.764609,39.1767],[-84.764433,39.176701]]]}},{"type":"Feature","properties":{"pid":"063001210036"},"geometry":{"type":"Polygon","coordinates":[[[-84.76443,39.17604],[-84.764429,39.175894],[-84.764965,39.175893],[-84.764965,39.176038],[-84.76443,39.17604]]]}},{"type":"Feature","properties":{"pid":"063001210043"},"geometry":{"type":"Polygon","coordinates":[[[-84.762871,39.178178],[-84.762866,39.177802],[-84.763041,39.177801],[-84.763051,39.178176],[-84.762871,39.178178]]]}},{"type":"Feature","properties":{"pid":"063001910031"},"geometry":{"type":"Polygon","coordinates":[[[-84.766025,39.177661],[-84.765849,39.17766],[-84.76585,39.177269],[-84.766025,39.17727],[-84.766025,39.177661]]]}},{"type":"Feature","properties":{"pid":"063001910032"},"geometry":{"type":"Polygon","coordinates":[[[-84.766203,39.177662],[-84.766114,39.177662],[-84.766113,39.17727],[-84.766201,39.177271],[-84.766203,39.177662]]]}},{"type":"Feature","properties":{"pid":"063001910033"},"geometry":{"type":"Polygon","coordinates":[[[-84.766387,39.177663],[-84.766203,39.177662],[-84.766201,39.177271],[-84.766387,39.177272],[-84.766387,39.177663]]]}},{"type":"Feature","properties":{"pid":"063001910055"},"geometry":{"type":"Polygon","coordinates":[[[-84.766376,39.177224],[-84.766375,39.176835],[-84.766556,39.176836],[-84.766556,39.177224],[-84.766376,39.177224]]]}},{"type":"Feature","properties":{"pid":"063001910056"},"geometry":{"type":"Polygon","coordinates":[[[-84.766288,39.177224],[-84.766288,39.176835],[-84.766375,39.176835],[-84.766376,39.177224],[-84.766288,39.177224]]]}},{"type":"Feature","properties":{"pid":"063001910058"},"geometry":{"type":"Polygon","coordinates":[[[-84.766026,39.177223],[-84.766025,39.176834],[-84.7662,39.176835],[-84.7662,39.177223],[-84.766026,39.177223]]]}},{"type":"Feature","properties":{"pid":"063001910076"},"geometry":{"type":"Polygon","coordinates":[[[-84.767264,39.176519],[-84.767085,39.176519],[-84.767084,39.176356],[-84.767262,39.176356],[-84.767264,39.176519]]]}},{"type":"Feature","properties":{"pid":"063001910078"},"geometry":{"type":"Polygon","coordinates":[[[-84.767438,39.176697],[-84.766915,39.176696],[-84.766913,39.176519],[-84.767439,39.176519],[-84.767438,39.176697]]]}},{"type":"Feature","properties":{"pid":"063001910079"},"geometry":{"type":"Polygon","coordinates":[[[-84.76762,39.176697],[-84.767438,39.176697],[-84.767439,39.176356],[-84.767619,39.176357],[-84.76762,39.176697]]]}},{"type":"Feature","properties":{"pid":"063001910082"},"geometry":{"type":"Polygon","coordinates":[[[-84.768144,39.176697],[-84.768143,39.176466],[-84.768315,39.176465],[-84.768318,39.176697],[-84.768144,39.176697]]]}},{"type":"Feature","properties":{"pid":"063001910083"},"geometry":{"type":"Polygon","coordinates":[[[-84.768318,39.176697],[-84.768315,39.176465],[-84.768491,39.176465],[-84.768494,39.176697],[-84.768318,39.176697]]]}},{"type":"Feature","properties":{"pid":"063001910103"},"geometry":{"type":"Polygon","coordinates":[[[-84.766114,39.177662],[-84.766025,39.177661],[-84.766025,39.17727],[-84.766113,39.17727],[-84.766114,39.177662]]]}},{"type":"Feature","properties":{"pid":"063001910104"},"geometry":{"type":"Polygon","coordinates":[[[-84.768661,39.176465],[-84.768143,39.176466],[-84.768142,39.176358],[-84.76866,39.176358],[-84.768661,39.176465]]]}},{"type":"Feature","properties":{"pid":"063001210018"},"geometry":{"type":"Polygon","coordinates":[[[-84.764728,39.177226],[-84.764615,39.177226],[-84.764611,39.176834],[-84.764788,39.176834],[-84.76479,39.177027],[-84.764726,39.177027],[-84.764728,39.177226]]]}},{"type":"Feature","properties":{"pid":"063001210019"},"geometry":{"type":"Polygon","coordinates":[[[-84.764615,39.177226],[-84.764438,39.177226],[-84.764435,39.176834],[-84.764611,39.176834],[-84.764615,39.177226]]]}},{"type":"Feature","properties":{"pid":"063001210026"},"geometry":{"type":"Polygon","coordinates":[[[-84.763556,39.176707],[-84.763207,39.176709],[-84.763206,39.176503],[-84.763554,39.1765],[-84.763556,39.176707]]]}},{"type":"Feature","properties":{"pid":"063001210027"},"geometry":{"type":"Polygon","coordinates":[[[-84.763554,39.1765],[-84.763206,39.176503],[-84.763206,39.176359],[-84.763553,39.176358],[-84.763554,39.1765]]]}},{"type":"Feature","properties":{"pid":"063001210028"},"geometry":{"type":"Polygon","coordinates":[[[-84.76373,39.176706],[-84.763556,39.176707],[-84.763553,39.176358],[-84.763731,39.176357],[-84.76373,39.176706]]]}},{"type":"Feature","properties":{"pid":"063001210062"},"geometry":{"type":"Polygon","coordinates":[[[-84.762682,39.177663],[-84.762506,39.177664],[-84.762505,39.177273],[-84.76268,39.177272],[-84.762682,39.177663]]]}},{"type":"Feature","properties":{"pid":"063001210063"},"geometry":{"type":"Polygon","coordinates":[[[-84.763035,39.177661],[-84.762682,39.177663],[-84.762681,39.177468],[-84.763034,39.177464],[-84.763035,39.177661]]]}},{"type":"Feature","properties":{"pid":"063001210064"},"geometry":{"type":"Polygon","coordinates":[[[-84.763034,39.177464],[-84.762681,39.177468],[-84.76268,39.177272],[-84.763033,39.177271],[-84.763034,39.177464]]]}},{"type":"Feature","properties":{"pid":"063001210088"},"geometry":{"type":"Polygon","coordinates":[[[-84.760797,39.176711],[-84.760804,39.176453],[-84.760982,39.17645],[-84.760981,39.176711],[-84.760797,39.176711]]]}},{"type":"Feature","properties":{"pid":"063001210089"},"geometry":{"type":"Polygon","coordinates":[[[-84.760981,39.176711],[-84.760983,39.176298],[-84.761157,39.176297],[-84.761157,39.176711],[-84.760981,39.176711]]]}},{"type":"Feature","properties":{"pid":"063001210094"},"geometry":{"type":"Polygon","coordinates":[[[-84.762483,39.176544],[-84.761789,39.176538],[-84.761799,39.175907],[-84.76249,39.175903],[-84.762483,39.176544]]]}},{"type":"Feature","properties":{"pid":"063001210099"},"geometry":{"type":"Polygon","coordinates":[[[-84.763029,39.176184],[-84.762488,39.176187],[-84.762489,39.176047],[-84.763028,39.176043],[-84.763029,39.176184]]]}},{"type":"Feature","properties":{"pid":"063001210103"},"geometry":{"type":"Polygon","coordinates":[[[-84.759752,39.177424],[-84.75979,39.177361],[-84.76025,39.177363],[-84.760249,39.177434],[-84.759752,39.177424]]]}},{"type":"Feature","properties":{"pid":"063001210104"},"geometry":{"type":"Polygon","coordinates":[[[-84.76025,39.177363],[-84.75979,39.177361],[-84.759826,39.177303],[-84.760251,39.177304],[-84.76025,39.177363]]]}},{"type":"Feature","properties":{"pid":"063001210105"},"geometry":{"type":"Polygon","coordinates":[[[-84.760251,39.17729],[-84.759833,39.177291],[-84.759874,39.177223],[-84.760252,39.177225],[-84.760251,39.17729]]]}},{"type":"Feature","properties":{"pid":"063001210107"},"geometry":{"type":"Polygon","coordinates":[[[-84.760425,39.177162],[-84.760253,39.177162],[-84.759911,39.177162],[-84.759954,39.177092],[-84.760427,39.177095],[-84.760425,39.177162]]]}},{"type":"Feature","properties":{"pid":"063001210130"},"geometry":{"type":"Polygon","coordinates":[[[-84.759138,39.177323],[-84.759183,39.177323],[-84.759582,39.177324],[-84.759516,39.17743],[-84.759138,39.177429],[-84.759138,39.177323]]]}},{"type":"Feature","properties":{"pid":"063001210131"},"geometry":{"type":"Polygon","coordinates":[[[-84.759288,39.177323],[-84.759288,39.177191],[-84.759668,39.17719],[-84.759582,39.177324],[-84.759288,39.177323]]]}},{"type":"Feature","properties":{"pid":"063001210134"},"geometry":{"type":"Polygon","coordinates":[[[-84.759668,39.17719],[-84.759138,39.177192],[-84.759137,39.177129],[-84.759668,39.177128],[-84.759668,39.17719]]]}},{"type":"Feature","properties":{"pid":"063001210137"},"geometry":{"type":"Polygon","coordinates":[[[-84.759668,39.176993],[-84.759137,39.176995],[-84.759137,39.176923],[-84.759668,39.17692],[-84.759668,39.176993]]]}},{"type":"Feature","properties":{"pid":"063001210138"},"geometry":{"type":"Polygon","coordinates":[[[-84.759557,39.176921],[-84.759556,39.17685],[-84.759668,39.176849],[-84.759668,39.17692],[-84.759557,39.176921]]]}},{"type":"Feature","properties":{"pid":"063001210139"},"geometry":{"type":"Polygon","coordinates":[[[-84.759135,39.176637],[-84.759668,39.176636],[-84.759668,39.176713],[-84.759136,39.176717],[-84.759135,39.176637]]]}},{"type":"Feature","properties":{"pid":"063001210140"},"geometry":{"type":"Polygon","coordinates":[[[-84.759135,39.176637],[-84.759135,39.176586],[-84.759668,39.176584],[-84.759668,39.176636],[-84.759135,39.176637]]]}},{"type":"Feature","properties":{"pid":"063001210141"},"geometry":{"type":"Polygon","coordinates":[[[-84.759135,39.176567],[-84.759135,39.176498],[-84.759668,39.176495],[-84.759668,39.176563],[-84.759135,39.176567]]]}},{"type":"Feature","properties":{"pid":"063001210153"},"geometry":{"type":"Polygon","coordinates":[[[-84.762521,39.176046],[-84.76252,39.175902],[-84.763028,39.1759],[-84.763028,39.176043],[-84.762521,39.176046]]]}},{"type":"Feature","properties":{"pid":"063001210154"},"geometry":{"type":"Polygon","coordinates":[[[-84.760418,39.177438],[-84.760249,39.177434],[-84.760253,39.177162],[-84.760425,39.177162],[-84.760418,39.177438]]]}},{"type":"Feature","properties":{"pid":"063001210156"},"geometry":{"type":"Polygon","coordinates":[[[-84.760982,39.17645],[-84.760804,39.176453],[-84.760809,39.1763],[-84.760983,39.176298],[-84.760982,39.17645]]]}},{"type":"Feature","properties":{"pid":"063001210174"},"geometry":{"type":"Polygon","coordinates":[[[-84.75929,39.176785],[-84.759668,39.176782],[-84.759668,39.176849],[-84.759289,39.176852],[-84.75929,39.176785]]]}},{"type":"Feature","properties":{"pid":"063001910064"},"geometry":{"type":"Polygon","coordinates":[[[-84.764968,39.177226],[-84.764791,39.177226],[-84.764788,39.176834],[-84.764964,39.176834],[-84.764968,39.177226]]]}},{"type":"Feature","properties":{"pid":"063001910002"},"geometry":{"type":"Polygon","coordinates":[[[-84.770705,39.178126],[-84.768672,39.178139],[-84.768662,39.177231],[-84.768839,39.17723],[-84.768838,39.176767],[-84.768661,39.176766],[-84.768654,39.175862],[-84.770701,39.175847],[-84.770705,39.178126]]]}},{"type":"Feature","properties":{"pid":"063001210048"},"geometry":{"type":"Polygon","coordinates":[[[-84.762154,39.17818],[-84.761985,39.178181],[-84.761978,39.177807],[-84.762154,39.177806],[-84.762154,39.17818]]]}},{"type":"Feature","properties":{"pid":"063001210050"},"geometry":{"type":"Polygon","coordinates":[[[-84.761804,39.178182],[-84.761624,39.178183],[-84.761623,39.177809],[-84.7618,39.177808],[-84.761804,39.178182]]]}},{"type":"Feature","properties":{"pid":"063001210049"},"geometry":{"type":"Polygon","coordinates":[[[-84.761985,39.178181],[-84.761804,39.178182],[-84.7618,39.177808],[-84.761978,39.177807],[-84.761985,39.178181]]]}},{"type":"Feature","properties":{"pid":"063001210044"},"geometry":{"type":"Polygon","coordinates":[[[-84.76252,39.178179],[-84.762512,39.177804],[-84.762866,39.177802],[-84.762871,39.178178],[-84.76252,39.178179]]]}},{"type":"Feature","properties":{"pid":"063001210054"},"geometry":{"type":"Polygon","coordinates":[[[-84.760899,39.177811],[-84.761088,39.177813],[-84.761075,39.178186],[-84.760817,39.178188],[-84.760899,39.177811]]]}}],"name":"parcels-45033"}