{"type":"FeatureCollection","crs":{"type":"name","properties":{"name":"urn:ogc:def:crs:OGC:1.3:CRS84"}},"features":[{"type":"Feature","properties":{"pid":"063000210121"},"geometry":{"type":"Polygon","coordinates":[[[-84.703748,39.215427],[-84.704101,39.215427],[-84.704101,39.215537],[-84.703748,39.215536],[-84.703748,39.215427]]]}},{"type":"Feature","properties":{"pid":"063000210290"},"geometry":{"type":"Polygon","coordinates":[[[-84.704101,39.215427],[-84.703748,39.215427],[-84.703748,39.215261],[-84.704101,39.215265],[-84.704101,39.215427]]]}},{"type":"Feature","properties":{"pid":"063000210291"},"geometry":{"type":"Polygon","coordinates":[[[-84.704101,39.215097],[-84.704101,39.215265],[-84.703748,39.215261],[-84.703748,39.215097],[-84.704101,39.215097]]]}},{"type":"Feature","properties":{"pid":"063000210130"},"geometry":{"type":"Polygon","coordinates":[[[-84.704136,39.21556],[-84.704489,39.21556],[-84.704489,39.215647],[-84.704136,39.215647],[-84.704136,39.21556]]]}},{"type":"Feature","properties":{"pid":"063000210128"},"geometry":{"type":"Polygon","coordinates":[[[-84.704136,39.215427],[-84.704489,39.215427],[-84.704489,39.215506],[-84.704136,39.215505],[-84.704136,39.215427]]]}},{"type":"Feature","properties":{"pid":"063000210288"},"geometry":{"type":"Polygon","coordinates":[[[-84.70474,39.217494],[-84.705785,39.217505],[-84.705797,39.217057],[-84.70637,39.217055],[-84.706795,39.217541],[-84.704845,39.217772],[-84.70474,39.217494]]]}},{"type":"Feature","properties":{"pid":"063000210085"},"geometry":{"type":"Polygon","coordinates":[[[-84.705006,39.214822],[-84.704829,39.214824],[-84.704825,39.214604],[-84.705002,39.214602],[-84.705006,39.214822]]]}},{"type":"Feature","properties":{"pid":"063000210087"},"geometry":{"type":"Polygon","coordinates":[[[-84.705178,39.2146],[-84.704825,39.214604],[-84.704824,39.214552],[-84.705177,39.214548],[-84.705178,39.2146]]]}},{"type":"Feature","properties":{"pid":"063000210088"},"geometry":{"type":"Polygon","coordinates":[[[-84.705177,39.214548],[-84.704824,39.214552],[-84.704822,39.214384],[-84.705175,39.214381],[-84.705177,39.214548]]]}},{"type":"Feature","properties":{"pid":"063000210089"},"geometry":{"type":"Polygon","coordinates":[[[-84.705175,39.214381],[-84.704822,39.214384],[-84.70482,39.214275],[-84.705173,39.214271],[-84.705175,39.214381]]]}},{"type":"Feature","properties":{"pid":"063000210093"},"geometry":{"type":"Polygon","coordinates":[[[-84.705383,39.214159],[-84.705206,39.214161],[-84.705202,39.213941],[-84.705379,39.213939],[-84.705383,39.214159]]]}},{"type":"Feature","properties":{"pid":"063000210098"},"geometry":{"type":"Polygon","coordinates":[[[-84.705567,39.214596],[-84.705214,39.2146],[-84.705212,39.21449],[-84.705565,39.214487],[-84.705567,39.214596]]]}},{"type":"Feature","properties":{"pid":"063000210099"},"geometry":{"type":"Polygon","coordinates":[[[-84.705394,39.214818],[-84.70539,39.214598],[-84.705567,39.214596],[-84.70557,39.214816],[-84.705394,39.214818]]]}},{"type":"Feature","properties":{"pid":"063000210002"},"geometry":{"type":"Polygon","coordinates":[[[-84.704689,39.216787],[-84.704795,39.216786],[-84.704798,39.216732],[-84.705433,39.216729],[-84.705424,39.216941],[-84.704682,39.216943],[-84.704689,39.216787]]]}},{"type":"Feature","properties":{"pid":"063000210224"},"geometry":{"type":"Polygon","coordinates":[[[-84.704749,39.217905],[-84.70585,39.21791],[-84.705957,39.218178],[-84.704838,39.218166],[-84.704749,39.217905]]]}},{"type":"Feature","properties":{"pid":"063000210286"},"geometry":{"type":"Polygon","coordinates":[[[-84.704682,39.216943],[-84.705424,39.216941],[-84.705419,39.217058],[-84.705797,39.217057],[-84.705785,39.217505],[-84.70474,39.217494],[-84.704667,39.217299],[-84.704682,39.216943]]]}},{"type":"Feature","properties":{"pid":"063000210228"},"geometry":{"type":"Polygon","coordinates":[[[-84.704899,39.218577],[-84.705092,39.218943],[-84.703123,39.218933],[-84.703343,39.21857],[-84.704899,39.218577]]]}},{"type":"Feature","properties":{"pid":"063000200013"},"geometry":{"type":"Polygon","coordinates":[[[-84.701528,39.212617],[-84.701521,39.211895],[-84.702113,39.211899],[-84.702106,39.212613],[-84.701528,39.212617]]]}},{"type":"Feature","properties":{"pid":"063000200034"},"geometry":{"type":"Polygon","coordinates":[[[-84.702565,39.212616],[-84.702572,39.211929],[-84.702854,39.211931],[-84.702847,39.212617],[-84.702565,39.212616]]]}},{"type":"Feature","properties":{"pid":"063000210004"},"geometry":{"type":"Polygon","coordinates":[[[-84.704803,39.216675],[-84.704816,39.216536],[-84.705157,39.216532],[-84.705147,39.216675],[-84.704803,39.216675]]]}},{"type":"Feature","properties":{"pid":"063000210005"},"geometry":{"type":"Polygon","coordinates":[[[-84.704816,39.216536],[-84.704828,39.216403],[-84.705165,39.216404],[-84.705157,39.216532],[-84.704816,39.216536]]]}},{"type":"Feature","properties":{"pid":"063000210006"},"geometry":{"type":"Polygon","coordinates":[[[-84.704828,39.216403],[-84.704837,39.216208],[-84.705125,39.216205],[-84.705115,39.216404],[-84.704828,39.216403]]]}},{"type":"Feature","properties":{"pid":"063000210007"},"geometry":{"type":"Polygon","coordinates":[[[-84.704837,39.216208],[-84.704842,39.216118],[-84.705078,39.216115],[-84.705073,39.216206],[-84.704837,39.216208]]]}},{"type":"Feature","properties":{"pid":"063000210009"},"geometry":{"type":"Polygon","coordinates":[[[-84.705797,39.216406],[-84.705284,39.216405],[-84.7053,39.216113],[-84.705404,39.216111],[-84.705726,39.216261],[-84.705797,39.216406]]]}},{"type":"Feature","properties":{"pid":"063000210010"},"geometry":{"type":"Polygon","coordinates":[[[-84.705404,39.216111],[-84.705624,39.216108],[-84.705726,39.216261],[-84.705404,39.216111]]]}},{"type":"Feature","properties":{"pid":"063000210019"},"geometry":{"type":"Polygon","coordinates":[[[-84.705822,39.215974],[-84.705817,39.215758],[-84.705989,39.215756],[-84.705996,39.215972],[-84.705822,39.215974]]]}},{"type":"Feature","properties":{"pid":"063000210022"},"geometry":{"type":"Polygon","coordinates":[[[-84.705815,39.215649],[-84.705813,39.21554],[-84.706162,39.215534],[-84.706165,39.215645],[-84.705815,39.215649]]]}},{"type":"Feature","properties":{"pid":"063000210036"},"geometry":{"type":"Polygon","coordinates":[[[-84.705809,39.214828],[-84.705805,39.214597],[-84.705973,39.214595],[-84.705974,39.214828],[-84.705809,39.214828]]]}},{"type":"Feature","properties":{"pid":"063000210037"},"geometry":{"type":"Polygon","coordinates":[[[-84.705974,39.214828],[-84.705973,39.214595],[-84.706155,39.214594],[-84.706158,39.214827],[-84.705974,39.214828]]]}},{"type":"Feature","properties":{"pid":"063000210038"},"geometry":{"type":"Polygon","coordinates":[[[-84.706155,39.214594],[-84.705805,39.214597],[-84.705803,39.214491],[-84.706154,39.214488],[-84.706155,39.214594]]]}},{"type":"Feature","properties":{"pid":"063000210039"},"geometry":{"type":"Polygon","coordinates":[[[-84.705803,39.214491],[-84.705801,39.21438],[-84.706153,39.214377],[-84.706154,39.214488],[-84.705803,39.214491]]]}},{"type":"Feature","properties":{"pid":"063000210040"},"geometry":{"type":"Polygon","coordinates":[[[-84.705801,39.21438],[-84.705799,39.214266],[-84.706152,39.214262],[-84.706153,39.214377],[-84.705801,39.21438]]]}},{"type":"Feature","properties":{"pid":"063000210041"},"geometry":{"type":"Polygon","coordinates":[[[-84.705799,39.214266],[-84.705797,39.214155],[-84.70615,39.214154],[-84.706152,39.214262],[-84.705799,39.214266]]]}},{"type":"Feature","properties":{"pid":"063000210042"},"geometry":{"type":"Polygon","coordinates":[[[-84.705973,39.214155],[-84.70597,39.213928],[-84.706147,39.213926],[-84.70615,39.214154],[-84.705973,39.214155]]]}},{"type":"Feature","properties":{"pid":"063000210043"},"geometry":{"type":"Polygon","coordinates":[[[-84.705797,39.214155],[-84.705793,39.213931],[-84.70597,39.213928],[-84.705973,39.214155],[-84.705797,39.214155]]]}},{"type":"Feature","properties":{"pid":"063000210044"},"geometry":{"type":"Polygon","coordinates":[[[-84.70618,39.214147],[-84.706177,39.213927],[-84.706534,39.213924],[-84.70653,39.214143],[-84.70618,39.214147]]]}},{"type":"Feature","properties":{"pid":"063000210051"},"geometry":{"type":"Polygon","coordinates":[[[-84.706541,39.214823],[-84.706538,39.21459],[-84.706901,39.214587],[-84.706903,39.21482],[-84.706541,39.214823]]]}},{"type":"Feature","properties":{"pid":"063000210065"},"geometry":{"type":"Polygon","coordinates":[[[-84.705797,39.213216],[-84.705797,39.213101],[-84.706147,39.213099],[-84.706149,39.213215],[-84.705797,39.213216]]]}},{"type":"Feature","properties":{"pid":"063000210077"},"geometry":{"type":"Polygon","coordinates":[[[-84.705203,39.215315],[-84.705196,39.215099],[-84.705386,39.215098],[-84.705387,39.215312],[-84.705203,39.215315]]]}},{"type":"Feature","properties":{"pid":"063000210078"},"geometry":{"type":"Polygon","coordinates":[[[-84.705387,39.215312],[-84.705386,39.215098],[-84.705582,39.215098],[-84.705587,39.215309],[-84.705387,39.215312]]]}},{"type":"Feature","properties":{"pid":"063000210079"},"geometry":{"type":"Polygon","coordinates":[[[-84.705206,39.215425],[-84.705203,39.215315],[-84.705587,39.215309],[-84.705589,39.215419],[-84.705206,39.215425]]]}},{"type":"Feature","properties":{"pid":"063000210081"},"geometry":{"type":"Polygon","coordinates":[[[-84.705209,39.21554],[-84.705206,39.215425],[-84.705589,39.215419],[-84.705592,39.215535],[-84.705209,39.21554]]]}},{"type":"Feature","properties":{"pid":"063000210109"},"geometry":{"type":"Polygon","coordinates":[[[-84.705201,39.213011],[-84.705199,39.212791],[-84.705376,39.212791],[-84.705377,39.21301],[-84.705201,39.213011]]]}},{"type":"Feature","properties":{"pid":"063000210110"},"geometry":{"type":"Polygon","coordinates":[[[-84.705377,39.21301],[-84.705376,39.212791],[-84.705552,39.21279],[-84.705554,39.21301],[-84.705377,39.21301]]]}},{"type":"Feature","properties":{"pid":"063000210111"},"geometry":{"type":"Polygon","coordinates":[[[-84.705201,39.213121],[-84.705201,39.213011],[-84.705554,39.21301],[-84.705554,39.213119],[-84.705201,39.213121]]]}},{"type":"Feature","properties":{"pid":"063000210113"},"geometry":{"type":"Polygon","coordinates":[[[-84.705203,39.213341],[-84.705202,39.213231],[-84.705555,39.213229],[-84.705556,39.213339],[-84.705203,39.213341]]]}},{"type":"Feature","properties":{"pid":"063000210114"},"geometry":{"type":"Polygon","coordinates":[[[-84.705204,39.21345],[-84.705203,39.213341],[-84.705556,39.213339],[-84.705557,39.213449],[-84.705204,39.21345]]]}},{"type":"Feature","properties":{"pid":"063000210166"},"geometry":{"type":"Polygon","coordinates":[[[-84.703337,39.215326],[-84.703335,39.215108],[-84.703515,39.215106],[-84.703517,39.215325],[-84.703337,39.215326]]]}},{"type":"Feature","properties":{"pid":"063000210169"},"geometry":{"type":"Polygon","coordinates":[[[-84.703514,39.214611],[-84.703163,39.214615],[-84.703159,39.214511],[-84.703511,39.214507],[-84.703514,39.214611]]]}},{"type":"Feature","properties":{"pid":"063000210170"},"geometry":{"type":"Polygon","coordinates":[[[-84.703159,39.214511],[-84.703156,39.2144],[-84.703508,39.214396],[-84.703511,39.214507],[-84.703159,39.214511]]]}},{"type":"Feature","properties":{"pid":"063000210173"},"geometry":{"type":"Polygon","coordinates":[[[-84.703325,39.214176],[-84.703318,39.21395],[-84.703496,39.213949],[-84.703502,39.214174],[-84.703325,39.214176]]]}},{"type":"Feature","properties":{"pid":"063000210174"},"geometry":{"type":"Polygon","coordinates":[[[-84.703148,39.214177],[-84.70314,39.213952],[-84.703318,39.21395],[-84.703325,39.214176],[-84.703148,39.214177]]]}},{"type":"Feature","properties":{"pid":"063000210175"},"geometry":{"type":"Polygon","coordinates":[[[-84.702758,39.214403],[-84.702757,39.214288],[-84.703112,39.214285],[-84.703115,39.214401],[-84.702758,39.214403]]]}},{"type":"Feature","properties":{"pid":"063000210183"},"geometry":{"type":"Polygon","coordinates":[[[-84.702773,39.213211],[-84.702774,39.2131],[-84.703122,39.2131],[-84.703122,39.213212],[-84.702773,39.213211]]]}},{"type":"Feature","properties":{"pid":"063000210185"},"geometry":{"type":"Polygon","coordinates":[[[-84.702948,39.212993],[-84.702949,39.212779],[-84.703123,39.212778],[-84.703123,39.212992],[-84.702948,39.212993]]]}},{"type":"Feature","properties":{"pid":"063000210186"},"geometry":{"type":"Polygon","coordinates":[[[-84.702774,39.212993],[-84.702775,39.212779],[-84.702949,39.212779],[-84.702948,39.212993],[-84.702774,39.212993]]]}},{"type":"Feature","properties":{"pid":"063000210187"},"geometry":{"type":"Polygon","coordinates":[[[-84.703155,39.212992],[-84.703156,39.212778],[-84.703341,39.212778],[-84.703337,39.212991],[-84.703155,39.212992]]]}},{"type":"Feature","properties":{"pid":"063000210188"},"geometry":{"type":"Polygon","coordinates":[[[-84.703337,39.212991],[-84.703341,39.212778],[-84.703507,39.212778],[-84.703508,39.212991],[-84.703337,39.212991]]]}},{"type":"Feature","properties":{"pid":"063000210189"},"geometry":{"type":"Polygon","coordinates":[[[-84.703155,39.213099],[-84.703155,39.212992],[-84.703508,39.212991],[-84.703509,39.213099],[-84.703155,39.213099]]]}},{"type":"Feature","properties":{"pid":"063000210208"},"geometry":{"type":"Polygon","coordinates":[[[-84.702195,39.213331],[-84.702194,39.21321],[-84.702547,39.213209],[-84.702548,39.213328],[-84.702195,39.213331]]]}},{"type":"Feature","properties":{"pid":"063000210223"},"geometry":{"type":"Polygon","coordinates":[[[-84.706025,39.218351],[-84.704907,39.218346],[-84.704838,39.218166],[-84.705957,39.218178],[-84.706025,39.218351]]]}},{"type":"Feature","properties":{"pid":"063000210227"},"geometry":{"type":"Polygon","coordinates":[[[-84.706279,39.218553],[-84.704996,39.218551],[-84.704928,39.218395],[-84.705302,39.21835],[-84.706025,39.218351],[-84.706279,39.218553]]]}},{"type":"Feature","properties":{"pid":"063000210230"},"geometry":{"type":"Polygon","coordinates":[[[-84.706537,39.218759],[-84.705201,39.218748],[-84.705127,39.218589],[-84.705383,39.218553],[-84.706279,39.218553],[-84.706537,39.218759]]]}},{"type":"Feature","properties":{"pid":"063000210231"},"geometry":{"type":"Polygon","coordinates":[[[-84.705201,39.218748],[-84.705307,39.218749],[-84.705493,39.21875],[-84.705223,39.218793],[-84.705201,39.218748]]]}},{"type":"Feature","properties":{"pid":"063000210232"},"geometry":{"type":"Polygon","coordinates":[[[-84.704996,39.218551],[-84.705109,39.218551],[-84.705383,39.218553],[-84.705023,39.218604],[-84.704996,39.218551]]]}},{"type":"Feature","properties":{"pid":"063000210236"},"geometry":{"type":"Polygon","coordinates":[[[-84.703341,39.214807],[-84.703336,39.214613],[-84.703514,39.214611],[-84.703519,39.214804],[-84.703341,39.214807]]]}},{"type":"Feature","properties":{"pid":"063000210243"},"geometry":{"type":"Polygon","coordinates":[[[-84.70333,39.213744],[-84.703355,39.213677],[-84.703513,39.213677],[-84.703513,39.213743],[-84.70333,39.213744]]]}},{"type":"Feature","properties":{"pid":"063000210270"},"geometry":{"type":"Polygon","coordinates":[[[-84.704798,39.216732],[-84.704803,39.216675],[-84.705147,39.216675],[-84.705165,39.216404],[-84.705449,39.216407],[-84.705433,39.216729],[-84.704798,39.216732]]]}},{"type":"Feature","properties":{"pid":"063000210226"},"geometry":{"type":"Polygon","coordinates":[[[-84.706537,39.218759],[-84.706784,39.218954],[-84.705298,39.218945],[-84.705223,39.218793],[-84.705493,39.21875],[-84.706537,39.218759]]]}},{"type":"Feature","properties":{"pid":"063000210027"},"geometry":{"type":"Polygon","coordinates":[[[-84.706191,39.215314],[-84.706186,39.215093],[-84.706541,39.215089],[-84.706546,39.215308],[-84.706191,39.215314]]]}},{"type":"Feature","properties":{"pid":"063000210028"},"geometry":{"type":"Polygon","coordinates":[[[-84.706546,39.215308],[-84.706541,39.215089],[-84.706612,39.215088],[-84.706618,39.215307],[-84.706546,39.215308]]]}},{"type":"Feature","properties":{"pid":"063000210029"},"geometry":{"type":"Polygon","coordinates":[[[-84.706618,39.215307],[-84.706612,39.215088],[-84.706907,39.215084],[-84.706908,39.215302],[-84.706618,39.215307]]]}},{"type":"Feature","properties":{"pid":"063000210030"},"geometry":{"type":"Polygon","coordinates":[[[-84.706207,39.21597],[-84.706191,39.215314],[-84.706908,39.215302],[-84.706912,39.215962],[-84.706207,39.21597]]]}},{"type":"Feature","properties":{"pid":"063000210167"},"geometry":{"type":"Polygon","coordinates":[[[-84.703342,39.214847],[-84.703341,39.214807],[-84.703519,39.214804],[-84.70352,39.214846],[-84.703342,39.214847]]]}},{"type":"Feature","properties":{"pid":"063000210134"},"geometry":{"type":"Polygon","coordinates":[[[-84.704087,39.214821],[-84.70391,39.214822],[-84.703909,39.214602],[-84.704086,39.214601],[-84.704087,39.214821]]]}},{"type":"Feature","properties":{"pid":"063000210136"},"geometry":{"type":"Polygon","coordinates":[[[-84.704086,39.214601],[-84.703733,39.214602],[-84.703733,39.214493],[-84.704086,39.214492],[-84.704086,39.214601]]]}},{"type":"Feature","properties":{"pid":"063000210138"},"geometry":{"type":"Polygon","coordinates":[[[-84.704085,39.214382],[-84.703732,39.214383],[-84.703732,39.214273],[-84.704085,39.214272],[-84.704085,39.214382]]]}},{"type":"Feature","properties":{"pid":"063000210139"},"geometry":{"type":"Polygon","coordinates":[[[-84.704085,39.214268],[-84.703732,39.214269],[-84.703731,39.214163],[-84.704084,39.214162],[-84.704085,39.214268]]]}},{"type":"Feature","properties":{"pid":"063000210140"},"geometry":{"type":"Polygon","coordinates":[[[-84.703731,39.214163],[-84.70373,39.213943],[-84.703907,39.213943],[-84.703908,39.214163],[-84.703731,39.214163]]]}},{"type":"Feature","properties":{"pid":"063000210141"},"geometry":{"type":"Polygon","coordinates":[[[-84.703908,39.214163],[-84.703907,39.213943],[-84.704083,39.213943],[-84.704084,39.214162],[-84.703908,39.214163]]]}},{"type":"Feature","properties":{"pid":"063000210142"},"geometry":{"type":"Polygon","coordinates":[[[-84.704472,39.214161],[-84.704119,39.214162],[-84.704118,39.213942],[-84.704471,39.213941],[-84.704472,39.214161]]]}},{"type":"Feature","properties":{"pid":"063000210143"},"geometry":{"type":"Polygon","coordinates":[[[-84.704473,39.214271],[-84.70412,39.214272],[-84.704119,39.214162],[-84.704472,39.214161],[-84.704473,39.214271]]]}},{"type":"Feature","properties":{"pid":"063000200032"},"geometry":{"type":"Polygon","coordinates":[[[-84.702282,39.212614],[-84.702286,39.212244],[-84.702568,39.212253],[-84.702565,39.212616],[-84.702282,39.212614]]]}},{"type":"Feature","properties":{"pid":"063000200046"},"geometry":{"type":"Polygon","coordinates":[[[-84.702106,39.212613],[-84.702113,39.211899],[-84.702289,39.2119],[-84.702282,39.212614],[-84.702106,39.212613]]]}},{"type":"Feature","properties":{"pid":"063000210171"},"geometry":{"type":"Polygon","coordinates":[[[-84.703156,39.2144],[-84.703152,39.214285],[-84.703505,39.214283],[-84.703508,39.214396],[-84.703156,39.2144]]]}},{"type":"Feature","properties":{"pid":"063000210127"},"geometry":{"type":"Polygon","coordinates":[[[-84.704489,39.215427],[-84.704136,39.215427],[-84.704136,39.215317],[-84.704489,39.215317],[-84.704489,39.215427]]]}},{"type":"Feature","properties":{"pid":"063000210125"},"geometry":{"type":"Polygon","coordinates":[[[-84.704136,39.215167],[-84.704137,39.215097],[-84.704489,39.215098],[-84.704489,39.215168],[-84.704136,39.215167]]]}},{"type":"Feature","properties":{"pid":"063000210126"},"geometry":{"type":"Polygon","coordinates":[[[-84.704489,39.215317],[-84.704136,39.215317],[-84.704136,39.215167],[-84.704489,39.215168],[-84.704489,39.215317]]]}},{"type":"Feature","properties":{"pid":"063000210117"},"geometry":{"type":"Polygon","coordinates":[[[-84.704101,39.215756],[-84.7041,39.215976],[-84.703924,39.215976],[-84.703924,39.215756],[-84.704101,39.215756]]]}},{"type":"Feature","properties":{"pid":"063000210119"},"geometry":{"type":"Polygon","coordinates":[[[-84.704101,39.215756],[-84.703748,39.215756],[-84.703748,39.215646],[-84.704101,39.215646],[-84.704101,39.215756]]]}},{"type":"Feature","properties":{"pid":"063000210120"},"geometry":{"type":"Polygon","coordinates":[[[-84.704101,39.215646],[-84.703748,39.215646],[-84.703748,39.215536],[-84.704101,39.215537],[-84.704101,39.215646]]]}},{"type":"Feature","properties":{"pid":"063000210131"},"geometry":{"type":"Polygon","coordinates":[[[-84.704489,39.215757],[-84.704136,39.215756],[-84.704136,39.215647],[-84.704489,39.215647],[-84.704489,39.215757]]]}},{"type":"Feature","properties":{"pid":"063000210013"},"geometry":{"type":"Polygon","coordinates":[[[-84.705797,39.216406],[-84.706052,39.216404],[-84.705979,39.216289],[-84.706526,39.216208],[-84.706529,39.2164],[-84.705835,39.216478],[-84.705797,39.216406]]]}},{"type":"Feature","properties":{"pid":"063000210015"},"geometry":{"type":"Polygon","coordinates":[[[-84.705866,39.21611],[-84.706525,39.216104],[-84.706526,39.216208],[-84.705979,39.216289],[-84.705866,39.21611]]]}},{"type":"Feature","properties":{"pid":"063000210101"},"geometry":{"type":"Polygon","coordinates":[[[-84.704817,39.213672],[-84.704815,39.213357],[-84.705168,39.213356],[-84.70517,39.21367],[-84.704817,39.213672]]]}},{"type":"Feature","properties":{"pid":"063000210104"},"geometry":{"type":"Polygon","coordinates":[[[-84.704815,39.213357],[-84.704813,39.213123],[-84.705166,39.213121],[-84.705168,39.213356],[-84.704815,39.213357]]]}},{"type":"Feature","properties":{"pid":"063000210172"},"geometry":{"type":"Polygon","coordinates":[[[-84.703152,39.214285],[-84.703148,39.214177],[-84.703502,39.214174],[-84.703505,39.214283],[-84.703152,39.214285]]]}},{"type":"Feature","properties":{"pid":"063000210115"},"geometry":{"type":"Polygon","coordinates":[[[-84.705205,39.21367],[-84.705204,39.21345],[-84.705557,39.213449],[-84.705558,39.213669],[-84.705205,39.21367]]]}},{"type":"Feature","properties":{"pid":"063000210150"},"geometry":{"type":"Polygon","coordinates":[[[-84.703727,39.213676],[-84.70372,39.212798],[-84.704461,39.212795],[-84.704468,39.213673],[-84.703727,39.213676]]]}},{"type":"Feature","properties":{"pid":"063000210052"},"geometry":{"type":"Polygon","coordinates":[[[-84.706539,39.213652],[-84.706537,39.213432],[-84.706889,39.213428],[-84.706892,39.213648],[-84.706539,39.213652]]]}},{"type":"Feature","properties":{"pid":"063000210054"},"geometry":{"type":"Polygon","coordinates":[[[-84.706189,39.213655],[-84.706187,39.213436],[-84.706363,39.213434],[-84.706366,39.213654],[-84.706189,39.213655]]]}},{"type":"Feature","properties":{"pid":"063000210221"},"geometry":{"type":"Polygon","coordinates":[[[-84.705167,39.215411],[-84.704833,39.215415],[-84.704831,39.215316],[-84.705165,39.215312],[-84.705167,39.215411]]]}},{"type":"Feature","properties":{"pid":"063000210229"},"geometry":{"type":"Polygon","coordinates":[[[-84.706153,39.213653],[-84.7058,39.213656],[-84.705798,39.213452],[-84.706151,39.21345],[-84.706153,39.213653]]]}},{"type":"Feature","properties":{"pid":"063000210249"},"geometry":{"type":"Polygon","coordinates":[[[-84.705176,39.215763],[-84.704839,39.215766],[-84.704837,39.215671],[-84.705174,39.215665],[-84.705176,39.215763]]]}},{"type":"Feature","properties":{"pid":"063000210059"},"geometry":{"type":"Polygon","coordinates":[[[-84.706151,39.213434],[-84.705798,39.213436],[-84.705797,39.213323],[-84.70615,39.213322],[-84.706151,39.213434]]]}},{"type":"Feature","properties":{"pid":"063000210066"},"geometry":{"type":"Polygon","coordinates":[[[-84.706147,39.213099],[-84.705797,39.213101],[-84.705797,39.212997],[-84.706146,39.212996],[-84.706147,39.213099]]]}},{"type":"Feature","properties":{"pid":"063000210067"},"geometry":{"type":"Polygon","coordinates":[[[-84.706146,39.212996],[-84.705972,39.212996],[-84.705971,39.212776],[-84.706144,39.212776],[-84.706146,39.212996]]]}},{"type":"Feature","properties":{"pid":"063000210068"},"geometry":{"type":"Polygon","coordinates":[[[-84.705972,39.212996],[-84.705797,39.212997],[-84.705798,39.212776],[-84.705971,39.212776],[-84.705972,39.212996]]]}},{"type":"Feature","properties":{"pid":"063000210069"},"geometry":{"type":"Polygon","coordinates":[[[-84.705008,39.215984],[-84.704843,39.215987],[-84.704839,39.215766],[-84.705004,39.215764],[-84.705008,39.215984]]]}},{"type":"Feature","properties":{"pid":"063000210072"},"geometry":{"type":"Polygon","coordinates":[[[-84.705173,39.21565],[-84.704837,39.215656],[-84.704835,39.215542],[-84.705171,39.215539],[-84.705173,39.21565]]]}},{"type":"Feature","properties":{"pid":"063000210073"},"geometry":{"type":"Polygon","coordinates":[[[-84.705171,39.215539],[-84.704835,39.215542],[-84.704833,39.215425],[-84.705167,39.215419],[-84.705171,39.215539]]]}},{"type":"Feature","properties":{"pid":"063000210074"},"geometry":{"type":"Polygon","coordinates":[[[-84.705167,39.215411],[-84.704833,39.215425],[-84.704833,39.215415],[-84.705167,39.215411]]]}},{"type":"Feature","properties":{"pid":"063000210075"},"geometry":{"type":"Polygon","coordinates":[[[-84.705165,39.215312],[-84.704997,39.215314],[-84.704992,39.215099],[-84.705159,39.215098],[-84.705165,39.215312]]]}},{"type":"Feature","properties":{"pid":"063000210076"},"geometry":{"type":"Polygon","coordinates":[[[-84.704997,39.215314],[-84.704831,39.215316],[-84.704827,39.215099],[-84.704992,39.215099],[-84.704997,39.215314]]]}},{"type":"Feature","properties":{"pid":"063000210082"},"geometry":{"type":"Polygon","coordinates":[[[-84.705597,39.215758],[-84.705389,39.215759],[-84.70539,39.215646],[-84.705594,39.215643],[-84.705597,39.215758]]]}},{"type":"Feature","properties":{"pid":"063000210084"},"geometry":{"type":"Polygon","coordinates":[[[-84.705601,39.215979],[-84.705389,39.21598],[-84.705389,39.215759],[-84.705597,39.215758],[-84.705601,39.215979]]]}},{"type":"Feature","properties":{"pid":"063000210180"},"geometry":{"type":"Polygon","coordinates":[[[-84.702948,39.213747],[-84.702772,39.213748],[-84.702773,39.213437],[-84.702947,39.213436],[-84.702948,39.213747]]]}},{"type":"Feature","properties":{"pid":"063000210190"},"geometry":{"type":"Polygon","coordinates":[[[-84.70351,39.213211],[-84.703155,39.213211],[-84.703155,39.213099],[-84.703509,39.213099],[-84.70351,39.213211]]]}},{"type":"Feature","properties":{"pid":"063000210191"},"geometry":{"type":"Polygon","coordinates":[[[-84.70351,39.213265],[-84.703155,39.213266],[-84.703155,39.213211],[-84.70351,39.213211],[-84.70351,39.213265]]]}},{"type":"Feature","properties":{"pid":"063000210192"},"geometry":{"type":"Polygon","coordinates":[[[-84.703511,39.213435],[-84.703155,39.213436],[-84.703155,39.213328],[-84.70351,39.213327],[-84.703511,39.213435]]]}},{"type":"Feature","properties":{"pid":"063000210193"},"geometry":{"type":"Polygon","coordinates":[[[-84.703513,39.213677],[-84.70333,39.213677],[-84.703328,39.213435],[-84.703511,39.213435],[-84.703513,39.213677]]]}},{"type":"Feature","properties":{"pid":"063000210194"},"geometry":{"type":"Polygon","coordinates":[[[-84.70333,39.213677],[-84.703155,39.213677],[-84.703155,39.213446],[-84.703328,39.213445],[-84.70333,39.213677]]]}},{"type":"Feature","properties":{"pid":"063000210262"},"geometry":{"type":"Polygon","coordinates":[[[-84.704899,39.218577],[-84.704097,39.218573],[-84.703343,39.21857],[-84.703552,39.218205],[-84.704777,39.218215],[-84.704899,39.218577]]]}},{"type":"Feature","properties":{"pid":"063000210218"},"geometry":{"type":"Polygon","coordinates":[[[-84.704506,39.217346],[-84.703834,39.217377],[-84.70383,39.217228],[-84.704505,39.217201],[-84.704506,39.217346]]]}},{"type":"Feature","properties":{"pid":"063000210238"},"geometry":{"type":"Polygon","coordinates":[[[-84.704733,39.218214],[-84.703552,39.218205],[-84.703633,39.217654],[-84.704582,39.217615],[-84.704733,39.218214]]]}},{"type":"Feature","properties":{"pid":"063000210011"},"geometry":{"type":"Polygon","coordinates":[[[-84.703775,39.21647],[-84.70359,39.216243],[-84.704084,39.216126],[-84.704627,39.216121],[-84.704614,39.216388],[-84.703919,39.21642],[-84.703775,39.21647]]]}},{"type":"Feature","properties":{"pid":"063000210219"},"geometry":{"type":"Polygon","coordinates":[[[-84.704514,39.217479],[-84.70381,39.217506],[-84.703834,39.217377],[-84.704506,39.217346],[-84.704514,39.217479]]]}},{"type":"Feature","properties":{"pid":"063000210216"},"geometry":{"type":"Polygon","coordinates":[[[-84.704574,39.217067],[-84.704402,39.217066],[-84.703825,39.217092],[-84.703839,39.216959],[-84.704583,39.216928],[-84.704574,39.217067]]]}},{"type":"Feature","properties":{"pid":"063000210215"},"geometry":{"type":"Polygon","coordinates":[[[-84.704583,39.216928],[-84.703839,39.216959],[-84.703836,39.216819],[-84.70459,39.216787],[-84.704583,39.216928]]]}},{"type":"Feature","properties":{"pid":"063000210271"},"geometry":{"type":"Polygon","coordinates":[[[-84.706456,39.212772],[-84.706464,39.213214],[-84.706185,39.213216],[-84.706179,39.212776],[-84.706456,39.212772]]]}},{"type":"Feature","properties":{"pid":"063000210057"},"geometry":{"type":"Polygon","coordinates":[[[-84.706537,39.213432],[-84.706533,39.213213],[-84.706886,39.21321],[-84.706889,39.213428],[-84.706537,39.213432]]]}},{"type":"Feature","properties":{"pid":"063000210061"},"geometry":{"type":"Polygon","coordinates":[[[-84.706456,39.212772],[-84.706877,39.212767],[-84.706886,39.21321],[-84.706464,39.213214],[-84.706456,39.212772]]]}},{"type":"Feature","properties":{"pid":"063000210090"},"geometry":{"type":"Polygon","coordinates":[[[-84.705173,39.214271],[-84.70482,39.214275],[-84.704818,39.214165],[-84.705171,39.214161],[-84.705173,39.214271]]]}},{"type":"Feature","properties":{"pid":"063000210299"},"geometry":{"type":"Polygon","coordinates":[[[-84.705167,39.213941],[-84.705168,39.214021],[-84.705099,39.214024],[-84.705099,39.214065],[-84.704817,39.214099],[-84.704814,39.213945],[-84.705167,39.213941]]]}}],"name":"parcels-45041"}