{"type":"FeatureCollection","crs":{"type":"name","properties":{"name":"urn:ogc:def:crs:OGC:1.3:CRS84"}},"features":[{"type":"Feature","properties":{"pid":"054001000018"},"geometry":{"type":"Polygon","coordinates":[[[-84.644667,39.099509],[-84.644977,39.0969],[-84.645946,39.097413],[-84.646821,39.097449],[-84.646511,39.100399],[-84.644667,39.099509]]]}},{"type":"Feature","properties":{"pid":"054001000021"},"geometry":{"type":"Polygon","coordinates":[[[-84.644977,39.0969],[-84.644815,39.098285],[-84.644687,39.099336],[-84.642211,39.096558],[-84.64317,39.096274],[-84.643611,39.096254],[-84.643884,39.096319],[-84.643898,39.096295],[-84.644025,39.096398],[-84.644977,39.0969]]]}}],"name":"parcels-45051"}