{"type":"FeatureCollection","crs":{"type":"name","properties":{"name":"urn:ogc:def:crs:OGC:1.3:CRS84"}},"features":[{"type":"Feature","properties":{"pid":"062001220253"},"geometry":{"type":"Polygon","coordinates":[[[-84.287121,39.196259],[-84.287648,39.196297],[-84.287602,39.196666],[-84.287075,39.196628],[-84.287121,39.196259]]]}},{"type":"Feature","properties":{"pid":"062001220264"},"geometry":{"type":"Polygon","coordinates":[[[-84.286548,39.19659],[-84.286594,39.196221],[-84.287121,39.196259],[-84.287075,39.196628],[-84.286548,39.19659]]]}},{"type":"Feature","properties":{"pid":"062001200035"},"geometry":{"type":"Polygon","coordinates":[[[-84.289601,39.192892],[-84.290717,39.192967],[-84.291005,39.192985],[-84.290639,39.193327],[-84.289569,39.193262],[-84.289601,39.192892]]]}},{"type":"Feature","properties":{"pid":"062001200038"},"geometry":{"type":"Polygon","coordinates":[[[-84.291252,39.193639],[-84.291284,39.193366],[-84.291794,39.193404],[-84.291779,39.193671],[-84.291252,39.193639]]]}},{"type":"Feature","properties":{"pid":"062001220093"},"geometry":{"type":"Polygon","coordinates":[[[-84.290199,39.195285],[-84.289397,39.195238],[-84.289455,39.194734],[-84.290257,39.194782],[-84.290199,39.195285]]]}},{"type":"Feature","properties":{"pid":"062001220099"},"geometry":{"type":"Polygon","coordinates":[[[-84.288622,39.194689],[-84.289009,39.19471],[-84.288985,39.194937],[-84.288598,39.194916],[-84.288622,39.194689]]]}},{"type":"Feature","properties":{"pid":"062001220097"},"geometry":{"type":"Polygon","coordinates":[[[-84.288567,39.195192],[-84.288598,39.194916],[-84.288985,39.194937],[-84.289009,39.19471],[-84.289397,39.194731],[-84.289342,39.195234],[-84.288567,39.195192]]]}},{"type":"Feature","properties":{"pid":"062001220249"},"geometry":{"type":"Polygon","coordinates":[[[-84.291073,39.195109],[-84.291105,39.19483],[-84.291562,39.194856],[-84.291531,39.195135],[-84.291073,39.195109]]]}},{"type":"Feature","properties":{"pid":"062001220248"},"geometry":{"type":"Polygon","coordinates":[[[-84.291073,39.195109],[-84.291531,39.195135],[-84.291505,39.19536],[-84.291048,39.195333],[-84.291073,39.195109]]]}},{"type":"Feature","properties":{"pid":"062001200025"},"geometry":{"type":"Polygon","coordinates":[[[-84.288991,39.1929],[-84.289602,39.192875],[-84.289569,39.193262],[-84.288717,39.193211],[-84.288735,39.193146],[-84.288991,39.1929]]]}},{"type":"Feature","properties":{"pid":"062001200072"},"geometry":{"type":"Polygon","coordinates":[[[-84.288651,39.193368],[-84.288717,39.193211],[-84.289192,39.193239],[-84.289114,39.193422],[-84.288651,39.193368]]]}},{"type":"Feature","properties":{"pid":"062001200078"},"geometry":{"type":"Polygon","coordinates":[[[-84.291738,39.194118],[-84.289234,39.193969],[-84.289292,39.193262],[-84.291284,39.193366],[-84.291252,39.193639],[-84.291779,39.193671],[-84.291738,39.194118]]]}},{"type":"Feature","properties":{"pid":"062001200074"},"geometry":{"type":"Polygon","coordinates":[[[-84.289054,39.193565],[-84.288618,39.193539],[-84.28858,39.193537],[-84.288635,39.193406],[-84.289108,39.193437],[-84.289054,39.193565]]]}},{"type":"Feature","properties":{"pid":"062001220148"},"geometry":{"type":"Polygon","coordinates":[[[-84.287386,39.197009],[-84.28721,39.196996],[-84.287251,39.19664],[-84.287427,39.196653],[-84.287386,39.197009]]]}},{"type":"Feature","properties":{"pid":"062001220150"},"geometry":{"type":"Polygon","coordinates":[[[-84.287031,39.196983],[-84.286855,39.19697],[-84.2869,39.196615],[-84.287075,39.196628],[-84.287031,39.196983]]]}},{"type":"Feature","properties":{"pid":"062001220152"},"geometry":{"type":"Polygon","coordinates":[[[-84.28668,39.196958],[-84.286504,39.196945],[-84.286548,39.19659],[-84.286724,39.196602],[-84.28668,39.196958]]]}},{"type":"Feature","properties":{"pid":"062001220263"},"geometry":{"type":"Polygon","coordinates":[[[-84.290727,39.195315],[-84.290199,39.195285],[-84.290257,39.194782],[-84.290785,39.194812],[-84.290727,39.195315]]]}},{"type":"Feature","properties":{"pid":"062001220127"},"geometry":{"type":"Polygon","coordinates":[[[-84.287092,39.198042],[-84.286916,39.19803],[-84.286972,39.197551],[-84.287148,39.197564],[-84.287092,39.198042]]]}},{"type":"Feature","properties":{"pid":"062001220255"},"geometry":{"type":"Polygon","coordinates":[[[-84.287619,39.19808],[-84.287092,39.198042],[-84.287148,39.197564],[-84.287675,39.197601],[-84.287619,39.19808]]]}},{"type":"Feature","properties":{"pid":"062001220256"},"geometry":{"type":"Polygon","coordinates":[[[-84.28797,39.198104],[-84.287619,39.19808],[-84.287675,39.197601],[-84.288026,39.197626],[-84.28797,39.198104]]]}},{"type":"Feature","properties":{"pid":"062001220267"},"geometry":{"type":"Polygon","coordinates":[[[-84.287148,39.197564],[-84.287199,39.197126],[-84.287726,39.197163],[-84.287675,39.197601],[-84.287148,39.197564]]]}},{"type":"Feature","properties":{"pid":"062001210141"},"geometry":{"type":"Polygon","coordinates":[[[-84.292363,39.197458],[-84.292105,39.197441],[-84.292129,39.197251],[-84.292389,39.197267],[-84.292363,39.197458]]]}},{"type":"Feature","properties":{"pid":"062001210192"},"geometry":{"type":"Polygon","coordinates":[[[-84.292413,39.197076],[-84.292389,39.197267],[-84.29187,39.197234],[-84.291895,39.197043],[-84.292413,39.197076]]]}},{"type":"Feature","properties":{"pid":"062001220269"},"geometry":{"type":"Polygon","coordinates":[[[-84.291169,39.198343],[-84.290852,39.198322],[-84.290925,39.197757],[-84.291242,39.197778],[-84.291169,39.198343]]]}},{"type":"Feature","properties":{"pid":"062001210153"},"geometry":{"type":"Polygon","coordinates":[[[-84.295464,39.195563],[-84.295266,39.195551],[-84.295321,39.195053],[-84.295519,39.195062],[-84.295464,39.195563]]]}},{"type":"Feature","properties":{"pid":"062001210154"},"geometry":{"type":"Polygon","coordinates":[[[-84.295464,39.195563],[-84.295519,39.195062],[-84.295718,39.195072],[-84.295658,39.195575],[-84.295464,39.195563]]]}},{"type":"Feature","properties":{"pid":"062001210151"},"geometry":{"type":"Polygon","coordinates":[[[-84.29493,39.195034],[-84.294869,39.195526],[-84.29462,39.195511],[-84.29468,39.195022],[-84.29493,39.195034]]]}},{"type":"Feature","properties":{"pid":"062001210152"},"geometry":{"type":"Polygon","coordinates":[[[-84.294869,39.195526],[-84.29493,39.195034],[-84.295121,39.195043],[-84.295068,39.195538],[-84.294869,39.195526]]]}},{"type":"Feature","properties":{"pid":"062001210155"},"geometry":{"type":"Polygon","coordinates":[[[-84.295266,39.195551],[-84.295068,39.195538],[-84.295121,39.195043],[-84.295321,39.195053],[-84.295266,39.195551]]]}},{"type":"Feature","properties":{"pid":"062001220033"},"geometry":{"type":"Polygon","coordinates":[[[-84.290986,39.195718],[-84.291001,39.195582],[-84.291466,39.195608],[-84.29145,39.195746],[-84.290986,39.195718]]]}},{"type":"Feature","properties":{"pid":"062001220034"},"geometry":{"type":"Polygon","coordinates":[[[-84.291001,39.195582],[-84.291016,39.195446],[-84.291245,39.195464],[-84.291229,39.195595],[-84.291001,39.195582]]]}},{"type":"Feature","properties":{"pid":"062001220035"},"geometry":{"type":"Polygon","coordinates":[[[-84.291229,39.195595],[-84.291245,39.195464],[-84.291482,39.195483],[-84.291466,39.195608],[-84.291229,39.195595]]]}},{"type":"Feature","properties":{"pid":"062001200039"},"geometry":{"type":"Polygon","coordinates":[[[-84.294923,39.192127],[-84.294569,39.195005],[-84.291861,39.194826],[-84.292192,39.191935],[-84.294923,39.192127]]]}},{"type":"Feature","properties":{"pid":"062001210199"},"geometry":{"type":"Polygon","coordinates":[[[-84.29289,39.195422],[-84.292342,39.195385],[-84.292407,39.194862],[-84.292954,39.194898],[-84.29289,39.195422]]]}},{"type":"Feature","properties":{"pid":"062001210201"},"geometry":{"type":"Polygon","coordinates":[[[-84.291793,39.195347],[-84.291861,39.194826],[-84.292407,39.194862],[-84.292342,39.195385],[-84.291793,39.195347]]]}},{"type":"Feature","properties":{"pid":"062001220081"},"geometry":{"type":"Polygon","coordinates":[[[-84.289295,39.196166],[-84.289336,39.195778],[-84.289511,39.195788],[-84.289471,39.196177],[-84.289295,39.196166]]]}},{"type":"Feature","properties":{"pid":"062001200004"},"geometry":{"type":"Polygon","coordinates":[[[-84.286499,39.189235],[-84.287484,39.188716],[-84.287704,39.18964],[-84.288209,39.190224],[-84.289335,39.190735],[-84.290179,39.190497],[-84.290942,39.189847],[-84.291016,39.189904],[-84.290165,39.190677],[-84.290081,39.190873],[-84.289933,39.191757],[-84.289658,39.192211],[-84.288751,39.193022],[-84.288607,39.193208],[-84.287862,39.193325],[-84.28699,39.192896],[-84.285829,39.192984],[-84.283311,39.193905],[-84.28333,39.193735],[-84.282531,39.193927],[-84.282834,39.191864],[-84.285134,39.190315],[-84.286499,39.189235]]]}},{"type":"Feature","properties":{"pid":"062001200044"},"geometry":{"type":"Polygon","coordinates":[[[-84.294779,39.193649],[-84.29535,39.193698],[-84.295326,39.19387],[-84.294756,39.193822],[-84.294779,39.193649]]]}},{"type":"Feature","properties":{"pid":"062001200046"},"geometry":{"type":"Polygon","coordinates":[[[-84.295234,39.194552],[-84.294672,39.194508],[-84.294693,39.194339],[-84.295256,39.194382],[-84.295234,39.194552]]]}},{"type":"Feature","properties":{"pid":"062001200051"},"geometry":{"type":"Polygon","coordinates":[[[-84.294672,39.194508],[-84.295234,39.194552],[-84.295212,39.194724],[-84.29465,39.194679],[-84.294672,39.194508]]]}},{"type":"Feature","properties":{"pid":"062001200052"},"geometry":{"type":"Polygon","coordinates":[[[-84.295175,39.195017],[-84.29461,39.194992],[-84.294628,39.19485],[-84.295191,39.194895],[-84.295175,39.195017]]]}},{"type":"Feature","properties":{"pid":"062001200054"},"geometry":{"type":"Polygon","coordinates":[[[-84.294735,39.193993],[-84.294756,39.193822],[-84.295326,39.19387],[-84.295303,39.194039],[-84.294735,39.193993]]]}},{"type":"Feature","properties":{"pid":"062001200058"},"geometry":{"type":"Polygon","coordinates":[[[-84.296844,39.188594],[-84.296942,39.188973],[-84.296278,39.189044],[-84.296141,39.188257],[-84.296844,39.188594]]]}},{"type":"Feature","properties":{"pid":"062001200053"},"geometry":{"type":"Polygon","coordinates":[[[-84.295374,39.193531],[-84.294801,39.193481],[-84.294823,39.193312],[-84.295399,39.193356],[-84.295374,39.193531]]]}},{"type":"Feature","properties":{"pid":"062001200055"},"geometry":{"type":"Polygon","coordinates":[[[-84.29535,39.193698],[-84.294779,39.193649],[-84.294801,39.193481],[-84.295374,39.193531],[-84.29535,39.193698]]]}},{"type":"Feature","properties":{"pid":"062001200057"},"geometry":{"type":"Polygon","coordinates":[[[-84.295399,39.193356],[-84.294823,39.193312],[-84.294845,39.19314],[-84.295423,39.193186],[-84.295399,39.193356]]]}},{"type":"Feature","properties":{"pid":"062001200047"},"geometry":{"type":"Polygon","coordinates":[[[-84.295191,39.194895],[-84.294628,39.19485],[-84.29465,39.194679],[-84.295212,39.194724],[-84.295191,39.194895]]]}},{"type":"Feature","properties":{"pid":"062001200050"},"geometry":{"type":"Polygon","coordinates":[[[-84.295256,39.194382],[-84.294693,39.194339],[-84.294714,39.194165],[-84.295279,39.194213],[-84.295256,39.194382]]]}},{"type":"Feature","properties":{"pid":"062001200045"},"geometry":{"type":"Polygon","coordinates":[[[-84.295279,39.194213],[-84.294714,39.194165],[-84.294735,39.193993],[-84.295303,39.194039],[-84.295279,39.194213]]]}},{"type":"Feature","properties":{"pid":"062001210178"},"geometry":{"type":"Polygon","coordinates":[[[-84.296569,39.195082],[-84.296494,39.195586],[-84.295857,39.195558],[-84.29593,39.195053],[-84.296569,39.195082]]]}},{"type":"Feature","properties":{"pid":"062000200001"},"geometry":{"type":"Polygon","coordinates":[[[-84.282489,39.194207],[-84.282531,39.193927],[-84.28333,39.193735],[-84.283311,39.193905],[-84.282489,39.194207]]]}},{"type":"Feature","properties":{"pid":"062001200001"},"geometry":{"type":"Polygon","coordinates":[[[-84.287504,39.194554],[-84.286614,39.194488],[-84.286404,39.194473],[-84.287155,39.194211],[-84.28751,39.194234],[-84.287504,39.194554]]]}},{"type":"Feature","properties":{"pid":"062001200061"},"geometry":{"type":"Polygon","coordinates":[[[-84.288445,39.194294],[-84.28751,39.194234],[-84.287155,39.194211],[-84.287673,39.194057],[-84.288407,39.194111],[-84.288445,39.194294]]]}},{"type":"Feature","properties":{"pid":"062001210017"},"geometry":{"type":"Polygon","coordinates":[[[-84.295404,39.198634],[-84.295455,39.198291],[-84.296089,39.198335],[-84.29604,39.198678],[-84.295404,39.198634]]]}},{"type":"Feature","properties":{"pid":"062001210018"},"geometry":{"type":"Polygon","coordinates":[[[-84.295455,39.198291],[-84.295478,39.198135],[-84.296108,39.1982],[-84.296089,39.198335],[-84.295455,39.198291]]]}},{"type":"Feature","properties":{"pid":"062001210019"},"geometry":{"type":"Polygon","coordinates":[[[-84.295478,39.198135],[-84.295507,39.197937],[-84.296136,39.198006],[-84.296108,39.1982],[-84.295478,39.198135]]]}},{"type":"Feature","properties":{"pid":"062001210036"},"geometry":{"type":"Polygon","coordinates":[[[-84.294836,39.198593],[-84.29486,39.198413],[-84.295387,39.198452],[-84.295363,39.198633],[-84.294836,39.198593]]]}},{"type":"Feature","properties":{"pid":"062001210037"},"geometry":{"type":"Polygon","coordinates":[[[-84.294204,39.198546],[-84.294228,39.198365],[-84.29486,39.198413],[-84.294836,39.198593],[-84.294204,39.198546]]]}},{"type":"Feature","properties":{"pid":"062001210040"},"geometry":{"type":"Polygon","coordinates":[[[-84.295375,39.198038],[-84.294282,39.197961],[-84.294314,39.197732],[-84.295415,39.197815],[-84.295375,39.198038]]]}},{"type":"Feature","properties":{"pid":"062001210041"},"geometry":{"type":"Polygon","coordinates":[[[-84.294314,39.197732],[-84.294339,39.197548],[-84.294883,39.197592],[-84.294856,39.197773],[-84.294314,39.197732]]]}},{"type":"Feature","properties":{"pid":"062001210042"},"geometry":{"type":"Polygon","coordinates":[[[-84.295441,39.197634],[-84.294339,39.197548],[-84.294364,39.197369],[-84.295467,39.197453],[-84.295441,39.197634]]]}},{"type":"Feature","properties":{"pid":"062001210047"},"geometry":{"type":"Polygon","coordinates":[[[-84.295612,39.196717],[-84.294468,39.196625],[-84.294492,39.196447],[-84.295639,39.196538],[-84.295612,39.196717]]]}},{"type":"Feature","properties":{"pid":"062001210048"},"geometry":{"type":"Polygon","coordinates":[[[-84.294492,39.196447],[-84.294517,39.196261],[-84.295667,39.196356],[-84.295639,39.196538],[-84.294492,39.196447]]]}},{"type":"Feature","properties":{"pid":"062001210104"},"geometry":{"type":"Polygon","coordinates":[[[-84.292473,39.198426],[-84.292523,39.198044],[-84.292699,39.198056],[-84.292649,39.198438],[-84.292473,39.198426]]]}},{"type":"Feature","properties":{"pid":"062001210116"},"geometry":{"type":"Polygon","coordinates":[[[-84.293182,39.197074],[-84.293232,39.196692],[-84.293409,39.196703],[-84.293359,39.197086],[-84.293182,39.197074]]]}},{"type":"Feature","properties":{"pid":"062001210118"},"geometry":{"type":"Polygon","coordinates":[[[-84.29283,39.197051],[-84.292881,39.196669],[-84.293057,39.19668],[-84.293007,39.197063],[-84.29283,39.197051]]]}},{"type":"Feature","properties":{"pid":"062001210167"},"geometry":{"type":"Polygon","coordinates":[[[-84.294856,39.197773],[-84.294883,39.197592],[-84.295441,39.197634],[-84.295415,39.197815],[-84.294856,39.197773]]]}},{"type":"Feature","properties":{"pid":"062001220006"},"geometry":{"type":"Polygon","coordinates":[[[-84.290369,39.198907],[-84.290435,39.198416],[-84.29105,39.198462],[-84.290984,39.198952],[-84.290369,39.198907]]]}},{"type":"Feature","properties":{"pid":"062001220022"},"geometry":{"type":"Polygon","coordinates":[[[-84.290826,39.197129],[-84.290834,39.197051],[-84.291286,39.197077],[-84.291276,39.197156],[-84.290826,39.197129]]]}},{"type":"Feature","properties":{"pid":"062001220023"},"geometry":{"type":"Polygon","coordinates":[[[-84.290834,39.197051],[-84.290844,39.196946],[-84.291299,39.196975],[-84.291286,39.197077],[-84.290834,39.197051]]]}},{"type":"Feature","properties":{"pid":"062001220024"},"geometry":{"type":"Polygon","coordinates":[[[-84.290844,39.196946],[-84.290857,39.196812],[-84.291315,39.196839],[-84.291299,39.196975],[-84.290844,39.196946]]]}},{"type":"Feature","properties":{"pid":"062001220025"},"geometry":{"type":"Polygon","coordinates":[[[-84.290861,39.196773],[-84.290872,39.196673],[-84.291333,39.196697],[-84.29132,39.1968],[-84.290861,39.196773]]]}},{"type":"Feature","properties":{"pid":"062001220026"},"geometry":{"type":"Polygon","coordinates":[[[-84.290872,39.196673],[-84.290888,39.196537],[-84.291349,39.196563],[-84.291333,39.196697],[-84.290872,39.196673]]]}},{"type":"Feature","properties":{"pid":"062001220027"},"geometry":{"type":"Polygon","coordinates":[[[-84.290888,39.196537],[-84.290904,39.196399],[-84.291366,39.196428],[-84.291349,39.196563],[-84.290888,39.196537]]]}},{"type":"Feature","properties":{"pid":"062001220032"},"geometry":{"type":"Polygon","coordinates":[[[-84.290974,39.195831],[-84.290986,39.195718],[-84.29145,39.195746],[-84.291435,39.195865],[-84.290974,39.195831]]]}},{"type":"Feature","properties":{"pid":"062001220050"},"geometry":{"type":"Polygon","coordinates":[[[-84.290227,39.195785],[-84.290269,39.195401],[-84.29044,39.195411],[-84.290397,39.195795],[-84.290227,39.195785]]]}},{"type":"Feature","properties":{"pid":"062001220052"},"geometry":{"type":"Polygon","coordinates":[[[-84.290579,39.195805],[-84.290619,39.195422],[-84.290795,39.195432],[-84.290753,39.195816],[-84.290579,39.195805]]]}},{"type":"Feature","properties":{"pid":"062001220053"},"geometry":{"type":"Polygon","coordinates":[[[-84.290753,39.195816],[-84.290795,39.195432],[-84.290965,39.195443],[-84.290918,39.195825],[-84.290753,39.195816]]]}},{"type":"Feature","properties":{"pid":"062001220054"},"geometry":{"type":"Polygon","coordinates":[[[-84.290705,39.19625],[-84.290747,39.195864],[-84.29091,39.195874],[-84.290866,39.19626],[-84.290705,39.19625]]]}},{"type":"Feature","properties":{"pid":"062001220056"},"geometry":{"type":"Polygon","coordinates":[[[-84.29035,39.196228],[-84.290394,39.195841],[-84.290576,39.195853],[-84.290535,39.196239],[-84.29035,39.196228]]]}},{"type":"Feature","properties":{"pid":"062001220058"},"geometry":{"type":"Polygon","coordinates":[[[-84.290126,39.196725],[-84.290163,39.196355],[-84.290341,39.196366],[-84.2903,39.196736],[-84.290126,39.196725]]]}},{"type":"Feature","properties":{"pid":"062001220059"},"geometry":{"type":"Polygon","coordinates":[[[-84.2903,39.196736],[-84.290341,39.196366],[-84.29052,39.196376],[-84.29048,39.196748],[-84.2903,39.196736]]]}},{"type":"Feature","properties":{"pid":"062001220064"},"geometry":{"type":"Polygon","coordinates":[[[-84.290269,39.197094],[-84.290298,39.196777],[-84.290476,39.196787],[-84.290449,39.197106],[-84.290269,39.197094]]]}},{"type":"Feature","properties":{"pid":"062001220069"},"geometry":{"type":"Polygon","coordinates":[[[-84.288971,39.197012],[-84.288958,39.196909],[-84.289412,39.196935],[-84.289408,39.197041],[-84.288971,39.197012]]]}},{"type":"Feature","properties":{"pid":"062001220070"},"geometry":{"type":"Polygon","coordinates":[[[-84.288958,39.196909],[-84.288945,39.196803],[-84.289416,39.196831],[-84.289412,39.196935],[-84.288958,39.196909]]]}},{"type":"Feature","properties":{"pid":"062001220071"},"geometry":{"type":"Polygon","coordinates":[[[-84.288945,39.196803],[-84.288932,39.196695],[-84.28942,39.196723],[-84.289416,39.196831],[-84.288945,39.196803]]]}},{"type":"Feature","properties":{"pid":"062001220086"},"geometry":{"type":"Polygon","coordinates":[[[-84.288783,39.195558],[-84.288749,39.195436],[-84.289198,39.195465],[-84.289184,39.195584],[-84.288783,39.195558]]]}},{"type":"Feature","properties":{"pid":"062001220087"},"geometry":{"type":"Polygon","coordinates":[[[-84.288749,39.195436],[-84.288705,39.195306],[-84.289213,39.195336],[-84.289198,39.195465],[-84.288749,39.195436]]]}},{"type":"Feature","properties":{"pid":"062001220092"},"geometry":{"type":"Polygon","coordinates":[[[-84.289871,39.195766],[-84.289917,39.195377],[-84.290091,39.19539],[-84.290053,39.195776],[-84.289871,39.195766]]]}},{"type":"Feature","properties":{"pid":"062001220102"},"geometry":{"type":"Polygon","coordinates":[[[-84.28801,39.194937],[-84.288003,39.194727],[-84.288403,39.194759],[-84.288415,39.194966],[-84.28801,39.194937]]]}},{"type":"Feature","properties":{"pid":"062001220103"},"geometry":{"type":"Polygon","coordinates":[[[-84.288013,39.19505],[-84.28801,39.194937],[-84.288415,39.194966],[-84.288422,39.19508],[-84.288013,39.19505]]]}},{"type":"Feature","properties":{"pid":"062001220104"},"geometry":{"type":"Polygon","coordinates":[[[-84.288012,39.195785],[-84.287986,39.195607],[-84.288573,39.195568],[-84.288599,39.195748],[-84.288012,39.195785]]]}},{"type":"Feature","properties":{"pid":"062001220105"},"geometry":{"type":"Polygon","coordinates":[[[-84.288072,39.195824],[-84.288604,39.195787],[-84.288619,39.195902],[-84.288088,39.195944],[-84.288072,39.195824]]]}},{"type":"Feature","properties":{"pid":"062001220106"},"geometry":{"type":"Polygon","coordinates":[[[-84.288088,39.195948],[-84.288619,39.195902],[-84.288636,39.19603],[-84.288104,39.196072],[-84.288088,39.195948]]]}},{"type":"Feature","properties":{"pid":"062001220107"},"geometry":{"type":"Polygon","coordinates":[[[-84.288104,39.196072],[-84.288636,39.19603],[-84.288652,39.196152],[-84.288119,39.19619],[-84.288104,39.196072]]]}},{"type":"Feature","properties":{"pid":"062001220109"},"geometry":{"type":"Polygon","coordinates":[[[-84.288156,39.196447],[-84.288682,39.196409],[-84.288698,39.196529],[-84.288173,39.196572],[-84.288156,39.196447]]]}},{"type":"Feature","properties":{"pid":"062001220110"},"geometry":{"type":"Polygon","coordinates":[[[-84.288173,39.196572],[-84.288698,39.196529],[-84.288715,39.196653],[-84.28819,39.196693],[-84.288173,39.196572]]]}},{"type":"Feature","properties":{"pid":"062001220111"},"geometry":{"type":"Polygon","coordinates":[[[-84.28819,39.196693],[-84.288715,39.196653],[-84.288732,39.196775],[-84.288206,39.196814],[-84.28819,39.196693]]]}},{"type":"Feature","properties":{"pid":"062001220112"},"geometry":{"type":"Polygon","coordinates":[[[-84.288206,39.196814],[-84.288732,39.196775],[-84.28875,39.1969],[-84.288224,39.196939],[-84.288206,39.196814]]]}},{"type":"Feature","properties":{"pid":"062001220114"},"geometry":{"type":"Polygon","coordinates":[[[-84.288259,39.197182],[-84.288785,39.197139],[-84.288804,39.197276],[-84.288277,39.197319],[-84.288259,39.197182]]]}},{"type":"Feature","properties":{"pid":"062001220115"},"geometry":{"type":"Polygon","coordinates":[[[-84.288277,39.197319],[-84.288804,39.197276],[-84.288822,39.197413],[-84.288296,39.197455],[-84.288277,39.197319]]]}},{"type":"Feature","properties":{"pid":"062001220116"},"geometry":{"type":"Polygon","coordinates":[[[-84.288296,39.197455],[-84.288822,39.197413],[-84.28884,39.197549],[-84.288314,39.197592],[-84.288296,39.197455]]]}},{"type":"Feature","properties":{"pid":"062001220120"},"geometry":{"type":"Polygon","coordinates":[[[-84.288387,39.198134],[-84.288375,39.198039],[-84.2889,39.197997],[-84.288923,39.198172],[-84.288387,39.198134]]]}},{"type":"Feature","properties":{"pid":"062001220128"},"geometry":{"type":"Polygon","coordinates":[[[-84.28674,39.198018],[-84.286796,39.197539],[-84.286972,39.197551],[-84.286916,39.19803],[-84.28674,39.198018]]]}},{"type":"Feature","properties":{"pid":"062001220129"},"geometry":{"type":"Polygon","coordinates":[[[-84.286565,39.198005],[-84.28662,39.197527],[-84.286796,39.197539],[-84.28674,39.198018],[-84.286565,39.198005]]]}},{"type":"Feature","properties":{"pid":"062001220136"},"geometry":{"type":"Polygon","coordinates":[[[-84.286796,39.197539],[-84.286847,39.197101],[-84.287023,39.197114],[-84.286972,39.197551],[-84.286796,39.197539]]]}},{"type":"Feature","properties":{"pid":"062001220161"},"geometry":{"type":"Polygon","coordinates":[[[-84.287834,39.196171],[-84.287883,39.195732],[-84.288006,39.195741],[-84.288066,39.196188],[-84.287834,39.196171]]]}},{"type":"Feature","properties":{"pid":"062001220162"},"geometry":{"type":"Polygon","coordinates":[[[-84.287662,39.196158],[-84.287708,39.19572],[-84.287883,39.195732],[-84.287834,39.196171],[-84.287662,39.196158]]]}},{"type":"Feature","properties":{"pid":"062001220163"},"geometry":{"type":"Polygon","coordinates":[[[-84.287484,39.196145],[-84.287533,39.195707],[-84.287708,39.19572],[-84.287662,39.196158],[-84.287484,39.196145]]]}},{"type":"Feature","properties":{"pid":"062001220164"},"geometry":{"type":"Polygon","coordinates":[[[-84.287308,39.196132],[-84.287361,39.195694],[-84.287533,39.195707],[-84.287484,39.196145],[-84.287308,39.196132]]]}},{"type":"Feature","properties":{"pid":"062001220165"},"geometry":{"type":"Polygon","coordinates":[[[-84.287291,39.19613],[-84.287135,39.196119],[-84.287184,39.19568],[-84.287361,39.195694],[-84.287291,39.19613]]]}},{"type":"Feature","properties":{"pid":"062001220166"},"geometry":{"type":"Polygon","coordinates":[[[-84.286961,39.196105],[-84.287006,39.195667],[-84.287184,39.19568],[-84.287135,39.196119],[-84.286961,39.196105]]]}},{"type":"Feature","properties":{"pid":"062001220167"},"geometry":{"type":"Polygon","coordinates":[[[-84.286782,39.196092],[-84.286835,39.195653],[-84.287006,39.195667],[-84.286961,39.196105],[-84.286782,39.196092]]]}},{"type":"Feature","properties":{"pid":"062001220168"},"geometry":{"type":"Polygon","coordinates":[[[-84.286609,39.196079],[-84.286654,39.195639],[-84.286835,39.195653],[-84.286782,39.196092],[-84.286609,39.196079]]]}},{"type":"Feature","properties":{"pid":"062001220170"},"geometry":{"type":"Polygon","coordinates":[[[-84.286654,39.195639],[-84.286708,39.195191],[-84.286885,39.195204],[-84.286835,39.195653],[-84.286654,39.195639]]]}},{"type":"Feature","properties":{"pid":"062001220171"},"geometry":{"type":"Polygon","coordinates":[[[-84.286835,39.195653],[-84.286885,39.195204],[-84.28706,39.195217],[-84.287006,39.195667],[-84.286835,39.195653]]]}},{"type":"Feature","properties":{"pid":"062001220172"},"geometry":{"type":"Polygon","coordinates":[[[-84.287006,39.195667],[-84.28706,39.195217],[-84.287236,39.195231],[-84.287184,39.19568],[-84.287006,39.195667]]]}},{"type":"Feature","properties":{"pid":"062001220173"},"geometry":{"type":"Polygon","coordinates":[[[-84.287184,39.19568],[-84.287236,39.195231],[-84.28741,39.195244],[-84.287361,39.195694],[-84.287184,39.19568]]]}},{"type":"Feature","properties":{"pid":"062001220174"},"geometry":{"type":"Polygon","coordinates":[[[-84.287361,39.195694],[-84.28741,39.195244],[-84.287582,39.195257],[-84.287533,39.195707],[-84.287361,39.195694]]]}},{"type":"Feature","properties":{"pid":"062001220176"},"geometry":{"type":"Polygon","coordinates":[[[-84.288006,39.195741],[-84.287708,39.19572],[-84.287757,39.19527],[-84.287936,39.195283],[-84.288006,39.195741]]]}},{"type":"Feature","properties":{"pid":"062001220177"},"geometry":{"type":"Polygon","coordinates":[[[-84.287936,39.195283],[-84.288496,39.195324],[-84.288573,39.195568],[-84.287986,39.195607],[-84.287936,39.195283]]]}},{"type":"Feature","properties":{"pid":"062001220178"},"geometry":{"type":"Polygon","coordinates":[[[-84.287782,39.195134],[-84.287838,39.194714],[-84.288003,39.194727],[-84.288017,39.195151],[-84.287782,39.195134]]]}},{"type":"Feature","properties":{"pid":"062001220179"},"geometry":{"type":"Polygon","coordinates":[[[-84.287782,39.195134],[-84.287601,39.19512],[-84.28766,39.1947],[-84.287838,39.194714],[-84.287782,39.195134]]]}},{"type":"Feature","properties":{"pid":"062001220180"},"geometry":{"type":"Polygon","coordinates":[[[-84.287427,39.195107],[-84.287488,39.194687],[-84.28766,39.1947],[-84.287601,39.19512],[-84.287427,39.195107]]]}},{"type":"Feature","properties":{"pid":"062001220181"},"geometry":{"type":"Polygon","coordinates":[[[-84.287252,39.195094],[-84.287322,39.19454],[-84.287504,39.194554],[-84.287427,39.195107],[-84.287252,39.195094]]]}},{"type":"Feature","properties":{"pid":"062001220182"},"geometry":{"type":"Polygon","coordinates":[[[-84.287078,39.195081],[-84.287147,39.194527],[-84.287322,39.19454],[-84.287252,39.195094],[-84.287078,39.195081]]]}},{"type":"Feature","properties":{"pid":"062001220183"},"geometry":{"type":"Polygon","coordinates":[[[-84.286902,39.195068],[-84.286971,39.194514],[-84.287147,39.194527],[-84.287078,39.195081],[-84.286902,39.195068]]]}},{"type":"Feature","properties":{"pid":"062001220184"},"geometry":{"type":"Polygon","coordinates":[[[-84.28673,39.195055],[-84.286802,39.194502],[-84.286971,39.194514],[-84.286902,39.195068],[-84.28673,39.195055]]]}},{"type":"Feature","properties":{"pid":"062001220186"},"geometry":{"type":"Polygon","coordinates":[[[-84.28638,39.195029],[-84.286442,39.194475],[-84.286614,39.194488],[-84.286555,39.195042],[-84.28638,39.195029]]]}},{"type":"Feature","properties":{"pid":"062001220187"},"geometry":{"type":"Polygon","coordinates":[[[-84.286206,39.195017],[-84.286267,39.194463],[-84.286442,39.194475],[-84.28638,39.195029],[-84.286206,39.195017]]]}},{"type":"Feature","properties":{"pid":"062001220188"},"geometry":{"type":"Polygon","coordinates":[[[-84.286028,39.195004],[-84.286096,39.194451],[-84.286267,39.194463],[-84.286206,39.195017],[-84.286028,39.195004]]]}},{"type":"Feature","properties":{"pid":"062001220189"},"geometry":{"type":"Polygon","coordinates":[[[-84.285855,39.194991],[-84.285915,39.194438],[-84.286096,39.194451],[-84.286028,39.195004],[-84.285855,39.194991]]]}},{"type":"Feature","properties":{"pid":"062001220190"},"geometry":{"type":"Polygon","coordinates":[[[-84.285678,39.194978],[-84.285741,39.194426],[-84.285915,39.194438],[-84.285855,39.194991],[-84.285678,39.194978]]]}},{"type":"Feature","properties":{"pid":"062001220191"},"geometry":{"type":"Polygon","coordinates":[[[-84.285678,39.194978],[-84.285502,39.194965],[-84.285563,39.194414],[-84.285741,39.194426],[-84.285678,39.194978]]]}},{"type":"Feature","properties":{"pid":"062001220192"},"geometry":{"type":"Polygon","coordinates":[[[-84.285329,39.194952],[-84.285387,39.194402],[-84.285563,39.194414],[-84.285502,39.194965],[-84.285329,39.194952]]]}},{"type":"Feature","properties":{"pid":"062001220193"},"geometry":{"type":"Polygon","coordinates":[[[-84.285158,39.19494],[-84.28521,39.194389],[-84.285387,39.194402],[-84.285329,39.194952],[-84.285158,39.19494]]]}},{"type":"Feature","properties":{"pid":"062001220194"},"geometry":{"type":"Polygon","coordinates":[[[-84.284981,39.194927],[-84.285036,39.194377],[-84.28521,39.194389],[-84.285158,39.19494],[-84.284981,39.194927]]]}},{"type":"Feature","properties":{"pid":"062001220195"},"geometry":{"type":"Polygon","coordinates":[[[-84.284804,39.194914],[-84.284856,39.194364],[-84.285036,39.194377],[-84.284981,39.194927],[-84.284804,39.194914]]]}},{"type":"Feature","properties":{"pid":"062001220196"},"geometry":{"type":"Polygon","coordinates":[[[-84.284792,39.194912],[-84.284623,39.1949],[-84.284675,39.194352],[-84.284856,39.194364],[-84.284792,39.194912]]]}},{"type":"Feature","properties":{"pid":"062001220198"},"geometry":{"type":"Polygon","coordinates":[[[-84.286335,39.196928],[-84.284759,39.196807],[-84.283957,39.196743],[-84.284778,39.196083],[-84.286419,39.196203],[-84.286335,39.196928]]]}},{"type":"Feature","properties":{"pid":"062001220201"},"geometry":{"type":"Polygon","coordinates":[[[-84.289182,39.195601],[-84.288783,39.195558],[-84.289184,39.195584],[-84.289182,39.195601]]]}},{"type":"Feature","properties":{"pid":"062001220202"},"geometry":{"type":"Polygon","coordinates":[[[-84.288017,39.195151],[-84.288013,39.19505],[-84.288422,39.19508],[-84.288428,39.195182],[-84.288017,39.195151]]]}},{"type":"Feature","properties":{"pid":"062001220208"},"geometry":{"type":"Polygon","coordinates":[[[-84.290091,39.196212],[-84.290134,39.195805],[-84.290224,39.195807],[-84.290185,39.196218],[-84.290091,39.196212]]]}},{"type":"Feature","properties":{"pid":"062001220225"},"geometry":{"type":"Polygon","coordinates":[[[-84.286476,39.195629],[-84.286265,39.195613],[-84.286327,39.195167],[-84.286538,39.195182],[-84.286476,39.195629]]]}},{"type":"Feature","properties":{"pid":"062001220226"},"geometry":{"type":"Polygon","coordinates":[[[-84.286265,39.19561],[-84.286056,39.195595],[-84.286112,39.195151],[-84.286327,39.195167],[-84.286265,39.19561]]]}},{"type":"Feature","properties":{"pid":"062001220227"},"geometry":{"type":"Polygon","coordinates":[[[-84.285841,39.19558],[-84.285897,39.195134],[-84.286112,39.195151],[-84.286056,39.195595],[-84.285841,39.19558]]]}},{"type":"Feature","properties":{"pid":"062001220228"},"geometry":{"type":"Polygon","coordinates":[[[-84.285626,39.195565],[-84.285682,39.195118],[-84.285897,39.195134],[-84.285841,39.19558],[-84.285626,39.195565]]]}},{"type":"Feature","properties":{"pid":"062001220229"},"geometry":{"type":"Polygon","coordinates":[[[-84.285439,39.195551],[-84.285467,39.195102],[-84.285682,39.195118],[-84.285626,39.195565],[-84.285439,39.195551]]]}},{"type":"Feature","properties":{"pid":"062001100036"},"geometry":{"type":"Polygon","coordinates":[[[-84.290525,39.21064],[-84.290554,39.210206],[-84.292182,39.209877],[-84.292239,39.209953],[-84.292052,39.210258],[-84.291912,39.210822],[-84.290769,39.211331],[-84.29063,39.211058],[-84.290525,39.21064]]]}},{"type":"Feature","properties":{"pid":"062001220131"},"geometry":{"type":"Polygon","coordinates":[[[-84.286269,39.197502],[-84.285742,39.197464],[-84.285266,39.196989],[-84.28632,39.197064],[-84.286269,39.197502]]]}},{"type":"Feature","properties":{"pid":"062001220078"},"geometry":{"type":"Polygon","coordinates":[[[-84.289823,39.196198],[-84.289863,39.19581],[-84.290039,39.19582],[-84.289998,39.196209],[-84.289823,39.196198]]]}},{"type":"Feature","properties":{"pid":"062001220080"},"geometry":{"type":"Polygon","coordinates":[[[-84.289471,39.196177],[-84.289511,39.195788],[-84.289687,39.195799],[-84.289647,39.196188],[-84.289471,39.196177]]]}},{"type":"Feature","properties":{"pid":"062001210138"},"geometry":{"type":"Polygon","coordinates":[[[-84.291891,39.196982],[-84.291907,39.196859],[-84.292425,39.1969],[-84.292408,39.197023],[-84.291891,39.196982]]]}},{"type":"Feature","properties":{"pid":"062001210191"},"geometry":{"type":"Polygon","coordinates":[[[-84.291941,39.1966],[-84.292459,39.196641],[-84.292425,39.1969],[-84.291907,39.196859],[-84.291941,39.1966]]]}},{"type":"Feature","properties":{"pid":"062001200006"},"geometry":{"type":"Polygon","coordinates":[[[-84.290586,39.191845],[-84.289984,39.191804],[-84.290194,39.190694],[-84.290492,39.190597],[-84.290483,39.19066],[-84.290605,39.190672],[-84.290585,39.190803],[-84.292007,39.191162],[-84.29193,39.191797],[-84.290602,39.191709],[-84.290586,39.191845]]]}},{"type":"Feature","properties":{"pid":"062001210172"},"geometry":{"type":"Polygon","coordinates":[[[-84.291405,39.198355],[-84.291588,39.196859],[-84.291799,39.196876],[-84.291602,39.198369],[-84.291405,39.198355]]]}},{"type":"Feature","properties":{"pid":"062001210024"},"geometry":{"type":"Polygon","coordinates":[[[-84.29562,39.197179],[-84.295648,39.197003],[-84.296275,39.197076],[-84.296247,39.197252],[-84.29562,39.197179]]]}},{"type":"Feature","properties":{"pid":"062001210038"},"geometry":{"type":"Polygon","coordinates":[[[-84.294228,39.198365],[-84.294252,39.198185],[-84.294884,39.198232],[-84.29486,39.198413],[-84.294228,39.198365]]]}},{"type":"Feature","properties":{"pid":"062001220088"},"geometry":{"type":"Polygon","coordinates":[[[-84.289168,39.195724],[-84.289213,39.195336],[-84.289917,39.195377],[-84.289871,39.195766],[-84.289168,39.195724]]]}},{"type":"Feature","properties":{"pid":"062001210175"},"geometry":{"type":"Polygon","coordinates":[[[-84.295689,39.196724],[-84.295754,39.196274],[-84.296389,39.196315],[-84.296325,39.196765],[-84.295689,39.196724]]]}},{"type":"Feature","properties":{"pid":"062001220118"},"geometry":{"type":"Polygon","coordinates":[[[-84.288276,39.197733],[-84.288858,39.197686],[-84.2889,39.197997],[-84.288317,39.198044],[-84.288276,39.197733]]]}},{"type":"Feature","properties":{"pid":"062000200013"},"geometry":{"type":"Polygon","coordinates":[[[-84.282986,39.194971],[-84.283037,39.19493],[-84.284161,39.19501],[-84.283623,39.195446],[-84.282986,39.194971]]]}},{"type":"Feature","properties":{"pid":"062001210179"},"geometry":{"type":"Polygon","coordinates":[[[-84.295754,39.196274],[-84.295808,39.195898],[-84.296444,39.195926],[-84.296389,39.196315],[-84.295754,39.196274]]]}},{"type":"Feature","properties":{"pid":"062001220030"},"geometry":{"type":"Polygon","coordinates":[[[-84.290949,39.196082],[-84.290972,39.195887],[-84.291429,39.195914],[-84.291406,39.196109],[-84.290949,39.196082]]]}},{"type":"Feature","properties":{"pid":"062001200009"},"geometry":{"type":"Polygon","coordinates":[[[-84.291961,39.189455],[-84.291979,39.189242],[-84.292096,39.189101],[-84.292068,39.189444],[-84.291961,39.189455]]]}},{"type":"Feature","properties":{"pid":"062902620013"},"geometry":{"type":"Polygon","coordinates":[[[-84.292192,39.191935],[-84.292439,39.189536],[-84.295277,39.189235],[-84.294923,39.192127],[-84.292192,39.191935]]]}},{"type":"Feature","properties":{"pid":"062001200017"},"geometry":{"type":"Polygon","coordinates":[[[-84.289723,39.192178],[-84.289984,39.191804],[-84.290586,39.191845],[-84.290602,39.191709],[-84.29193,39.191797],[-84.291797,39.192784],[-84.288991,39.1929],[-84.289723,39.192178]]]}},{"type":"Feature","properties":{"pid":"062001200011"},"geometry":{"type":"Polygon","coordinates":[[[-84.290492,39.190597],[-84.290817,39.190491],[-84.29158,39.189593],[-84.292201,39.189529],[-84.292039,39.190896],[-84.29074,39.190843],[-84.290585,39.190803],[-84.290605,39.190672],[-84.290483,39.19066],[-84.290492,39.190597]]]}},{"type":"Feature","properties":{"pid":"062001220142"},"geometry":{"type":"Polygon","coordinates":[[[-84.28785,39.197613],[-84.287901,39.197176],[-84.288077,39.197188],[-84.288026,39.197626],[-84.28785,39.197613]]]}},{"type":"Feature","properties":{"pid":"062001220121"},"geometry":{"type":"Polygon","coordinates":[[[-84.28797,39.198104],[-84.288026,39.197626],[-84.288264,39.197643],[-84.288329,39.19813],[-84.28797,39.198104]]]}},{"type":"Feature","properties":{"pid":"062902620001"},"geometry":{"type":"Polygon","coordinates":[[[-84.292222,39.186699],[-84.292013,39.18899],[-84.291807,39.189232],[-84.291016,39.189904],[-84.288121,39.187674],[-84.288539,39.186412],[-84.292222,39.186699]]]}},{"type":"Feature","properties":{"pid":"062001210184"},"geometry":{"type":"Polygon","coordinates":[[[-84.293642,39.194988],[-84.294166,39.195022],[-84.294098,39.195528],[-84.293574,39.19549],[-84.293642,39.194988]]]}},{"type":"Feature","properties":{"pid":"062001220145"},"geometry":{"type":"Polygon","coordinates":[[[-84.287913,39.197047],[-84.287737,39.197034],[-84.28778,39.196679],[-84.287955,39.196691],[-84.287913,39.197047]]]}},{"type":"Feature","properties":{"pid":"062001210200"},"geometry":{"type":"Polygon","coordinates":[[[-84.294498,39.195557],[-84.294098,39.195528],[-84.294172,39.194979],[-84.294569,39.195005],[-84.294498,39.195557]]]}},{"type":"Feature","properties":{"pid":"062001220144"},"geometry":{"type":"Polygon","coordinates":[[[-84.288181,39.197066],[-84.287913,39.197047],[-84.287955,39.196691],[-84.288134,39.196704],[-84.288181,39.197066]]]}},{"type":"Feature","properties":{"pid":"062001220203"},"geometry":{"type":"Polygon","coordinates":[[[-84.289196,39.19882],[-84.28917,39.198571],[-84.289572,39.1986],[-84.289535,39.198845],[-84.289196,39.19882]]]}},{"type":"Feature","properties":{"pid":"062001220257"},"geometry":{"type":"Polygon","coordinates":[[[-84.289711,39.198363],[-84.289677,39.198608],[-84.28917,39.198571],[-84.289142,39.198321],[-84.289711,39.198363]]]}},{"type":"Feature","properties":{"pid":"062001220160"},"geometry":{"type":"Polygon","coordinates":[[[-84.288134,39.196704],[-84.28778,39.196679],[-84.287824,39.19631],[-84.288085,39.196328],[-84.288134,39.196704]]]}},{"type":"Feature","properties":{"pid":"062000200034"},"geometry":{"type":"Polygon","coordinates":[[[-84.28166,39.194834],[-84.282077,39.194863],[-84.28249,39.195175],[-84.28231,39.195321],[-84.28166,39.194834]]]}},{"type":"Feature","properties":{"pid":"062001210022"},"geometry":{"type":"Polygon","coordinates":[[[-84.295566,39.197531],[-84.29562,39.197179],[-84.296247,39.197252],[-84.296187,39.197642],[-84.295566,39.197531]]]}},{"type":"Feature","properties":{"pid":"062001210026"},"geometry":{"type":"Polygon","coordinates":[[[-84.295808,39.195898],[-84.295857,39.195558],[-84.296494,39.195586],[-84.296444,39.195926],[-84.295808,39.195898]]]}},{"type":"Feature","properties":{"pid":"062001210039"},"geometry":{"type":"Polygon","coordinates":[[[-84.294252,39.198185],[-84.294276,39.198005],[-84.294908,39.198052],[-84.294884,39.198232],[-84.294252,39.198185]]]}},{"type":"Feature","properties":{"pid":"062001210111"},"geometry":{"type":"Polygon","coordinates":[[[-84.293301,39.197523],[-84.292422,39.197465],[-84.292472,39.197082],[-84.293352,39.19714],[-84.293301,39.197523]]]}},{"type":"Feature","properties":{"pid":"062001220134"},"geometry":{"type":"Polygon","coordinates":[[[-84.286796,39.197539],[-84.286445,39.197514],[-84.286496,39.197077],[-84.286847,39.197101],[-84.286796,39.197539]]]}},{"type":"Feature","properties":{"pid":"062001220169"},"geometry":{"type":"Polygon","coordinates":[[[-84.286424,39.196066],[-84.286178,39.196048],[-84.286231,39.195607],[-84.286476,39.195629],[-84.286424,39.196066]]]}},{"type":"Feature","properties":{"pid":"062001220197"},"geometry":{"type":"Polygon","coordinates":[[[-84.284932,39.195959],[-84.285439,39.195551],[-84.286231,39.195607],[-84.286178,39.196048],[-84.284932,39.195959]]]}},{"type":"Feature","properties":{"pid":"062001210142"},"geometry":{"type":"Polygon","coordinates":[[[-84.292105,39.197441],[-84.291845,39.197424],[-84.29187,39.197234],[-84.292129,39.197251],[-84.292105,39.197441]]]}},{"type":"Feature","properties":{"pid":"062001210091"},"geometry":{"type":"Polygon","coordinates":[[[-84.293896,39.196162],[-84.293485,39.196136],[-84.29355,39.195661],[-84.29396,39.195694],[-84.293896,39.196162]]]}},{"type":"Feature","properties":{"pid":"062001210071"},"geometry":{"type":"Polygon","coordinates":[[[-84.293891,39.197566],[-84.293942,39.197179],[-84.2941,39.19719],[-84.294049,39.197578],[-84.293891,39.197566]]]}},{"type":"Feature","properties":{"pid":"062001220003"},"geometry":{"type":"Polygon","coordinates":[[[-84.290818,39.200677],[-84.290701,39.200672],[-84.290805,39.200023],[-84.290912,39.200029],[-84.290818,39.200677]]]}},{"type":"Feature","properties":{"pid":"062001100016"},"geometry":{"type":"Polygon","coordinates":[[[-84.290496,39.203499],[-84.28948,39.203487],[-84.289297,39.201297],[-84.290777,39.201364],[-84.290496,39.203499]]]}},{"type":"Feature","properties":{"pid":"062001220002"},"geometry":{"type":"Polygon","coordinates":[[[-84.290779,39.200968],[-84.290736,39.201273],[-84.289401,39.201216],[-84.289375,39.200905],[-84.290779,39.200968]]]}},{"type":"Feature","properties":{"pid":"062902710010"},"geometry":{"type":"Polygon","coordinates":[[[-84.295274,39.208531],[-84.294971,39.208949],[-84.295028,39.209466],[-84.294254,39.209697],[-84.29372,39.209933],[-84.293329,39.210187],[-84.291946,39.208796],[-84.291276,39.207982],[-84.290892,39.207254],[-84.290621,39.206276],[-84.291702,39.206084],[-84.292238,39.206969],[-84.294954,39.207801],[-84.295274,39.208531]]]}},{"type":"Feature","properties":{"pid":"062001210049"},"geometry":{"type":"Polygon","coordinates":[[[-84.295001,39.196296],[-84.295031,39.196074],[-84.295701,39.19613],[-84.295667,39.196356],[-84.295001,39.196296]]]}},{"type":"Feature","properties":{"pid":"062001210051"},"geometry":{"type":"Polygon","coordinates":[[[-84.295066,39.195804],[-84.295083,39.195682],[-84.295759,39.195739],[-84.295741,39.195862],[-84.295066,39.195804]]]}},{"type":"Feature","properties":{"pid":"062001210052"},"geometry":{"type":"Polygon","coordinates":[[[-84.294517,39.196261],[-84.294599,39.195638],[-84.295083,39.195675],[-84.295001,39.196296],[-84.294517,39.196261]]]}},{"type":"Feature","properties":{"pid":"062001210125"},"geometry":{"type":"Polygon","coordinates":[[[-84.292546,39.196514],[-84.292597,39.196132],[-84.292773,39.196144],[-84.292723,39.196526],[-84.292546,39.196514]]]}},{"type":"Feature","properties":{"pid":"062001210126"},"geometry":{"type":"Polygon","coordinates":[[[-84.292871,39.196096],[-84.292936,39.195602],[-84.29355,39.195661],[-84.293485,39.196136],[-84.292871,39.196096]]]}},{"type":"Feature","properties":{"pid":"062001210127"},"geometry":{"type":"Polygon","coordinates":[[[-84.292015,39.19604],[-84.292081,39.195541],[-84.292901,39.195599],[-84.292836,39.196094],[-84.292015,39.19604]]]}},{"type":"Feature","properties":{"pid":"062001210089"},"geometry":{"type":"Polygon","coordinates":[[[-84.294104,39.196176],[-84.294167,39.195712],[-84.294322,39.195724],[-84.294259,39.196186],[-84.294104,39.196176]]]}},{"type":"Feature","properties":{"pid":"062001210058"},"geometry":{"type":"Polygon","coordinates":[[[-84.294098,39.198538],[-84.293694,39.198508],[-84.293746,39.198125],[-84.29415,39.198155],[-84.294098,39.198538]]]}},{"type":"Feature","properties":{"pid":"062001210088"},"geometry":{"type":"Polygon","coordinates":[[[-84.294259,39.196186],[-84.294322,39.195724],[-84.294483,39.195738],[-84.294421,39.196196],[-84.294259,39.196186]]]}},{"type":"Feature","properties":{"pid":"062001210147"},"geometry":{"type":"Polygon","coordinates":[[[-84.292242,39.198288],[-84.291725,39.198247],[-84.291743,39.19811],[-84.29226,39.198151],[-84.292242,39.198288]]]}},{"type":"Feature","properties":{"pid":"062001210061"},"geometry":{"type":"Polygon","coordinates":[[[-84.293616,39.198502],[-84.293454,39.198491],[-84.293502,39.198109],[-84.293669,39.19812],[-84.293616,39.198502]]]}},{"type":"Feature","properties":{"pid":"062001210074"},"geometry":{"type":"Polygon","coordinates":[[[-84.293412,39.197531],[-84.293459,39.197147],[-84.293622,39.197158],[-84.293574,39.197543],[-84.293412,39.197531]]]}},{"type":"Feature","properties":{"pid":"062001210087"},"geometry":{"type":"Polygon","coordinates":[[[-84.293541,39.196579],[-84.293426,39.196572],[-84.293476,39.19619],[-84.293592,39.196197],[-84.293541,39.196579]]]}},{"type":"Feature","properties":{"pid":"062001210068"},"geometry":{"type":"Polygon","coordinates":[[[-84.293346,39.198043],[-84.293394,39.197661],[-84.293556,39.197672],[-84.29351,39.198054],[-84.293346,39.198043]]]}},{"type":"Feature","properties":{"pid":"062001210090"},"geometry":{"type":"Polygon","coordinates":[[[-84.293949,39.196166],[-84.294013,39.195699],[-84.294167,39.195712],[-84.294104,39.196176],[-84.293949,39.196166]]]}},{"type":"Feature","properties":{"pid":"062902620012"},"geometry":{"type":"Polygon","coordinates":[[[-84.295658,39.195575],[-84.295674,39.195439],[-84.295802,39.195446],[-84.295782,39.195583],[-84.295658,39.195575]]]}},{"type":"Feature","properties":{"pid":"062902620011"},"geometry":{"type":"Polygon","coordinates":[[[-84.295802,39.195446],[-84.295674,39.195439],[-84.295696,39.195258],[-84.295829,39.195265],[-84.295802,39.195446]]]}},{"type":"Feature","properties":{"pid":"062902620010"},"geometry":{"type":"Polygon","coordinates":[[[-84.29586,39.19505],[-84.295829,39.195265],[-84.295696,39.195258],[-84.295718,39.195072],[-84.295171,39.195045],[-84.295175,39.195017],[-84.29586,39.19505]]]}},{"type":"Feature","properties":{"pid":"062902620005"},"geometry":{"type":"Polygon","coordinates":[[[-84.294659,39.189216],[-84.294791,39.188049],[-84.295668,39.187958],[-84.295539,39.189123],[-84.294659,39.189216]]]}},{"type":"Feature","properties":{"pid":"062001210001"},"geometry":{"type":"Polygon","coordinates":[[[-84.294151,39.198094],[-84.293758,39.198069],[-84.293779,39.197901],[-84.294176,39.197929],[-84.294151,39.198094]]]}},{"type":"Feature","properties":{"pid":"062001210043"},"geometry":{"type":"Polygon","coordinates":[[[-84.295467,39.197453],[-84.294974,39.197415],[-84.295013,39.19715],[-84.295505,39.197209],[-84.295467,39.197453]]]}},{"type":"Feature","properties":{"pid":"062001210044"},"geometry":{"type":"Polygon","coordinates":[[[-84.294406,39.19707],[-84.295013,39.19715],[-84.294974,39.197415],[-84.294364,39.197369],[-84.294406,39.19707]]]}},{"type":"Feature","properties":{"pid":"062001210045"},"geometry":{"type":"Polygon","coordinates":[[[-84.29469,39.197107],[-84.294406,39.19707],[-84.294432,39.196884],[-84.294719,39.19691],[-84.29469,39.197107]]]}},{"type":"Feature","properties":{"pid":"062001210064"},"geometry":{"type":"Polygon","coordinates":[[[-84.294005,39.197917],[-84.294034,39.197706],[-84.294207,39.197718],[-84.294176,39.197929],[-84.294005,39.197917]]]}},{"type":"Feature","properties":{"pid":"062001210066"},"geometry":{"type":"Polygon","coordinates":[[[-84.293666,39.198064],[-84.293715,39.197683],[-84.293877,39.197695],[-84.293849,39.197906],[-84.293779,39.197901],[-84.293758,39.198069],[-84.293666,39.198064]]]}},{"type":"Feature","properties":{"pid":"062001210076"},"geometry":{"type":"Polygon","coordinates":[[[-84.294168,39.196751],[-84.294333,39.196762],[-84.294282,39.197142],[-84.294109,39.197131],[-84.294168,39.196751]]]}},{"type":"Feature","properties":{"pid":"062001210079"},"geometry":{"type":"Polygon","coordinates":[[[-84.293685,39.19672],[-84.293851,39.19673],[-84.29379,39.197112],[-84.293629,39.197102],[-84.293685,39.19672]]]}},{"type":"Feature","properties":{"pid":"062001210081"},"geometry":{"type":"Polygon","coordinates":[[[-84.293359,39.197086],[-84.293409,39.196703],[-84.293523,39.19671],[-84.293467,39.197092],[-84.293359,39.197086]]]}},{"type":"Feature","properties":{"pid":"062001210083"},"geometry":{"type":"Polygon","coordinates":[[[-84.294185,39.196622],[-84.294093,39.196616],[-84.294145,39.196233],[-84.294236,39.19624],[-84.294185,39.196622]]]}},{"type":"Feature","properties":{"pid":"062001210084"},"geometry":{"type":"Polygon","coordinates":[[[-84.293925,39.196219],[-84.294072,39.196228],[-84.294019,39.19661],[-84.293871,39.1966],[-84.293925,39.196219]]]}},{"type":"Feature","properties":{"pid":"062001210158"},"geometry":{"type":"Polygon","coordinates":[[[-84.295505,39.197209],[-84.295241,39.197177],[-84.295296,39.196802],[-84.295565,39.196824],[-84.295505,39.197209]]]}},{"type":"Feature","properties":{"pid":"062001210159"},"geometry":{"type":"Polygon","coordinates":[[[-84.295241,39.197177],[-84.294967,39.197144],[-84.295017,39.196778],[-84.295296,39.196802],[-84.295241,39.197177]]]}},{"type":"Feature","properties":{"pid":"062001210160"},"geometry":{"type":"Polygon","coordinates":[[[-84.294967,39.197144],[-84.29469,39.197107],[-84.294741,39.196755],[-84.295017,39.196778],[-84.294967,39.197144]]]}},{"type":"Feature","properties":{"pid":"062001210162"},"geometry":{"type":"Polygon","coordinates":[[[-84.294011,39.19674],[-84.293952,39.197122],[-84.293814,39.197113],[-84.293871,39.196732],[-84.294011,39.19674]]]}},{"type":"Feature","properties":{"pid":"062001210164"},"geometry":{"type":"Polygon","coordinates":[[[-84.293689,39.196588],[-84.293742,39.196207],[-84.293907,39.196217],[-84.293854,39.196599],[-84.293689,39.196588]]]}},{"type":"Feature","properties":{"pid":"062001220009"},"geometry":{"type":"Polygon","coordinates":[[[-84.289851,39.198868],[-84.28971,39.198857],[-84.289784,39.198368],[-84.289924,39.198379],[-84.289851,39.198868]]]}},{"type":"Feature","properties":{"pid":"062001220066"},"geometry":{"type":"Polygon","coordinates":[[[-84.28942,39.196723],[-84.290037,39.196739],[-84.290024,39.19708],[-84.289408,39.197041],[-84.28942,39.196723]]]}},{"type":"Feature","properties":{"pid":"062001220072"},"geometry":{"type":"Polygon","coordinates":[[[-84.289228,39.196669],[-84.288916,39.19665],[-84.288903,39.196527],[-84.289242,39.196547],[-84.289228,39.196669]]]}},{"type":"Feature","properties":{"pid":"062001220074"},"geometry":{"type":"Polygon","coordinates":[[[-84.289256,39.196425],[-84.28889,39.196403],[-84.288877,39.196279],[-84.289271,39.196302],[-84.289256,39.196425]]]}},{"type":"Feature","properties":{"pid":"062001220075"},"geometry":{"type":"Polygon","coordinates":[[[-84.289498,39.196684],[-84.289404,39.196679],[-84.289447,39.196313],[-84.289541,39.196318],[-84.289498,39.196684]]]}},{"type":"Feature","properties":{"pid":"062001220076"},"geometry":{"type":"Polygon","coordinates":[[[-84.289593,39.19669],[-84.289635,39.196324],[-84.289812,39.196335],[-84.289775,39.196701],[-84.289593,39.19669]]]}},{"type":"Feature","properties":{"pid":"062001220250"},"geometry":{"type":"Polygon","coordinates":[[[-84.289295,39.196166],[-84.288854,39.19614],[-84.288797,39.195744],[-84.289336,39.195778],[-84.289295,39.196166]]]}},{"type":"Feature","properties":{"pid":"062001220005"},"geometry":{"type":"Polygon","coordinates":[[[-84.289236,39.199443],[-84.289173,39.198872],[-84.290051,39.198933],[-84.289991,39.199498],[-84.289236,39.199443]]]}},{"type":"Feature","properties":{"pid":"062001220028"},"geometry":{"type":"Polygon","coordinates":[[[-84.291384,39.196297],[-84.290926,39.196271],[-84.290941,39.196141],[-84.291399,39.196168],[-84.291384,39.196297]]]}},{"type":"Feature","properties":{"pid":"062001220200"},"geometry":{"type":"Polygon","coordinates":[[[-84.289352,39.200613],[-84.290818,39.200677],[-84.290779,39.200968],[-84.289375,39.200905],[-84.289352,39.200613]]]}},{"type":"Feature","properties":{"pid":"062001220214"},"geometry":{"type":"Polygon","coordinates":[[[-84.290701,39.200672],[-84.289352,39.200613],[-84.289293,39.199937],[-84.290805,39.200023],[-84.290701,39.200672]]]}},{"type":"Feature","properties":{"pid":"062001210143"},"geometry":{"type":"Polygon","coordinates":[[[-84.291816,39.19755],[-84.292334,39.197591],[-84.292276,39.198028],[-84.291759,39.197987],[-84.291816,39.19755]]]}},{"type":"Feature","properties":{"pid":"062001210185"},"geometry":{"type":"Polygon","coordinates":[[[-84.291967,39.196464],[-84.292007,39.196081],[-84.292525,39.19612],[-84.292485,39.196503],[-84.291967,39.196464]]]}},{"type":"Feature","properties":{"pid":"062001210193"},"geometry":{"type":"Polygon","coordinates":[[[-84.292354,39.197978],[-84.292405,39.197595],[-84.293108,39.197642],[-84.293057,39.198024],[-84.292354,39.197978]]]}},{"type":"Feature","properties":{"pid":"062001220254"},"geometry":{"type":"Polygon","coordinates":[[[-84.288882,39.19707],[-84.289988,39.197137],[-84.289133,39.198227],[-84.289011,39.197254],[-84.288904,39.197248],[-84.288882,39.19707]]]}},{"type":"Feature","properties":{"pid":"062001220266"},"geometry":{"type":"Polygon","coordinates":[[[-84.290259,39.197829],[-84.290202,39.198279],[-84.289668,39.198243],[-84.289707,39.197792],[-84.290259,39.197829]]]}},{"type":"Feature","properties":{"pid":"062001220265"},"geometry":{"type":"Polygon","coordinates":[[[-84.290343,39.197157],[-84.290259,39.197829],[-84.289707,39.197792],[-84.289668,39.198243],[-84.289147,39.198208],[-84.289988,39.197137],[-84.290343,39.197157]]]}},{"type":"Feature","properties":{"pid":"062001220199"},"geometry":{"type":"Polygon","coordinates":[[[-84.282007,39.196757],[-84.284161,39.19501],[-84.284606,39.19504],[-84.28455,39.195485],[-84.285207,39.195534],[-84.283589,39.19687],[-84.282007,39.196757]]]}},{"type":"Feature","properties":{"pid":"062001220224"},"geometry":{"type":"Polygon","coordinates":[[[-84.28455,39.195485],[-84.284606,39.19504],[-84.284821,39.195054],[-84.284766,39.195501],[-84.28455,39.195485]]]}},{"type":"Feature","properties":{"pid":"062001220230"},"geometry":{"type":"Polygon","coordinates":[[[-84.285411,39.195549],[-84.285196,39.195533],[-84.285252,39.195086],[-84.285467,39.195102],[-84.285411,39.195549]]]}},{"type":"Feature","properties":{"pid":"062001220268"},"geometry":{"type":"Polygon","coordinates":[[[-84.284821,39.195054],[-84.285252,39.195086],[-84.285196,39.195533],[-84.284766,39.195501],[-84.284821,39.195054]]]}},{"type":"Feature","properties":{"pid":"062001220247"},"geometry":{"type":"Polygon","coordinates":[[[-84.290825,39.197751],[-84.290902,39.197189],[-84.291315,39.197212],[-84.291242,39.197778],[-84.290825,39.197751]]]}},{"type":"Feature","properties":{"pid":"062001220270"},"geometry":{"type":"Polygon","coordinates":[[[-84.290322,39.19733],[-84.290343,39.197157],[-84.290902,39.197189],[-84.290825,39.197751],[-84.290925,39.197757],[-84.290852,39.198322],[-84.290276,39.198284],[-84.290396,39.197334],[-84.290322,39.19733]]]}},{"type":"Feature","properties":{"pid":"062001210129"},"geometry":{"type":"Polygon","coordinates":[[[-84.293642,39.194988],[-84.293577,39.195469],[-84.29289,39.195422],[-84.292949,39.194942],[-84.293642,39.194988]]]}},{"type":"Feature","properties":{"pid":"062001100017"},"geometry":{"type":"Polygon","coordinates":[[[-84.284658,39.212584],[-84.285852,39.211395],[-84.286279,39.211483],[-84.285896,39.21203],[-84.285925,39.213087],[-84.285995,39.213096],[-84.286007,39.213515],[-84.284888,39.213369],[-84.28423,39.213072],[-84.284658,39.212584]]]}},{"type":"Feature","properties":{"pid":"062001100038"},"geometry":{"type":"Polygon","coordinates":[[[-84.288058,39.212509],[-84.288808,39.212255],[-84.289035,39.212826],[-84.288329,39.213106],[-84.288133,39.21313],[-84.288058,39.212509]]]}},{"type":"Feature","properties":{"pid":"062001100039"},"geometry":{"type":"Polygon","coordinates":[[[-84.292556,39.210728],[-84.292655,39.210803],[-84.291865,39.211134],[-84.291065,39.211613],[-84.291019,39.21174],[-84.290039,39.212429],[-84.289035,39.212826],[-84.288808,39.212255],[-84.290473,39.211592],[-84.292085,39.210876],[-84.292556,39.210728]]]}},{"type":"Feature","properties":{"pid":"062000200059"},"geometry":{"type":"Polygon","coordinates":[[[-84.2849,39.208636],[-84.282831,39.211593],[-84.282497,39.211208],[-84.281891,39.209995],[-84.282274,39.209449],[-84.282798,39.209424],[-84.282275,39.208761],[-84.2849,39.208636]]]}}],"name":"parcels-45111"}