{"type":"FeatureCollection","crs":{"type":"name","properties":{"name":"urn:ogc:def:crs:OGC:1.3:CRS84"}},"features":[{"type":"Feature","properties":{"pid":"062001100031"},"geometry":{"type":"Polygon","coordinates":[[[-84.286727,39.213474],[-84.286712,39.212914],[-84.288058,39.212509],[-84.288153,39.213292],[-84.286727,39.213474]]]}},{"type":"Feature","properties":{"pid":"062001100034"},"geometry":{"type":"Polygon","coordinates":[[[-84.291622,39.208945],[-84.292208,39.209541],[-84.29231,39.209873],[-84.290916,39.210133],[-84.290589,39.209155],[-84.291622,39.208945]]]}},{"type":"Feature","properties":{"pid":"062902710001"},"geometry":{"type":"Polygon","coordinates":[[[-84.283355,39.210843],[-84.2849,39.208636],[-84.282275,39.208761],[-84.280936,39.207049],[-84.279401,39.205779],[-84.281873,39.204961],[-84.281673,39.204277],[-84.281294,39.203814],[-84.280744,39.202397],[-84.280889,39.202149],[-84.279893,39.200824],[-84.279151,39.200843],[-84.27881,39.200679],[-84.278823,39.200231],[-84.278696,39.200044],[-84.278257,39.199936],[-84.278984,39.197861],[-84.27923,39.197565],[-84.280771,39.196452],[-84.28161,39.197079],[-84.282007,39.196757],[-84.285266,39.196989],[-84.285742,39.197464],[-84.286269,39.197502],[-84.286197,39.198117],[-84.288968,39.198314],[-84.289268,39.200907],[-84.289523,39.203998],[-84.28964,39.204907],[-84.290132,39.204933],[-84.290408,39.204155],[-84.290342,39.204674],[-84.290278,39.204671],[-84.290446,39.207378],[-84.290353,39.207378],[-84.290785,39.208139],[-84.291524,39.208966],[-84.290589,39.209155],[-84.290916,39.210133],[-84.290554,39.210206],[-84.290525,39.21064],[-84.29063,39.211058],[-84.290769,39.211331],[-84.291912,39.210822],[-84.291876,39.210965],[-84.290473,39.211592],[-84.288587,39.212343],[-84.287878,39.212573],[-84.287786,39.211726],[-84.283355,39.210843]]]}},{"type":"Feature","properties":{"pid":"062001100037"},"geometry":{"type":"Polygon","coordinates":[[[-84.284403,39.21108],[-84.284813,39.211162],[-84.28388,39.212056],[-84.283139,39.212593],[-84.282939,39.21242],[-84.284403,39.21108]]]}},{"type":"Feature","properties":{"pid":"062001100033"},"geometry":{"type":"Polygon","coordinates":[[[-84.285995,39.213096],[-84.28596,39.213092],[-84.285932,39.212036],[-84.286332,39.211465],[-84.284403,39.21108],[-84.282939,39.21242],[-84.282535,39.212015],[-84.283355,39.210843],[-84.286384,39.211447],[-84.285967,39.212043],[-84.285995,39.213096]]]}}],"name":"parcels-45147"}