{"type":"FeatureCollection","crs":{"type":"name","properties":{"name":"urn:ogc:def:crs:OGC:1.3:CRS84"}},"features":[{"type":"Feature","properties":{"pid":"052900210023"},"geometry":{"type":"Polygon","coordinates":[[[-84.292037,39.184765],[-84.292062,39.184459],[-84.292428,39.184478],[-84.292405,39.184784],[-84.292037,39.184765]]]}},{"type":"Feature","properties":{"pid":"052900210024"},"geometry":{"type":"Polygon","coordinates":[[[-84.291684,39.184746],[-84.291709,39.184441],[-84.292062,39.184459],[-84.292037,39.184765],[-84.291684,39.184746]]]}},{"type":"Feature","properties":{"pid":"052900210025"},"geometry":{"type":"Polygon","coordinates":[[[-84.291684,39.184746],[-84.289441,39.184622],[-84.289668,39.183997],[-84.291735,39.184114],[-84.291698,39.184358],[-84.292362,39.184391],[-84.29236,39.184442],[-84.29243,39.184445],[-84.292428,39.184478],[-84.291709,39.184441],[-84.291684,39.184746]]]}},{"type":"Feature","properties":{"pid":"052400010019"},"geometry":{"type":"Polygon","coordinates":[[[-84.299369,39.172814],[-84.299277,39.172833],[-84.299036,39.17214],[-84.299366,39.172164],[-84.299423,39.172428],[-84.299369,39.172814]]]}},{"type":"Feature","properties":{"pid":"052400010028"},"geometry":{"type":"MultiPolygon","coordinates":[[[[-84.299504,39.177116],[-84.299045,39.177428],[-84.298156,39.177413],[-84.299044,39.176928],[-84.299504,39.177116]]],[[[-84.299322,39.177447],[-84.299268,39.177443],[-84.299459,39.177285],[-84.299322,39.177447]]]]}},{"type":"Feature","properties":{"pid":"052400020072"},"geometry":{"type":"Polygon","coordinates":[[[-84.29972,39.170908],[-84.299776,39.170914],[-84.29973,39.171925],[-84.299638,39.171928],[-84.299683,39.172186],[-84.299521,39.172174],[-84.299459,39.171792],[-84.299341,39.171524],[-84.299406,39.171523],[-84.29972,39.170908]]]}},{"type":"Feature","properties":{"pid":"052400020101"},"geometry":{"type":"Polygon","coordinates":[[[-84.298444,39.170615],[-84.298488,39.170175],[-84.29864,39.170223],[-84.298444,39.170615]]]}},{"type":"Feature","properties":{"pid":"052000100015"},"geometry":{"type":"Polygon","coordinates":[[[-84.294857,39.179199],[-84.294707,39.17897],[-84.295385,39.178783],[-84.295522,39.178995],[-84.294857,39.179199]]]}},{"type":"Feature","properties":{"pid":"052400010013"},"geometry":{"type":"Polygon","coordinates":[[[-84.299586,39.173987],[-84.299751,39.174096],[-84.299893,39.174499],[-84.300103,39.174582],[-84.300213,39.174928],[-84.29984,39.174935],[-84.299586,39.173987]]]}},{"type":"Feature","properties":{"pid":"052400010025"},"geometry":{"type":"Polygon","coordinates":[[[-84.29967,39.177038],[-84.29914,39.176806],[-84.299245,39.176639],[-84.299767,39.176871],[-84.29967,39.177038]]]}},{"type":"Feature","properties":{"pid":"052400010026"},"geometry":{"type":"Polygon","coordinates":[[[-84.299888,39.176654],[-84.299356,39.176463],[-84.29949,39.17625],[-84.299998,39.176456],[-84.299888,39.176654]]]}},{"type":"Feature","properties":{"pid":"052400010027"},"geometry":{"type":"Polygon","coordinates":[[[-84.299577,39.177146],[-84.299044,39.176928],[-84.29914,39.176806],[-84.29967,39.177038],[-84.299577,39.177146]]]}},{"type":"Feature","properties":{"pid":"052400020086"},"geometry":{"type":"Polygon","coordinates":[[[-84.298694,39.171459],[-84.298647,39.171293],[-84.298947,39.17137],[-84.298824,39.171466],[-84.298694,39.171459]]]}},{"type":"Feature","properties":{"pid":"052400020088"},"geometry":{"type":"Polygon","coordinates":[[[-84.298763,39.171128],[-84.298817,39.171023],[-84.299136,39.171124],[-84.299065,39.171218],[-84.298763,39.171128]]]}},{"type":"Feature","properties":{"pid":"062902620001"},"geometry":{"type":"Polygon","coordinates":[[[-84.292222,39.186699],[-84.292013,39.18899],[-84.291807,39.189232],[-84.291016,39.189904],[-84.288121,39.187674],[-84.288539,39.186412],[-84.292222,39.186699]]]}},{"type":"Feature","properties":{"pid":"052000100020"},"geometry":{"type":"Polygon","coordinates":[[[-84.295489,39.178908],[-84.295385,39.178783],[-84.29604,39.178602],[-84.296129,39.178722],[-84.295489,39.178908]]]}},{"type":"Feature","properties":{"pid":"052900210001"},"geometry":{"type":"Polygon","coordinates":[[[-84.292222,39.186699],[-84.289597,39.186495],[-84.29236,39.185332],[-84.292222,39.186699]]]}},{"type":"Feature","properties":{"pid":"052900210002"},"geometry":{"type":"Polygon","coordinates":[[[-84.289762,39.181119],[-84.290918,39.180542],[-84.289441,39.184622],[-84.292405,39.184784],[-84.29236,39.185332],[-84.289597,39.186495],[-84.288539,39.186412],[-84.288929,39.185124],[-84.288864,39.184847],[-84.287916,39.183574],[-84.287614,39.182905],[-84.28776,39.182315],[-84.288874,39.18176],[-84.289762,39.181119]]]}},{"type":"Feature","properties":{"pid":"052900210005"},"geometry":{"type":"Polygon","coordinates":[[[-84.291744,39.184054],[-84.292374,39.184086],[-84.292362,39.184391],[-84.291698,39.184358],[-84.291744,39.184054]]]}},{"type":"Feature","properties":{"pid":"052900210012"},"geometry":{"type":"Polygon","coordinates":[[[-84.293418,39.180136],[-84.293267,39.180065],[-84.293601,39.179722],[-84.29409,39.179307],[-84.294707,39.17897],[-84.294792,39.179091],[-84.294213,39.179405],[-84.293418,39.180136]]]}},{"type":"Feature","properties":{"pid":"052900210018"},"geometry":{"type":"MultiPolygon","coordinates":[[[[-84.295958,39.179146],[-84.295818,39.17898],[-84.297423,39.178459],[-84.298107,39.17816],[-84.298098,39.178236],[-84.296623,39.17891],[-84.295958,39.179146]]],[[[-84.292984,39.181731],[-84.292697,39.184297],[-84.292694,39.182463],[-84.29283,39.181758],[-84.292984,39.181731]]],[[[-84.296775,39.179128],[-84.296726,39.179791],[-84.297849,39.180297],[-84.297033,39.187032],[-84.292692,39.186729],[-84.292831,39.185218],[-84.293104,39.184277],[-84.293249,39.182712],[-84.293111,39.182309],[-84.293196,39.181739],[-84.29377,39.180771],[-84.294945,39.179963],[-84.295409,39.179812],[-84.296775,39.179128]]]]}},{"type":"Feature","properties":{"pid":"052400020022"},"geometry":{"type":"Polygon","coordinates":[[[-84.300553,39.16867],[-84.300071,39.168486],[-84.300149,39.168363],[-84.300669,39.168567],[-84.300553,39.16867]]]}},{"type":"Feature","properties":{"pid":"052400020159"},"geometry":{"type":"Polygon","coordinates":[[[-84.299518,39.168432],[-84.299353,39.168369],[-84.29961,39.167921],[-84.299942,39.167941],[-84.299938,39.168076],[-84.299718,39.168111],[-84.299518,39.168432]]]}},{"type":"Feature","properties":{"pid":"052400020160"},"geometry":{"type":"Polygon","coordinates":[[[-84.2992,39.168311],[-84.29942,39.167911],[-84.29961,39.167921],[-84.299353,39.168369],[-84.2992,39.168311]]]}},{"type":"Feature","properties":{"pid":"052400020019"},"geometry":{"type":"Polygon","coordinates":[[[-84.301715,39.168032],[-84.301387,39.16825],[-84.301051,39.168],[-84.301715,39.168032]]]}},{"type":"Feature","properties":{"pid":"052400020037"},"geometry":{"type":"Polygon","coordinates":[[[-84.299127,39.169353],[-84.298666,39.169173],[-84.298697,39.169033],[-84.299204,39.169231],[-84.299127,39.169353]]]}},{"type":"Feature","properties":{"pid":"052400020063"},"geometry":{"type":"Polygon","coordinates":[[[-84.29984,39.169772],[-84.299763,39.169894],[-84.299447,39.169777],[-84.299525,39.169653],[-84.29984,39.169772]]]}},{"type":"Feature","properties":{"pid":"052400020093"},"geometry":{"type":"Polygon","coordinates":[[[-84.299207,39.170999],[-84.29888,39.170895],[-84.298943,39.170766],[-84.299271,39.17087],[-84.299207,39.170999]]]}},{"type":"Feature","properties":{"pid":"052400020092"},"geometry":{"type":"Polygon","coordinates":[[[-84.299164,39.171088],[-84.298835,39.170986],[-84.29888,39.170895],[-84.299207,39.170999],[-84.299164,39.171088]]]}},{"type":"Feature","properties":{"pid":"052400020097"},"geometry":{"type":"Polygon","coordinates":[[[-84.299334,39.170741],[-84.299006,39.170638],[-84.29907,39.170509],[-84.299397,39.170612],[-84.299334,39.170741]]]}},{"type":"Feature","properties":{"pid":"052400020058"},"geometry":{"type":"Polygon","coordinates":[[[-84.300231,39.169164],[-84.300154,39.169285],[-84.299837,39.169165],[-84.299917,39.169042],[-84.300231,39.169164]]]}},{"type":"Feature","properties":{"pid":"052400020161"},"geometry":{"type":"Polygon","coordinates":[[[-84.29942,39.167911],[-84.2992,39.168311],[-84.298878,39.168188],[-84.29887,39.167881],[-84.29942,39.167911]]]}},{"type":"Feature","properties":{"pid":"052400020067"},"geometry":{"type":"Polygon","coordinates":[[[-84.299527,39.170264],[-84.299477,39.170342],[-84.299155,39.17024],[-84.299214,39.170145],[-84.299527,39.170264]]]}},{"type":"Feature","properties":{"pid":"052400020055"},"geometry":{"type":"Polygon","coordinates":[[[-84.300308,39.169042],[-84.299676,39.168797],[-84.299794,39.168613],[-84.300425,39.168858],[-84.300308,39.169042]]]}}],"name":"parcels-45150"}