{"type":"FeatureCollection","crs":{"type":"name","properties":{"name":"urn:ogc:def:crs:OGC:1.3:CRS84"}},"features":[{"type":"Feature","properties":{"pid":"010200050143"},"geometry":{"type":"Polygon","coordinates":[[[-84.511986,39.129427],[-84.51171,39.129408],[-84.511718,39.12934],[-84.511993,39.129359],[-84.511986,39.129427]]]}},{"type":"Feature","properties":{"pid":"010300030116"},"geometry":{"type":"Polygon","coordinates":[[[-84.512716,39.135342],[-84.512364,39.135313],[-84.512372,39.135243],[-84.512724,39.13527],[-84.512716,39.135342]]]}},{"type":"Feature","properties":{"pid":"010300050001"},"geometry":{"type":"Polygon","coordinates":[[[-84.515058,39.133373],[-84.515148,39.133312],[-84.51599,39.133372],[-84.516378,39.13345],[-84.516866,39.133616],[-84.517258,39.133652],[-84.517641,39.133578],[-84.518279,39.133283],[-84.518525,39.133248],[-84.518853,39.133286],[-84.519506,39.133552],[-84.520055,39.133658],[-84.519965,39.134592],[-84.51919,39.134952],[-84.517636,39.134745],[-84.514869,39.135334],[-84.515058,39.133373]]]}},{"type":"Feature","properties":{"pid":"010300050002"},"geometry":{"type":"Polygon","coordinates":[[[-84.520055,39.133658],[-84.519506,39.133552],[-84.518931,39.13331],[-84.518691,39.133255],[-84.518279,39.133283],[-84.517641,39.133578],[-84.517159,39.133654],[-84.516866,39.133616],[-84.516378,39.13345],[-84.51599,39.133372],[-84.515148,39.133312],[-84.515058,39.133373],[-84.515074,39.133211],[-84.516108,39.133291],[-84.516902,39.133524],[-84.517162,39.133558],[-84.51759,39.13349],[-84.51824,39.133192],[-84.518709,39.13316],[-84.518982,39.133223],[-84.519552,39.133463],[-84.520065,39.133563],[-84.520055,39.133658]]]}},{"type":"Feature","properties":{"pid":"010200030007"},"geometry":{"type":"Polygon","coordinates":[[[-84.51498,39.130946],[-84.514934,39.130875],[-84.51528,39.130899],[-84.515272,39.130968],[-84.51498,39.130946]]]}},{"type":"Feature","properties":{"pid":"010200030029"},"geometry":{"type":"Polygon","coordinates":[[[-84.514733,39.131848],[-84.514741,39.131779],[-84.515177,39.131807],[-84.515169,39.131875],[-84.514733,39.131848]]]}},{"type":"Feature","properties":{"pid":"010200030031"},"geometry":{"type":"Polygon","coordinates":[[[-84.515016,39.132375],[-84.515046,39.132101],[-84.515134,39.132106],[-84.515105,39.132381],[-84.515016,39.132375]]]}},{"type":"Feature","properties":{"pid":"010200030037"},"geometry":{"type":"Polygon","coordinates":[[[-84.514729,39.132568],[-84.514736,39.1325],[-84.51509,39.132524],[-84.515083,39.132591],[-84.514729,39.132568]]]}},{"type":"Feature","properties":{"pid":"010200030054"},"geometry":{"type":"Polygon","coordinates":[[[-84.514226,39.132673],[-84.514234,39.132605],[-84.51458,39.132627],[-84.514573,39.132695],[-84.514226,39.132673]]]}},{"type":"Feature","properties":{"pid":"010200030073"},"geometry":{"type":"Polygon","coordinates":[[[-84.51408,39.131284],[-84.514045,39.131228],[-84.514382,39.131096],[-84.514421,39.131157],[-84.51408,39.131284]]]}},{"type":"Feature","properties":{"pid":"010200030076"},"geometry":{"type":"Polygon","coordinates":[[[-84.51393,39.131048],[-84.514256,39.130902],[-84.514303,39.130974],[-84.513964,39.131102],[-84.51393,39.131048]]]}},{"type":"Feature","properties":{"pid":"010200030109"},"geometry":{"type":"Polygon","coordinates":[[[-84.514017,39.13231],[-84.514048,39.132036],[-84.514155,39.132043],[-84.514124,39.132317],[-84.514017,39.13231]]]}},{"type":"Feature","properties":{"pid":"010200030141"},"geometry":{"type":"Polygon","coordinates":[[[-84.513006,39.132454],[-84.513014,39.132386],[-84.513296,39.132405],[-84.513289,39.132473],[-84.513006,39.132454]]]}},{"type":"Feature","properties":{"pid":"010200030160"},"geometry":{"type":"Polygon","coordinates":[[[-84.513197,39.13092],[-84.513205,39.130852],[-84.513485,39.130869],[-84.513478,39.130939],[-84.513197,39.13092]]]}},{"type":"Feature","properties":{"pid":"010200030175"},"geometry":{"type":"Polygon","coordinates":[[[-84.513107,39.131465],[-84.512781,39.131444],[-84.512789,39.131375],[-84.513142,39.131398],[-84.513107,39.131465]]]}},{"type":"Feature","properties":{"pid":"010200030177"},"geometry":{"type":"Polygon","coordinates":[[[-84.512765,39.13158],[-84.512773,39.131512],[-84.513126,39.131535],[-84.513118,39.131603],[-84.512765,39.13158]]]}},{"type":"Feature","properties":{"pid":"010200030185"},"geometry":{"type":"Polygon","coordinates":[[[-84.512689,39.132295],[-84.512697,39.132225],[-84.51303,39.132249],[-84.513022,39.132317],[-84.512689,39.132295]]]}},{"type":"Feature","properties":{"pid":"010200030200"},"geometry":{"type":"Polygon","coordinates":[[[-84.514126,39.133855],[-84.514137,39.133719],[-84.514844,39.133776],[-84.51483,39.13391],[-84.514126,39.133855]]]}},{"type":"Feature","properties":{"pid":"010200030202"},"geometry":{"type":"Polygon","coordinates":[[[-84.514115,39.133993],[-84.514121,39.133923],[-84.514823,39.133981],[-84.514816,39.134049],[-84.514115,39.133993]]]}},{"type":"Feature","properties":{"pid":"010200050099"},"geometry":{"type":"Polygon","coordinates":[[[-84.512397,39.130008],[-84.512405,39.129938],[-84.512752,39.129963],[-84.512745,39.130034],[-84.512397,39.130008]]]}},{"type":"Feature","properties":{"pid":"010200050082"},"geometry":{"type":"Polygon","coordinates":[[[-84.513302,39.129656],[-84.512976,39.129632],[-84.512984,39.129562],[-84.513276,39.129585],[-84.513302,39.129656]]]}},{"type":"Feature","properties":{"pid":"010200020108"},"geometry":{"type":"Polygon","coordinates":[[[-84.511983,39.133657],[-84.511992,39.133587],[-84.512338,39.133612],[-84.51233,39.133683],[-84.511983,39.133657]]]}},{"type":"Feature","properties":{"pid":"010200020127"},"geometry":{"type":"Polygon","coordinates":[[[-84.512131,39.132182],[-84.512139,39.132114],[-84.512518,39.132138],[-84.512509,39.132206],[-84.512131,39.132182]]]}},{"type":"Feature","properties":{"pid":"010200020342"},"geometry":{"type":"Polygon","coordinates":[[[-84.511775,39.132964],[-84.511797,39.132778],[-84.511909,39.132785],[-84.511891,39.132972],[-84.511775,39.132964]]]}},{"type":"Feature","properties":{"pid":"010200020150"},"geometry":{"type":"Polygon","coordinates":[[[-84.511632,39.132711],[-84.511355,39.132693],[-84.511362,39.132624],[-84.51164,39.132642],[-84.511632,39.132711]]]}},{"type":"Feature","properties":{"pid":"010200050342"},"geometry":{"type":"MultiPolygon","coordinates":[[[[-84.514334,39.128815],[-84.51426,39.128788],[-84.514335,39.128793],[-84.514334,39.128815]]],[[[-84.514724,39.129455],[-84.515448,39.129498],[-84.515328,39.130492],[-84.515223,39.130482],[-84.515249,39.130276],[-84.515302,39.13028],[-84.515338,39.129578],[-84.514716,39.129536],[-84.514724,39.129455]]]]}},{"type":"Feature","properties":{"pid":"010200010249"},"geometry":{"type":"Polygon","coordinates":[[[-84.511792,39.135108],[-84.511799,39.135046],[-84.512167,39.135071],[-84.512159,39.135134],[-84.511792,39.135108]]]}},{"type":"Feature","properties":{"pid":"010200020354"},"geometry":{"type":"Polygon","coordinates":[[[-84.511806,39.131111],[-84.511895,39.131116],[-84.511869,39.131525],[-84.511761,39.131518],[-84.511806,39.131111]]]}},{"type":"Feature","properties":{"pid":"010200020162"},"geometry":{"type":"Polygon","coordinates":[[[-84.51109,39.131918],[-84.511097,39.13185],[-84.511374,39.131868],[-84.511366,39.131937],[-84.51109,39.131918]]]}},{"type":"Feature","properties":{"pid":"010200030199"},"geometry":{"type":"Polygon","coordinates":[[[-84.514137,39.133719],[-84.514143,39.133637],[-84.514852,39.133691],[-84.514844,39.133776],[-84.514137,39.133719]]]}},{"type":"Feature","properties":{"pid":"010200030224"},"geometry":{"type":"Polygon","coordinates":[[[-84.514147,39.133584],[-84.514169,39.133307],[-84.514279,39.133315],[-84.514257,39.133592],[-84.514147,39.133584]]]}},{"type":"Feature","properties":{"pid":"010200020345"},"geometry":{"type":"Polygon","coordinates":[[[-84.512338,39.133612],[-84.511993,39.133573],[-84.512341,39.133598],[-84.512338,39.133612]]]}},{"type":"Feature","properties":{"pid":"010200030162"},"geometry":{"type":"Polygon","coordinates":[[[-84.513212,39.130783],[-84.513217,39.130744],[-84.513497,39.130762],[-84.513493,39.130801],[-84.513212,39.130783]]]}},{"type":"Feature","properties":{"pid":"010200030163"},"geometry":{"type":"Polygon","coordinates":[[[-84.513217,39.130744],[-84.513227,39.130656],[-84.513506,39.130674],[-84.513497,39.130762],[-84.513217,39.130744]]]}},{"type":"Feature","properties":{"pid":"010200010234"},"geometry":{"type":"Polygon","coordinates":[[[-84.511767,39.135311],[-84.511627,39.135299],[-84.51166,39.135036],[-84.511249,39.135008],[-84.511217,39.13527],[-84.511165,39.135266],[-84.511269,39.134389],[-84.511084,39.134377],[-84.511102,39.134218],[-84.511462,39.134239],[-84.511574,39.133244],[-84.511742,39.133254],[-84.511625,39.134253],[-84.512259,39.134295],[-84.512243,39.134453],[-84.511876,39.134429],[-84.511767,39.135311]],[[-84.511668,39.134967],[-84.511735,39.13442],[-84.511322,39.134393],[-84.511257,39.134939],[-84.511668,39.134967]]]}},{"type":"Feature","properties":{"pid":"010200050002"},"geometry":{"type":"Polygon","coordinates":[[[-84.514904,39.13046],[-84.514662,39.130444],[-84.514615,39.130368],[-84.514913,39.130393],[-84.514904,39.13046]]]}},{"type":"Feature","properties":{"pid":"010200050015"},"geometry":{"type":"Polygon","coordinates":[[[-84.515284,39.130004],[-84.514845,39.129969],[-84.514848,39.129942],[-84.51494,39.129948],[-84.514945,39.129906],[-84.515293,39.129934],[-84.515284,39.130004]]]}},{"type":"Feature","properties":{"pid":"010200060001"},"geometry":{"type":"Polygon","coordinates":[[[-84.515015,39.133207],[-84.51556,39.128588],[-84.520526,39.128931],[-84.520065,39.133563],[-84.519552,39.133463],[-84.518982,39.133223],[-84.518615,39.133152],[-84.518151,39.133219],[-84.517508,39.133516],[-84.51725,39.133556],[-84.516988,39.133542],[-84.516108,39.133291],[-84.515015,39.133207]]]}},{"type":"Feature","properties":{"pid":"010200020338"},"geometry":{"type":"Polygon","coordinates":[[[-84.512576,39.131629],[-84.512202,39.131602],[-84.512218,39.131469],[-84.51259,39.131495],[-84.512576,39.131629]]]}},{"type":"Feature","properties":{"pid":"010200020340"},"geometry":{"type":"Polygon","coordinates":[[[-84.512271,39.131021],[-84.512283,39.130924],[-84.512648,39.130951],[-84.512638,39.131049],[-84.512271,39.131021]]]}},{"type":"Feature","properties":{"pid":"010300030143"},"geometry":{"type":"Polygon","coordinates":[[[-84.513973,39.13547],[-84.512991,39.135415],[-84.513071,39.134674],[-84.513205,39.134683],[-84.51315,39.135277],[-84.513426,39.135292],[-84.513418,39.135369],[-84.51377,39.135388],[-84.51385,39.134554],[-84.514062,39.134572],[-84.513973,39.13547]]]}},{"type":"Feature","properties":{"pid":"010200020312"},"geometry":{"type":"Polygon","coordinates":[[[-84.512227,39.131398],[-84.512235,39.131331],[-84.512606,39.131356],[-84.512599,39.131421],[-84.512227,39.131398]]]}},{"type":"Feature","properties":{"pid":"010300030292"},"geometry":{"type":"Polygon","coordinates":[[[-84.514343,39.135291],[-84.51435,39.135222],[-84.514696,39.135245],[-84.514689,39.135313],[-84.514343,39.135291]]]}}],"name":"parcels-45221"}