{
"type": "FeatureCollection",
"name": "delta_cincinnati_habitable",
"crs": { "type": "name", "properties": { "name": "urn:ogc:def:crs:OGC:1.3:CRS84" } },
"features": [
{ "type": "Feature", "properties": { "name": "delta_cincinnati_habitable", "city": "cincinnati", "extract_date": "2026-08-25", "crs": "EPSG:3735", "kind": "parcel_extended_delta", "definition": "union(cincinnati extra buffers, habitable parcels intersecting them) minus parcel-extended restricted_state", "simplify_ft": 5.0, "display_only": false }, "geometry": { "type": "MultiPolygon", "coordinates": [ [ [ [ -84.382809982702327, 39.082142284964014 ], [ -84.383239952286402, 39.082171724996833 ], [ -84.382895577930483, 39.082911103172492 ], [ -84.382422738237992, 39.082576927533694 ], [ -84.382428075883567, 39.082531689890523 ], [ -84.382610742247095, 39.082660153908193 ], [ -84.382809982702327, 39.082142284964014 ] ] ], [ [ [ -84.385084660768044, 39.082297557086946 ], [ -84.385479882442198, 39.082322824019698 ], [ -84.385536168118975, 39.082650016928106 ], [ -84.385722834370199, 39.082733964540118 ], [ -84.385728169039893, 39.082765177277608 ], [ -84.385419662557808, 39.082743511230731 ], [ -84.385443417303748, 39.082698945281244 ], [ -84.385084660768044, 39.082297557086946 ] ] ], [ [ [ -84.430049372687463, 39.146458423396091 ], [ -84.430211540603665, 39.146620169651818 ], [ -84.430218932138033, 39.146542206503099 ], [ -84.430963788252569, 39.146584421350177 ], [ -84.430766477875721, 39.148611587522232 ], [ -84.430019256540461, 39.148566818230314 ], [ -84.430028772512287, 39.148454019389938 ], [ -84.429900896989963, 39.148441091129207 ], [ -84.429793938833399, 39.148529830339754 ], [ -84.42969023600287, 39.149060493374719 ], [ -84.429618465782355, 39.149060121764663 ], [ -84.429641890331112, 39.148861854119666 ], [ -84.428284234595097, 39.148756352249258 ], [ -84.428232399210955, 39.14918255933474 ], [ -84.427857632234421, 39.149153384156882 ], [ -84.427836950111001, 39.149325524965306 ], [ -84.427126788851965, 39.149268077894725 ], [ -84.42704254063807, 39.149361539438395 ], [ -84.427269533239709, 39.149379344026258 ], [ -84.427245371384856, 39.149607923985073 ], [ -84.42682316078357, 39.149578796072639 ], [ -84.42660218793165, 39.149801607305633 ], [ -84.426585379898327, 39.149901505198187 ], [ -84.426643797583381, 39.15000094369136 ], [ -84.426506066829788, 39.150105125225842 ], [ -84.426478584764851, 39.150067307453419 ], [ -84.426048975390131, 39.150247036852605 ], [ -84.425988944320352, 39.150164426839417 ], [ -84.425897741771749, 39.150205909481329 ], [ -84.426052249419641, 39.150418526129833 ], [ -84.425515906583371, 39.15061083845 ], [ -84.425664486566262, 39.150818236747753 ], [ -84.425543057918759, 39.150940460426312 ], [ -84.425516218105273, 39.150902349601331 ], [ -84.425100716409005, 39.151111317515685 ], [ -84.425015932034199, 39.150990949519347 ], [ -84.424773157209259, 39.151113047677512 ], [ -84.42481855962663, 39.151440658416256 ], [ -84.424656044523431, 39.151547619942413 ], [ -84.424607374132705, 39.151196423378757 ], [ -84.424259218927176, 39.15137151245559 ], [ -84.424315977887915, 39.151781071884841 ], [ -84.42437203406746, 39.151776363242185 ], [ -84.424240803004125, 39.151897851122065 ], [ -84.423996066581893, 39.151918001370547 ], [ -84.423921944142251, 39.151955465216808 ], [ -84.423766048786618, 39.152435820361603 ], [ -84.423814660809299, 39.152459465982936 ], [ -84.423781291240715, 39.152520103415043 ], [ -84.423733367684207, 39.152496431758067 ], [ -84.423361132120462, 39.152957776164897 ], [ -84.423095219873545, 39.152823836109675 ], [ -84.422877389334971, 39.152636725344564 ], [ -84.422715030618704, 39.152412429238822 ], [ -84.42239823898926, 39.152165306544603 ], [ -84.422128587308492, 39.151883900566396 ], [ -84.422145956731597, 39.151918139861472 ], [ -84.421694189417124, 39.151946914068915 ], [ -84.421634079757553, 39.151863367033599 ], [ -84.421423041359006, 39.151876574378278 ], [ -84.421416326669757, 39.151815710958729 ], [ -84.421530651744035, 39.151807236437271 ], [ -84.421527884823803, 39.151770148223584 ], [ -84.421553715015392, 39.151768564186931 ], [ -84.421527390583933, 39.151554238407535 ], [ -84.421877940738554, 39.151537679915549 ], [ -84.421796045073435, 39.151389565759743 ], [ -84.421735214857662, 39.151393270457461 ], [ -84.421728881117588, 39.151364891018751 ], [ -84.42154367858501, 39.151387721145213 ], [ -84.42151130616908, 39.15104513554116 ], [ -84.420614783549169, 39.151015921449464 ], [ -84.419721086358877, 39.150745634609052 ], [ -84.421178360921516, 39.150834523607976 ], [ -84.421210537340343, 39.15050443667743 ], [ -84.421537906047263, 39.15052594762976 ], [ -84.421552103989256, 39.150558802464893 ], [ -84.421556282621069, 39.149745088758159 ], [ -84.421596029049013, 39.149396499269265 ], [ -84.42162884124204, 39.149372091918544 ], [ -84.421639985014494, 39.149261184144969 ], [ -84.421608843408549, 39.149258880731075 ], [ -84.421638684271514, 39.148765179795831 ], [ -84.421689476666387, 39.148768616985734 ], [ -84.421700434168713, 39.148659561173844 ], [ -84.421646613322451, 39.14865589236129 ], [ -84.421706235028353, 39.148160640918832 ], [ -84.421750265936907, 39.148163600429129 ], [ -84.421761372434048, 39.148053059811822 ], [ -84.421717290179075, 39.148049904197293 ], [ -84.421765630504794, 39.147556019973585 ], [ -84.421843538981548, 39.147561251981045 ], [ -84.421876223307379, 39.147450259974931 ], [ -84.421776612111358, 39.147443361707559 ], [ -84.421826852041278, 39.146953558123201 ], [ -84.422095731985891, 39.146970210128586 ], [ -84.422163839488789, 39.146857645095018 ], [ -84.421838706610018, 39.146835930736387 ], [ -84.421851257628276, 39.146701792568955 ], [ -84.422206905560117, 39.146723252476789 ], [ -84.422197623891748, 39.146811704167689 ], [ -84.422363551558348, 39.146597372699098 ], [ -84.422387475019548, 39.146375047940026 ], [ -84.422564635518896, 39.146385876733873 ], [ -84.42268977982809, 39.146273978629047 ], [ -84.422569765758396, 39.146266247194269 ], [ -84.422598301014034, 39.146019030600293 ], [ -84.422883469358027, 39.14603806654074 ], [ -84.42290920145885, 39.145789895315069 ], [ -84.423376910493943, 39.145821466350611 ], [ -84.423588086044802, 39.145720461798383 ], [ -84.423495003991789, 39.145714054434272 ], [ -84.423518304570393, 39.145468358788477 ], [ -84.423838104990978, 39.145490066827051 ], [ -84.423855856691105, 39.145302870048653 ], [ -84.424615762713074, 39.145349751921486 ], [ -84.424606785742242, 39.145432486249796 ], [ -84.425222418301459, 39.145378569354733 ], [ -84.425568440353643, 39.145386549401081 ], [ -84.42770953587015, 39.1455160268236 ], [ -84.428047490764683, 39.145553906912944 ], [ -84.42837466028648, 39.145616023534181 ], [ -84.428998794480449, 39.145811529594056 ], [ -84.429563888490989, 39.146095778330782 ], [ -84.429830958350763, 39.146278910321428 ], [ -84.430064618443637, 39.146156545249838 ], [ -84.430049372687463, 39.146458423396091 ] ] ], [ [ [ -84.424156287349305, 39.177507160931825 ], [ -84.424421305225479, 39.177520859464138 ], [ -84.424494815269512, 39.177385004176223 ], [ -84.424439453875436, 39.17738209375981 ], [ -84.424477470942804, 39.17698556804401 ], [ -84.424736906905267, 39.176998638454556 ], [ -84.424739679700522, 39.176971264081061 ], [ -84.424787090978654, 39.176973652509233 ], [ -84.424810182144611, 39.176702559861447 ], [ -84.425055007434437, 39.176715329306013 ], [ -84.425215114294843, 39.176584791112468 ], [ -84.425175413814941, 39.176582673901372 ], [ -84.425199788801791, 39.176294065024308 ], [ -84.425526390367168, 39.176312035754769 ], [ -84.425537682425457, 39.176363446087741 ], [ -84.425700453064024, 39.176270755531235 ], [ -84.425660858227104, 39.176091310770197 ], [ -84.426091798557778, 39.176037417084054 ], [ -84.426027849747243, 39.175746699353709 ], [ -84.427083761067877, 39.175792827545131 ], [ -84.42709192221055, 39.175828697496883 ], [ -84.427300938259208, 39.175804832790746 ], [ -84.427280783244697, 39.175713161510117 ], [ -84.430387978712602, 39.175893255731523 ], [ -84.430389402436816, 39.17587879792638 ], [ -84.431584755229551, 39.175943195781286 ], [ -84.431550253039021, 39.176158475078445 ], [ -84.431722729040544, 39.176229605104481 ], [ -84.431718055889704, 39.176347794919579 ], [ -84.431302125249545, 39.176470173191575 ], [ -84.430522879902838, 39.176425565585781 ], [ -84.430485554167248, 39.176824262806704 ], [ -84.430036594635851, 39.176784110295216 ], [ -84.430000369640467, 39.177182488044537 ], [ -84.430063328588759, 39.177185803722942 ], [ -84.429929359813841, 39.177315334342303 ], [ -84.429622962792237, 39.177299440091417 ], [ -84.42958965953143, 39.177711147170839 ], [ -84.429471280432125, 39.177704979341591 ], [ -84.429505030284275, 39.177293322543008 ], [ -84.42698414259921, 39.177157562498927 ], [ -84.426991356724699, 39.177086342472805 ], [ -84.426285799524479, 39.177050932556782 ], [ -84.42627527742674, 39.177165153979189 ], [ -84.426059637744018, 39.17718876325501 ], [ -84.426074410243643, 39.177039841107167 ], [ -84.425437808329619, 39.177006436369425 ], [ -84.425435228200143, 39.177033819278982 ], [ -84.424907573717576, 39.177007237480218 ], [ -84.424858112626879, 39.177529179265719 ], [ -84.42467230561715, 39.17762269974682 ], [ -84.424680341525416, 39.177534248334908 ], [ -84.424434816893324, 39.177521557853574 ], [ -84.42441487889198, 39.177719747364158 ], [ -84.424136791483761, 39.177707490140854 ], [ -84.424156287349305, 39.177507160931825 ] ] ], [ [ [ -84.466436473111514, 39.177282919897934 ], [ -84.466016474862968, 39.177134724656248 ], [ -84.465918440410107, 39.17750454596159 ], [ -84.465623337769401, 39.177495824589414 ], [ -84.465633964317746, 39.176957853187588 ], [ -84.465655801736247, 39.176958072692074 ], [ -84.465413481789767, 39.176812722853413 ], [ -84.464904531966354, 39.176806184983171 ], [ -84.464918412257944, 39.176468674538143 ], [ -84.464779168450278, 39.176467337253222 ], [ -84.464777981267545, 39.176502258102708 ], [ -84.464629940265368, 39.176497962955892 ], [ -84.46464307525369, 39.176181738095273 ], [ -84.464715032172933, 39.176182911946704 ], [ -84.464652291592614, 39.176098055284093 ], [ -84.464414625024745, 39.17609463465196 ], [ -84.464426582303503, 39.17582714303208 ], [ -84.464286925135369, 39.175825093170097 ], [ -84.464297026995709, 39.175559125061341 ], [ -84.464345150004647, 39.175559963130098 ], [ -84.464304860086187, 39.175466292679019 ], [ -84.464158088999483, 39.175463840464616 ], [ -84.464166014887866, 39.175190702007676 ], [ -84.46404220987796, 39.175188034745844 ], [ -84.464053499717508, 39.174853749749595 ], [ -84.464180772682312, 39.174856978609995 ], [ -84.464175985222454, 39.174717573007214 ], [ -84.464038762247696, 39.174714364795626 ], [ -84.464049688394866, 39.174383926057665 ], [ -84.464189984387417, 39.174387191617996 ], [ -84.464202188135246, 39.174002348754598 ], [ -84.46429260642519, 39.174004425475395 ], [ -84.464339081039029, 39.173843415033772 ], [ -84.464208313210008, 39.173840059957101 ], [ -84.464218876469104, 39.173435088279668 ], [ -84.464432098285997, 39.173440076560738 ], [ -84.464442324441734, 39.173040237297627 ], [ -84.46462000632873, 39.173044281891109 ], [ -84.464607943385758, 39.173444342411749 ], [ -84.464783551489148, 39.173449197669854 ], [ -84.464787806859576, 39.173339147441268 ], [ -84.464957218279238, 39.173586118000792 ], [ -84.464949052498881, 39.173857922019778 ], [ -84.465200922164144, 39.173863266941311 ], [ -84.465383769052252, 39.174029473969604 ], [ -84.465355758691075, 39.174414321595457 ], [ -84.465817285680799, 39.174425057830646 ], [ -84.465806389074416, 39.174755676576325 ], [ -84.46610532597316, 39.174762660119605 ], [ -84.466090012487143, 39.174902369248002 ], [ -84.465998825375422, 39.174900365057965 ], [ -84.465985516473836, 39.175233607908979 ], [ -84.465393470467774, 39.175220276052812 ], [ -84.465333351958677, 39.176138344173587 ], [ -84.46592496786289, 39.176146081254828 ], [ -84.465992085916938, 39.175901113596538 ], [ -84.466008232494474, 39.176239345396226 ], [ -84.466060162872807, 39.17649911774334 ], [ -84.466258305546646, 39.17700115703564 ], [ -84.466436473111514, 39.177282919897934 ] ] ], [ [ [ -84.464636161692496, 39.17304292610315 ], [ -84.464636884752878, 39.173044666088323 ], [ -84.464635309096721, 39.173044630222357 ], [ -84.464636161692496, 39.17304292610315 ] ] ], [ [ [ -84.472135880941124, 39.123312835280885 ], [ -84.472153718711013, 39.123775422075028 ], [ -84.472116191918204, 39.12404253529877 ], [ -84.471986114510059, 39.124452102581245 ], [ -84.471336147555718, 39.124438307702718 ], [ -84.470656305483757, 39.124526845224459 ], [ -84.470011578250265, 39.124716739279883 ], [ -84.46966330003913, 39.124872884938064 ], [ -84.469289494498668, 39.124945644965088 ], [ -84.46930333434446, 39.125082311664109 ], [ -84.468986069552614, 39.125317788563869 ], [ -84.468944761635029, 39.12527022418454 ], [ -84.468902964598115, 39.125267464357172 ], [ -84.468493614939575, 39.125681224231535 ], [ -84.468354430302853, 39.125698789893711 ], [ -84.46837349095594, 39.125794317454805 ], [ -84.468349406415939, 39.125921048338313 ], [ -84.468410602601125, 39.12597364325071 ], [ -84.468237549195422, 39.126293322033085 ], [ -84.468165393746773, 39.126489516305746 ], [ -84.468040885848325, 39.126503431986343 ], [ -84.468006722828349, 39.126591077152789 ], [ -84.467771073391361, 39.12652361646218 ], [ -84.467289714409475, 39.126530251462839 ], [ -84.467530322927772, 39.126599029576965 ], [ -84.467207918327006, 39.127467458143904 ], [ -84.466652923529196, 39.127423595956202 ], [ -84.466816117233762, 39.126591801217351 ], [ -84.466349423851568, 39.126536704743621 ], [ -84.466384865698785, 39.126406729157395 ], [ -84.466218782605992, 39.126359763511367 ], [ -84.466174822206952, 39.126517945752461 ], [ -84.465649054004032, 39.126451127960905 ], [ -84.465803362461259, 39.126216430576271 ], [ -84.465460848558408, 39.126057065814344 ], [ -84.465178477280645, 39.125889745419435 ], [ -84.464831472497536, 39.125623166384713 ], [ -84.4650445669661, 39.125717984616429 ], [ -84.465135615121724, 39.125279654637325 ], [ -84.46493512809748, 39.125281755147562 ], [ -84.465128415275473, 39.124952669753718 ], [ -84.465228095473179, 39.124706169898261 ], [ -84.467296899411011, 39.124518611091773 ], [ -84.467266957580406, 39.124395202235668 ], [ -84.465414312317989, 39.124546151748007 ], [ -84.465366445422262, 39.124116456130935 ], [ -84.465344985579506, 39.124118126269799 ], [ -84.465429269818429, 39.122711708649675 ], [ -84.465395334100663, 39.122435052211465 ], [ -84.465236829858085, 39.121937009511761 ], [ -84.464613177164452, 39.121955848640027 ], [ -84.464357891242415, 39.12199896706764 ], [ -84.463989328883017, 39.121961069656777 ], [ -84.463999174914548, 39.121935220214809 ], [ -84.464617731085426, 39.121955532723526 ], [ -84.465711960296119, 39.121922476263634 ], [ -84.468107120398201, 39.121620501211474 ], [ -84.469527977782406, 39.121416911351623 ], [ -84.469969020118967, 39.121460480289059 ], [ -84.470140949470448, 39.121509652160029 ], [ -84.470667946638216, 39.121553817079615 ], [ -84.471069401097935, 39.121537120809911 ], [ -84.47158837043095, 39.121435180576604 ], [ -84.471814155195958, 39.121833030609082 ], [ -84.471962469391443, 39.122311649363255 ], [ -84.472149065957908, 39.122260160609443 ], [ -84.472305211014358, 39.122624859250003 ], [ -84.472033093435584, 39.122699946744049 ], [ -84.472063398506961, 39.122872750811155 ], [ -84.472135703178438, 39.122851604573924 ], [ -84.4723192811378, 39.123232176413033 ], [ -84.472135880941124, 39.123312835280885 ] ] ], [ [ [ -84.464736348914244, 39.125538527801268 ], [ -84.464757335382885, 39.125514805188743 ], [ -84.464749902640406, 39.125550587584812 ], [ -84.464736348914244, 39.125538527801268 ] ] ], [ [ [ -84.477733708484621, 39.210128818101232 ], [ -84.47885098170353, 39.210240160342437 ], [ -84.479145060563269, 39.210641534900162 ], [ -84.479273178756671, 39.210891865949812 ], [ -84.479369140958994, 39.211150760949216 ], [ -84.479461217943708, 39.211684211414102 ], [ -84.479319934738925, 39.213423949451318 ], [ -84.477507046083616, 39.213268979506317 ], [ -84.477531459091509, 39.212889809689749 ], [ -84.477457422967873, 39.212364376845983 ], [ -84.477255336278191, 39.21185971735018 ], [ -84.47710843637276, 39.211621071775518 ], [ -84.476918756432624, 39.211379956672275 ], [ -84.477264756158419, 39.211028739918788 ], [ -84.477436660408372, 39.210793509605196 ], [ -84.477577965868676, 39.210546257598082 ], [ -84.477733708484621, 39.210128818101232 ] ] ], [ [ [ -84.501840205596679, 39.120841983461972 ], [ -84.50173314614949, 39.120696713496926 ], [ -84.501639612458177, 39.120690500581091 ], [ -84.501651548501272, 39.120581461800953 ], [ -84.501508633881258, 39.120322003727338 ], [ -84.50140288524544, 39.120058024804052 ], [ -84.501331761209215, 39.119787098687482 ], [ -84.501295982855197, 39.119511973663982 ], [ -84.501342616886816, 39.118697332280853 ], [ -84.501247193208684, 39.118690767458745 ], [ -84.50126666132131, 39.118402340755786 ], [ -84.501390076608217, 39.118411197625036 ], [ -84.501432378487252, 39.118022289654995 ], [ -84.501570561368268, 39.118000390366973 ], [ -84.501646351614667, 39.117861175910448 ], [ -84.501166602768478, 39.117888535770227 ], [ -84.500151508095513, 39.118999370683255 ], [ -84.499653392378718, 39.119371301729281 ], [ -84.499191918155276, 39.119607042367498 ], [ -84.498640605477391, 39.120202444926861 ], [ -84.498411889937401, 39.120393422803716 ], [ -84.497889945617644, 39.120720432387671 ], [ -84.497298006495342, 39.120964620801381 ], [ -84.496657450643042, 39.121117168855505 ], [ -84.495991412557814, 39.121172567028452 ], [ -84.493611387398033, 39.12102900410833 ], [ -84.493080253254774, 39.121603283974473 ], [ -84.49314177760246, 39.120997296906125 ], [ -84.491592509023874, 39.120898307109414 ], [ -84.491508765269586, 39.121115539658298 ], [ -84.491596911032744, 39.121121120096817 ], [ -84.491563255287403, 39.121453755459022 ], [ -84.491334579301764, 39.121439629845106 ], [ -84.491224040418658, 39.121602319505214 ], [ -84.491209498598209, 39.12173824449183 ], [ -84.491532660869396, 39.121759221880573 ], [ -84.491506901793258, 39.122000005392962 ], [ -84.4912604165132, 39.121983750166841 ], [ -84.49121974427058, 39.122369203188171 ], [ -84.490454909732904, 39.122317838271677 ], [ -84.490196977224926, 39.1224726556947 ], [ -84.489931827661337, 39.122455615695863 ], [ -84.489918524956167, 39.122595246846387 ], [ -84.489710733273569, 39.122573260377962 ], [ -84.489714016698997, 39.122541582425171 ], [ -84.48949491529126, 39.122530064841911 ], [ -84.489505774149606, 39.122424516381876 ], [ -84.488933008520334, 39.122387038298456 ], [ -84.488923999830149, 39.122469698110152 ], [ -84.488785617563948, 39.122459458020636 ], [ -84.488794256998915, 39.122378057306619 ], [ -84.488386779659407, 39.122351679976028 ], [ -84.488368768801948, 39.122519537713117 ], [ -84.488141293754907, 39.122539264488658 ], [ -84.488145151169434, 39.122502364651531 ], [ -84.487410011588508, 39.122455733737226 ], [ -84.487392845255897, 39.122619930457731 ], [ -84.486657706101155, 39.122573294753323 ], [ -84.486643185043661, 39.122712180282662 ], [ -84.486380614337079, 39.12260483789845 ], [ -84.485650089833669, 39.122200494657754 ], [ -84.485220185081843, 39.122171603217389 ], [ -84.485279528368139, 39.121969307954338 ], [ -84.484515969206853, 39.121405954031879 ], [ -84.483966826871736, 39.120879077714484 ], [ -84.48353730807041, 39.120986788293926 ], [ -84.482914571083214, 39.120479401447469 ], [ -84.482933302177841, 39.120446572105237 ], [ -84.482914366978093, 39.120431425513466 ], [ -84.483004577454309, 39.120362773070084 ], [ -84.482255238221711, 39.119744927412818 ], [ -84.482415456819879, 39.119645513612653 ], [ -84.482149375043761, 39.119237936054546 ], [ -84.482014034229167, 39.118958271644814 ], [ -84.481779866938865, 39.118354384307573 ], [ -84.481722418506024, 39.118089476644577 ], [ -84.481708281937401, 39.117552910808513 ], [ -84.481828403564734, 39.117024452785664 ], [ -84.481937572997595, 39.116769607017517 ], [ -84.482165523301717, 39.116390000663181 ], [ -84.482259033709568, 39.116351331105328 ], [ -84.482642870355633, 39.116054684775648 ], [ -84.484717133399386, 39.114181633025666 ], [ -84.484935122562575, 39.113958580470303 ], [ -84.485730236636442, 39.113403496318092 ], [ -84.486140967693203, 39.113160871188349 ], [ -84.486741013777262, 39.112522445671473 ], [ -84.487171033603644, 39.112197105980613 ], [ -84.487246296214806, 39.112016694860472 ], [ -84.487457752959898, 39.111668220106957 ], [ -84.488687404429456, 39.11048550236108 ], [ -84.48893969199527, 39.110166889037259 ], [ -84.48923210612962, 39.109864923828972 ], [ -84.489597161936217, 39.109295010298176 ], [ -84.490118403960622, 39.109028847045366 ], [ -84.490390368195534, 39.108774844734732 ], [ -84.490908745095908, 39.108427078036392 ], [ -84.49150358765705, 39.108163885461444 ], [ -84.492246970587743, 39.10795608125737 ], [ -84.493017948145351, 39.106970504219888 ], [ -84.493100757866699, 39.107008981841631 ], [ -84.493127966960174, 39.107086273239609 ], [ -84.49329544329342, 39.107160585161068 ], [ -84.493264172845215, 39.10728956693459 ], [ -84.49332429757456, 39.107630033950869 ], [ -84.493195862426745, 39.107782694882744 ], [ -84.493867571868648, 39.107778252766231 ], [ -84.493975089678841, 39.107680375660877 ], [ -84.494009987641377, 39.107712768911014 ], [ -84.49390764675023, 39.107780918892708 ], [ -84.494157570470563, 39.107797545655124 ], [ -84.494411313944298, 39.107629233742315 ], [ -84.494636134696762, 39.107829381738128 ], [ -84.495103864331298, 39.107512007467825 ], [ -84.494916360657726, 39.107657439967902 ], [ -84.49513123274248, 39.107844687850296 ], [ -84.495327944872969, 39.107707548969884 ], [ -84.495315051187987, 39.107822047125943 ], [ -84.495911910502514, 39.10756413073328 ], [ -84.496233620321689, 39.107469695615173 ], [ -84.496707925859297, 39.107381652270348 ], [ -84.496721906244247, 39.107267505428425 ], [ -84.497146076378442, 39.107263103354278 ], [ -84.497136181676694, 39.107343899237044 ], [ -84.497837708126994, 39.107361226057726 ], [ -84.497841841098165, 39.107329273081028 ], [ -84.49818581249815, 39.107347997039952 ], [ -84.498455467638749, 39.107369197326854 ], [ -84.498450882814367, 39.107405350190845 ], [ -84.498940267598599, 39.107478844089357 ], [ -84.499258931366981, 39.107560239936944 ], [ -84.499609396289088, 39.107683556679369 ], [ -84.500261051584019, 39.107835330223381 ], [ -84.500574132193506, 39.10794923640249 ], [ -84.501050605977099, 39.108188939828814 ], [ -84.501313987560223, 39.108102476329989 ], [ -84.501645356795876, 39.107937536924247 ], [ -84.501906767774003, 39.107759557196985 ], [ -84.501286993158729, 39.108341501965953 ], [ -84.501640589017171, 39.108624018173039 ], [ -84.502027162819118, 39.109069538267192 ], [ -84.502294862412469, 39.109565217962356 ], [ -84.502380734362589, 39.109825981295586 ], [ -84.502452401147096, 39.110360845062488 ], [ -84.502437506253898, 39.110629803609534 ], [ -84.502273210772742, 39.112014678352438 ], [ -84.502223741858757, 39.112284575770744 ], [ -84.502125835215807, 39.112580814136145 ], [ -84.502432116599437, 39.112879302692058 ], [ -84.502765914117177, 39.113359172183351 ], [ -84.502885282156242, 39.113616099488418 ], [ -84.502993357948554, 39.113996232779975 ], [ -84.502719545673173, 39.114416413459487 ], [ -84.502527916323544, 39.114935876047049 ], [ -84.502463317918142, 39.115540620339928 ], [ -84.502514375066681, 39.115946938824607 ], [ -84.501894871674253, 39.117050990066161 ], [ -84.501612311528689, 39.117392256537983 ], [ -84.501624620911869, 39.117523870941781 ], [ -84.501908613190324, 39.117500430509445 ], [ -84.501995807691642, 39.117401491850863 ], [ -84.501990198651797, 39.117342270818249 ], [ -84.502048621249102, 39.117344106972212 ], [ -84.502518712811352, 39.116953660513751 ], [ -84.502850947768479, 39.116745117851508 ], [ -84.503082311478124, 39.117053712402246 ], [ -84.503270853122189, 39.117246595347375 ], [ -84.503194210289109, 39.117243003163686 ], [ -84.50312887439911, 39.117776755501254 ], [ -84.503763708637436, 39.117740457939902 ], [ -84.503463858623718, 39.117899350928134 ], [ -84.502995700785121, 39.117922533961256 ], [ -84.502962262897327, 39.118260372213491 ], [ -84.502769884582406, 39.118443891575787 ], [ -84.502775116926074, 39.118396084543583 ], [ -84.502336129697198, 39.118366928507392 ], [ -84.502255283730818, 39.119105576644436 ], [ -84.501816293445643, 39.119076418621511 ], [ -84.501781855765614, 39.119391028316031 ], [ -84.502176244118445, 39.11941722303191 ], [ -84.502085274818711, 39.119800170019758 ], [ -84.502015871264746, 39.120320060468956 ], [ -84.501981104349241, 39.12031775139247 ], [ -84.501938133574654, 39.120710328328599 ], [ -84.502001740544742, 39.120714553197459 ], [ -84.502009154105167, 39.120853280472517 ], [ -84.501840205596679, 39.120841983461972 ] ], [ [ -84.49298220071131, 39.107652764550025 ], [ -84.492765323199819, 39.107551909649743 ], [ -84.492684568865016, 39.10765731990783 ], [ -84.492901445404243, 39.107758174077581 ], [ -84.49298220071131, 39.107652764550025 ] ], [ [ -84.492995367499432, 39.107251342142298 ], [ -84.492780051315307, 39.107533063714463 ], [ -84.492999575126163, 39.107634909252617 ], [ -84.493211863735596, 39.107351781482855 ], [ -84.492995367499432, 39.107251342142298 ] ] ], [ [ [ -84.49788764099938, 39.143040056812957 ], [ -84.498067240927256, 39.143223094816641 ], [ -84.497899751824136, 39.143440016734438 ], [ -84.497574786546352, 39.143461798172964 ], [ -84.497593576678511, 39.143310315511556 ], [ -84.497381511827015, 39.143296630742817 ], [ -84.497356765283442, 39.143487846802898 ], [ -84.497159216558671, 39.143524337530245 ], [ -84.49719227733523, 39.143284419228415 ], [ -84.497029826002233, 39.143273935559691 ], [ -84.496990990890382, 39.143561163483717 ], [ -84.49655385205925, 39.143693585271755 ], [ -84.496618527896175, 39.143112226036777 ], [ -84.497398567161611, 39.143161261807045 ], [ -84.497413965264656, 39.142990943696084 ], [ -84.497553561539945, 39.142983135980721 ], [ -84.497545176387106, 39.143065885464331 ], [ -84.497882602971004, 39.143087076804228 ], [ -84.49788764099938, 39.143040056812957 ] ] ], [ [ [ -84.503282554914051, 39.113680396141206 ], [ -84.503559653615369, 39.113098344612418 ], [ -84.503732084975482, 39.112864866533258 ], [ -84.503933051700344, 39.112645674655269 ], [ -84.504284859579187, 39.11235193461026 ], [ -84.504334191715472, 39.112286017510669 ], [ -84.504979874258808, 39.111951481350921 ], [ -84.505289712730246, 39.111831935690049 ], [ -84.505946909494511, 39.111666442751009 ], [ -84.506376272274224, 39.111617451668835 ], [ -84.506023004060509, 39.111535033088757 ], [ -84.506000914989642, 39.111446663305721 ], [ -84.506692606399966, 39.111341022489384 ], [ -84.506742962906927, 39.111542553840344 ], [ -84.507088436564828, 39.111493365720541 ], [ -84.507104133008383, 39.111557760654719 ], [ -84.50677965649183, 39.111607509835181 ], [ -84.507342712805055, 39.111639943856986 ], [ -84.507363640276182, 39.111724481872059 ], [ -84.507535660675657, 39.111698634616062 ], [ -84.50764238463627, 39.112061659376906 ], [ -84.507756613263311, 39.112315776623248 ], [ -84.507940169474026, 39.112610033716436 ], [ -84.507901149074499, 39.112606989747057 ], [ -84.507872149817203, 39.112904461181436 ], [ -84.508170666072047, 39.112920985483832 ], [ -84.508173842246649, 39.112894143075458 ], [ -84.508220115663576, 39.112943465110845 ], [ -84.508202748878787, 39.113100924268096 ], [ -84.508152099490175, 39.113077882702406 ], [ -84.508165697863092, 39.112962966686723 ], [ -84.50786829932899, 39.11294395328477 ], [ -84.507866345923304, 39.112963991351556 ], [ -84.507739266978746, 39.112918503440383 ], [ -84.507742536117462, 39.112882606986972 ], [ -84.50757568861647, 39.112872668919024 ], [ -84.507251893290615, 39.112797178280893 ], [ -84.507289872960285, 39.112799345461916 ], [ -84.507300007546732, 39.112702231011667 ], [ -84.507212192617502, 39.112696625793916 ], [ -84.50723742522284, 39.112448106888422 ], [ -84.507148345120953, 39.112443020908742 ], [ -84.507127508332317, 39.112668722608831 ], [ -84.507040129759247, 39.112663370101245 ], [ -84.507060223091656, 39.112437990350195 ], [ -84.506953110610425, 39.112431874892344 ], [ -84.506926904427871, 39.112708527158397 ], [ -84.506839644626055, 39.112699231345808 ], [ -84.506836141915599, 39.11273716478653 ], [ -84.506700848778436, 39.11272322968324 ], [ -84.506707678165995, 39.11265857174876 ], [ -84.506602296516377, 39.112651879967594 ], [ -84.506595490082262, 39.112715960484053 ], [ -84.506627157616691, 39.112413655601046 ], [ -84.506416414609731, 39.112400104768028 ], [ -84.50638975321381, 39.112654604839726 ], [ -84.506301943513265, 39.112648958336386 ], [ -84.506328604752014, 39.112394458254343 ], [ -84.506030052024542, 39.112375259238071 ], [ -84.505997460018278, 39.112686354218482 ], [ -84.505921860271428, 39.112687057782047 ], [ -84.505954223285954, 39.112369783477718 ], [ -84.505655245175447, 39.112351273841725 ], [ -84.505619926596481, 39.112697507619444 ], [ -84.505651194762436, 39.112699443116362 ], [ -84.505351558565025, 39.112733633524755 ], [ -84.50509268250002, 39.112717402978738 ], [ -84.505086122328464, 39.112781327821935 ], [ -84.505003702288832, 39.112798122705584 ], [ -84.505011860966249, 39.112714131297992 ], [ -84.504322058913843, 39.112667582525688 ], [ -84.504301277527475, 39.113022969824641 ], [ -84.503725603586716, 39.113329835008969 ], [ -84.503429997277891, 39.113539430362657 ], [ -84.503282554914051, 39.113680396141206 ] ] ], [ [ [ -84.503445041326046, 39.117396386794894 ], [ -84.50346341160548, 39.117411791184807 ], [ -84.50344319977853, 39.117410525063995 ], [ -84.503445041326046, 39.117396386794894 ] ] ], [ [ [ -84.50386914906926, 39.117690020003813 ], [ -84.503789112159268, 39.117728306058822 ], [ -84.503765177750168, 39.11762907837312 ], [ -84.503783591964691, 39.117641771604987 ], [ -84.50386914906926, 39.117690020003813 ] ] ], [ [ [ -84.512983557468559, 39.18899505781404 ], [ -84.512398330318604, 39.189119178644511 ], [ -84.51204358728495, 39.189153312557522 ], [ -84.511686226592644, 39.18915933794537 ], [ -84.511329916606471, 39.189137192956622 ], [ -84.510978314901763, 39.189087104912836 ], [ -84.510635030705899, 39.18900958797439 ], [ -84.508526124983092, 39.188292474154274 ], [ -84.508088543952525, 39.188116066737223 ], [ -84.507776020955902, 39.187963947429715 ], [ -84.507245085957109, 39.187641876494958 ], [ -84.506901408479763, 39.187382139145271 ], [ -84.506652222124885, 39.187157945714588 ], [ -84.506641221874489, 39.187146895292528 ], [ -84.506873216781102, 39.187356772165145 ], [ -84.507128920793278, 39.187545883728767 ], [ -84.507407614360815, 39.18771417793873 ], [ -84.508022623436048, 39.187981808951683 ], [ -84.508693711078266, 39.188148988981844 ], [ -84.509041977146751, 39.18819266082096 ], [ -84.509503338957003, 39.188205621618245 ], [ -84.509938101091151, 39.188486339619921 ], [ -84.510228302698806, 39.18862708086678 ], [ -84.510854264521384, 39.188839881253863 ], [ -84.511521190691809, 39.188954820288487 ], [ -84.512983557468559, 39.18899505781404 ] ], [ [ -84.510076498269143, 39.188811148269821 ], [ -84.510077404389307, 39.188809536394523 ], [ -84.510038698218906, 39.188796053911815 ], [ -84.510076498269143, 39.188811148269821 ] ] ], [ [ [ -84.517867194116846, 39.180137391996674 ], [ -84.519296254196675, 39.180583120211544 ], [ -84.519170632537183, 39.181739409457585 ], [ -84.518784897840334, 39.181658814601199 ], [ -84.518459962248542, 39.181545467235516 ], [ -84.518191049917846, 39.181390527728077 ], [ -84.517887339382341, 39.181162252853383 ], [ -84.517548346408475, 39.181367130516911 ], [ -84.517110196550036, 39.181558971330915 ], [ -84.517180016558513, 39.18162673859365 ], [ -84.517785146719419, 39.181833068308613 ], [ -84.515937174465392, 39.182058925119762 ], [ -84.515807102448278, 39.181826151925435 ], [ -84.515711087425245, 39.181829581150922 ], [ -84.515446682711428, 39.181456840310879 ], [ -84.515243338586671, 39.181243269940403 ], [ -84.515014413069039, 39.181046003934668 ], [ -84.514612160620374, 39.180779575710098 ], [ -84.515390095228483, 39.180847873833059 ], [ -84.51545996649449, 39.180194382619739 ], [ -84.514709925671596, 39.180147410043958 ], [ -84.514993219686716, 39.179488711948906 ], [ -84.514537284098452, 39.17937924206111 ], [ -84.514475115530388, 39.179947742272688 ], [ -84.513390440819023, 39.179852479138106 ], [ -84.513340058475777, 39.18031633067276 ], [ -84.51290062672868, 39.180253695816916 ], [ -84.512332372332537, 39.180218712333776 ], [ -84.511980053025894, 39.180229722750617 ], [ -84.511288417537514, 39.180333313317099 ], [ -84.510637004284376, 39.180541772312949 ], [ -84.510334586282028, 39.180682886336108 ], [ -84.509964470702997, 39.180908843443397 ], [ -84.50945623265693, 39.180964461682649 ], [ -84.509115695018494, 39.181038151789934 ], [ -84.508786340182155, 39.181137992458318 ], [ -84.508471474057771, 39.181262981549523 ], [ -84.508174257172769, 39.181411864495161 ], [ -84.507897672955039, 39.181583146885437 ], [ -84.507644497790693, 39.181775109465015 ], [ -84.507417273157259, 39.181985825385262 ], [ -84.507218280111516, 39.182213179540653 ], [ -84.506998975986306, 39.182536810130848 ], [ -84.5075161949229, 39.181568928226632 ], [ -84.507894958450606, 39.181117243833349 ], [ -84.508379865187138, 39.180731902674374 ], [ -84.508656415625026, 39.180568873981713 ], [ -84.509218061448635, 39.180327441975535 ], [ -84.508868636386993, 39.180125210111648 ], [ -84.508615775465287, 39.179942839759789 ], [ -84.508184476373955, 39.179524999821375 ], [ -84.507865699591918, 39.179049904110961 ], [ -84.507752484077471, 39.178796476516467 ], [ -84.507668815585461, 39.178520228720693 ], [ -84.508057748737968, 39.178688790523246 ], [ -84.508330852168669, 39.178778041532702 ], [ -84.50889625893646, 39.17890121059898 ], [ -84.509460333143878, 39.178949873757063 ], [ -84.509736232205483, 39.178948039077696 ], [ -84.510241472672632, 39.178901151158982 ], [ -84.510729031124782, 39.178799679501878 ], [ -84.510982549990004, 39.178722846581671 ], [ -84.511732479484635, 39.178456352304664 ], [ -84.51202677348806, 39.178314339014776 ], [ -84.512554789477349, 39.17796657132147 ], [ -84.512783423882524, 39.177764167967048 ], [ -84.513049983178618, 39.177458550459718 ], [ -84.515023605926075, 39.177286414747122 ], [ -84.515047666466927, 39.177639961325198 ], [ -84.51520105759522, 39.178164761109961 ], [ -84.515326540255543, 39.178415865064153 ], [ -84.515609261779147, 39.17881037677472 ], [ -84.515560430500969, 39.179259678160051 ], [ -84.51613152211101, 39.179492081308375 ], [ -84.516632008885225, 39.179957921122252 ], [ -84.516863853833584, 39.179705501203038 ], [ -84.517051646603605, 39.179779975052128 ], [ -84.516978057087272, 39.179860055105344 ], [ -84.517459718922794, 39.180010294454746 ], [ -84.517543521232056, 39.179925915831554 ], [ -84.518123469437185, 39.18001859317571 ], [ -84.517867194116846, 39.180137391996674 ] ] ], [ [ [ -84.508014199804194, 39.11283207204454 ], [ -84.508015569671386, 39.112815763124125 ], [ -84.508023602590541, 39.112720195334205 ], [ -84.508122908992732, 39.112839854098759 ], [ -84.508014199804194, 39.11283207204454 ] ] ], [ [ [ -84.508275118203784, 39.113086777510773 ], [ -84.508379091771658, 39.113094035236877 ], [ -84.508379092797298, 39.113094036131045 ], [ -84.508275118203784, 39.113086777510773 ] ] ], [ [ [ -84.508873144531591, 39.113455991483967 ], [ -84.508805739140797, 39.113451608608045 ], [ -84.508531709425014, 39.113272508768404 ], [ -84.508536937429469, 39.113227782522266 ], [ -84.508598981785568, 39.113272221564415 ], [ -84.508595486723323, 39.113302123193833 ], [ -84.508645618112709, 39.113305624603491 ], [ -84.50895944751656, 39.113505371959057 ], [ -84.508951997654819, 39.113565007698789 ], [ -84.508868166979141, 39.113494731148798 ], [ -84.508873144531591, 39.113455991483967 ] ] ], [ [ [ -84.513531747149571, 39.175789954885438 ], [ -84.513795590755976, 39.175499498087255 ], [ -84.513821036474042, 39.175485437730082 ], [ -84.513953188139169, 39.17555463857699 ], [ -84.513547699694811, 39.17598252832142 ], [ -84.513531747149571, 39.175789954885438 ] ] ], [ [ [ -84.515281523400759, 39.175980089441012 ], [ -84.514972891850135, 39.176502677084635 ], [ -84.514876719601176, 39.176468129227011 ], [ -84.515172371616956, 39.175969593276214 ], [ -84.515142266379002, 39.175958773022217 ], [ -84.515281523400759, 39.175980089441012 ] ] ], [ [ [ -84.520360492650582, 39.12148251654633 ], [ -84.519907470433367, 39.12124942206205 ], [ -84.520089579729671, 39.120855739656015 ], [ -84.520185795591601, 39.120431875628604 ], [ -84.520404562200028, 39.120058580445566 ], [ -84.520200771943209, 39.119988472915587 ], [ -84.520189780616093, 39.119892650558803 ], [ -84.520266420596698, 39.119749785394553 ], [ -84.520629876617178, 39.119887689322972 ], [ -84.520956111527369, 39.119977826139554 ], [ -84.521440351192567, 39.120059384486474 ], [ -84.521412750945004, 39.12010943966051 ], [ -84.521662986069316, 39.120198120869048 ], [ -84.521667788181688, 39.120151629519661 ], [ -84.521707208602393, 39.120165161059617 ], [ -84.521751167299001, 39.120085573877823 ], [ -84.521864037039947, 39.120089629856935 ], [ -84.521803972342369, 39.120198376343055 ], [ -84.522126516559183, 39.120309095812338 ], [ -84.522248096611179, 39.120082930681768 ], [ -84.522668373266086, 39.120039356341358 ], [ -84.523003876188397, 39.119972999103652 ], [ -84.523454514582227, 39.119834830622018 ], [ -84.523860262694029, 39.119975635230212 ], [ -84.523843507645992, 39.120151350296901 ], [ -84.523803797787508, 39.120137260574268 ], [ -84.52366540717199, 39.120315926817256 ], [ -84.523729560151835, 39.120338689393314 ], [ -84.523647618283988, 39.120444479372722 ], [ -84.523824039372215, 39.120507075947259 ], [ -84.523847378812576, 39.120476943551573 ], [ -84.523865668476802, 39.120642454719281 ], [ -84.523849533221536, 39.120636750486312 ], [ -84.523720280451144, 39.120863759710538 ], [ -84.523937214143132, 39.120939067475533 ], [ -84.523949796917591, 39.120975903611367 ], [ -84.523078716281162, 39.120671186568046 ], [ -84.522949284311409, 39.120897361858624 ], [ -84.522971481173826, 39.12090517014736 ], [ -84.522414486743784, 39.120891342004974 ], [ -84.522451346647543, 39.120841920065885 ], [ -84.521853976333503, 39.120638261233353 ], [ -84.521725554594269, 39.120863981368664 ], [ -84.521926322236283, 39.120932782770012 ], [ -84.521659817374115, 39.120978682159752 ], [ -84.521253929579714, 39.120856625692717 ], [ -84.521208909433298, 39.1210649415654 ], [ -84.520861323113834, 39.121019360049964 ], [ -84.520812869946823, 39.121243556730832 ], [ -84.520360492650582, 39.12148251654633 ] ] ], [ [ [ -84.537767055266698, 39.136310748162202 ], [ -84.538212822826466, 39.136490107607258 ], [ -84.538495832486916, 39.136642601735097 ], [ -84.538998035443271, 39.137008225092437 ], [ -84.539399585010344, 39.137442797222207 ], [ -84.539685211822786, 39.137929795177115 ], [ -84.539844053315747, 39.138450702361069 ], [ -84.539870067056754, 39.138985712466443 ], [ -84.539643200468291, 39.140181862929126 ], [ -84.53951178013466, 39.140594752978686 ], [ -84.53958458060184, 39.140601139389666 ], [ -84.539542302228043, 39.140876933386167 ], [ -84.539380414988116, 39.140862780013094 ], [ -84.53914374540453, 39.14121410730413 ], [ -84.539153019380322, 39.141247113571417 ], [ -84.53911714409341, 39.141243952712507 ], [ -84.538725123684145, 39.141635878404173 ], [ -84.538471134233745, 39.141825516248993 ], [ -84.537896886062171, 39.14214112999985 ], [ -84.537253651246658, 39.142361767446054 ], [ -84.536566994155606, 39.142478659522432 ], [ -84.535864205512993, 39.142487160410703 ], [ -84.534783017974291, 39.142403198857792 ], [ -84.534129991718871, 39.142258515971797 ], [ -84.533819919715285, 39.142150152708091 ], [ -84.533247037786225, 39.141866408072943 ], [ -84.532754619998514, 39.141502415199497 ], [ -84.532360925465269, 39.141071672144811 ], [ -84.532080551518845, 39.140590152017332 ], [ -84.531923892577964, 39.140075710534909 ], [ -84.531896755001071, 39.139547423806732 ], [ -84.532000142166098, 39.139024880913027 ], [ -84.53223021768936, 39.138527457524376 ], [ -84.532578448085857, 39.138073597497062 ], [ -84.533618027070005, 39.136998691153011 ], [ -84.533871644604332, 39.136801957497077 ], [ -84.534149569347107, 39.136626265610801 ], [ -84.534486983754562, 39.136458049356087 ], [ -84.534481937189668, 39.136442780979742 ], [ -84.535099463392228, 39.136242356910309 ], [ -84.535443917885701, 39.13616650819845 ], [ -84.535903747226484, 39.136098051282403 ], [ -84.53645976694952, 39.136059313566001 ], [ -84.53646652259954, 39.136080401552967 ], [ -84.536932703433536, 39.136113565249872 ], [ -84.537154846790415, 39.136151282930861 ], [ -84.537149061477365, 39.136134009161694 ], [ -84.537650687582897, 39.136016901553667 ], [ -84.53767557290314, 39.136082743218289 ], [ -84.537283356381025, 39.13617427898987 ], [ -84.537706884773115, 39.136290383624925 ], [ -84.537754435421462, 39.13627929500889 ], [ -84.537767055266698, 39.136310748162202 ] ] ], [ [ [ -84.557903863165635, 39.154132896533532 ], [ -84.557739274098012, 39.153655843205335 ], [ -84.558279516111241, 39.153691950637068 ], [ -84.558269486495405, 39.154132279339827 ], [ -84.557903863165635, 39.154132896533532 ] ] ], [ [ [ -84.557900281982583, 39.15223611309743 ], [ -84.557803801719444, 39.152263866876993 ], [ -84.558119458479098, 39.151636600034593 ], [ -84.558161039070299, 39.151649382927623 ], [ -84.558096413484378, 39.151775964168039 ], [ -84.558651550271279, 39.151786770148767 ], [ -84.558935640632725, 39.15184386322013 ], [ -84.558917096599473, 39.151881177339284 ], [ -84.558798873725365, 39.151887039248024 ], [ -84.558687104899676, 39.152118416736421 ], [ -84.558803547904787, 39.152121311285697 ], [ -84.559656910887938, 39.152314765028812 ], [ -84.560011593573407, 39.152494195203268 ], [ -84.559981773576226, 39.152578124167469 ], [ -84.559615963382711, 39.152418404244493 ], [ -84.5587764019904, 39.152229193192241 ], [ -84.55874120665051, 39.152227952046118 ], [ -84.558704872852701, 39.152296303714003 ], [ -84.558099227728192, 39.152297025750315 ], [ -84.557844928770209, 39.152370349475078 ], [ -84.557900281982583, 39.15223611309743 ] ] ], [ [ [ -84.558829806139386, 39.155207288619067 ], [ -84.55888762371498, 39.154850375978 ], [ -84.559008417776383, 39.154610289337377 ], [ -84.559222162302845, 39.154356489617371 ], [ -84.559618144956303, 39.154095429309315 ], [ -84.559633044502945, 39.154064931389655 ], [ -84.558862766547506, 39.15329849463253 ], [ -84.55885422452161, 39.15322712279432 ], [ -84.558907063445417, 39.153137978320082 ], [ -84.558986624638607, 39.153096202024884 ], [ -84.559081978161061, 39.153087795198452 ], [ -84.55916945942235, 39.15311264294688 ], [ -84.559230911538407, 39.153167117793714 ], [ -84.559251272015544, 39.153237867503002 ], [ -84.559231358000261, 39.153332724762379 ], [ -84.559257685215897, 39.153400613135688 ], [ -84.559771461405177, 39.153897836213986 ], [ -84.559837162524616, 39.153905113127927 ], [ -84.559845165560063, 39.154217325170279 ], [ -84.559760521129434, 39.154222714547721 ], [ -84.559528351655132, 39.154367604476036 ], [ -84.559337020715745, 39.154516878556095 ], [ -84.559228721487017, 39.15463615478896 ], [ -84.559141396885209, 39.154765438017904 ], [ -84.559066918869661, 39.154954864294311 ], [ -84.559017660826953, 39.155333790816883 ], [ -84.558829806139386, 39.155207288619067 ] ] ], [ [ [ -84.559750598429062, 39.155827125291715 ], [ -84.55976761666868, 39.155685836272482 ], [ -84.559596743251774, 39.155624729011414 ], [ -84.559659645969788, 39.15516095770829 ], [ -84.559740229898196, 39.155005490097267 ], [ -84.55999501965232, 39.154831068185672 ], [ -84.560055484749384, 39.154974411199134 ], [ -84.559876606797616, 39.155089705398069 ], [ -84.559832810649681, 39.155148866022031 ], [ -84.559791927291059, 39.155483999225446 ], [ -84.56040908737036, 39.155520133811571 ], [ -84.560548654630438, 39.155677670063454 ], [ -84.560389645473023, 39.155667358952471 ], [ -84.560363273880256, 39.155872610551988 ], [ -84.559750598429062, 39.155827125291715 ] ] ], [ [ [ -84.591042530981497, 39.120785080184731 ], [ -84.589492569069108, 39.12137300793087 ], [ -84.588983894547923, 39.1211718931131 ], [ -84.588443920493987, 39.121028608335642 ], [ -84.587883418141544, 39.12094601175918 ], [ -84.58715030212511, 39.120931609931667 ], [ -84.589409308829048, 39.122146029773198 ], [ -84.589658637902232, 39.122324139625206 ], [ -84.590086009943732, 39.122731948242574 ], [ -84.590405613958765, 39.123195793615572 ], [ -84.590605699318687, 39.123698625124334 ], [ -84.590658443048397, 39.12395892207001 ], [ -84.59066690611786, 39.124485311980898 ], [ -84.590550823274796, 39.125402442819436 ], [ -84.590355123086269, 39.125927033601783 ], [ -84.59016798666309, 39.1262283677952 ], [ -84.591286199845626, 39.1262993188083 ], [ -84.591232157264628, 39.126927906606277 ], [ -84.5906376154106, 39.126896888084552 ], [ -84.590259270104482, 39.127477253295297 ], [ -84.589653754053771, 39.12729387063559 ], [ -84.589714540770359, 39.126725663859403 ], [ -84.589328888491352, 39.127019759723282 ], [ -84.58904731884526, 39.127183146169116 ], [ -84.588746276616504, 39.127323903590707 ], [ -84.588097885767354, 39.127532183183085 ], [ -84.587409386002349, 39.12763635248308 ], [ -84.586803191431812, 39.127636536417974 ], [ -84.586785960600324, 39.127814569668757 ], [ -84.586721277497105, 39.12781177316576 ], [ -84.586615496626862, 39.127763286531355 ], [ -84.586436421517107, 39.127799146813089 ], [ -84.585916758996532, 39.127782541517071 ], [ -84.585671973958526, 39.127814206667693 ], [ -84.585438041369073, 39.127886999533025 ], [ -84.585224658213576, 39.127532315553793 ], [ -84.585139691048653, 39.127647711763785 ], [ -84.584861348648104, 39.12763479678987 ], [ -84.584625630964766, 39.12750207849728 ], [ -84.584365803216826, 39.12775747932065 ], [ -84.584079993613031, 39.127628454831942 ], [ -84.583723614238679, 39.127557837073567 ], [ -84.583703945437634, 39.127530352511116 ], [ -84.583722304892902, 39.127382242039843 ], [ -84.583543599591835, 39.127367273492951 ], [ -84.583526886309301, 39.127519004918597 ], [ -84.583494037841106, 39.127546095636241 ], [ -84.582943002846847, 39.127565052878971 ], [ -84.582923475446137, 39.127315329046105 ], [ -84.582507788027527, 39.127280507258433 ], [ -84.582516707307477, 39.127310190865693 ], [ -84.58227918046056, 39.127321480899255 ], [ -84.58194478642352, 39.127283651863664 ], [ -84.581956184348357, 39.127243045236604 ], [ -84.58176301238295, 39.127231112339729 ], [ -84.581736250563665, 39.127263865663657 ], [ -84.581704894083444, 39.127571812662886 ], [ -84.581599472393691, 39.127565300098624 ], [ -84.581630262691419, 39.127262909227859 ], [ -84.581576324921443, 39.127219584374863 ], [ -84.581268517238456, 39.127200569996923 ], [ -84.581187363961007, 39.127531143219088 ], [ -84.581015180547311, 39.127502389069278 ], [ -84.58112801323314, 39.127035441003542 ], [ -84.579396194515795, 39.126899822956425 ], [ -84.580006232678031, 39.126734644734995 ], [ -84.580425927493749, 39.126584998350637 ], [ -84.580214919110858, 39.126427596354461 ], [ -84.579737086333282, 39.126606621035613 ], [ -84.579161759860597, 39.126773512314969 ], [ -84.579143429405761, 39.126441547212643 ], [ -84.579276161050856, 39.126416864518809 ], [ -84.579898463701454, 39.126121554703772 ], [ -84.579815945181409, 39.126029535662575 ], [ -84.579831986449946, 39.126059811328432 ], [ -84.579707389567616, 39.12611255317492 ], [ -84.579522370998845, 39.125763343154681 ], [ -84.579604116530177, 39.12573706922641 ], [ -84.579367649206517, 39.125242311814276 ], [ -84.579296004271484, 39.124977714707818 ], [ -84.580611060707398, 39.12445052247967 ], [ -84.582384076156146, 39.123365162933851 ], [ -84.58328463522831, 39.122137911449123 ], [ -84.583279170377452, 39.122094545529791 ], [ -84.583160872992792, 39.121970689567462 ], [ -84.583031988644876, 39.121892689598646 ], [ -84.582895567809132, 39.121857245611871 ], [ -84.582943595162192, 39.121685864545071 ], [ -84.583219229470842, 39.12179661130471 ], [ -84.583445597521902, 39.12185542353032 ], [ -84.583474515688991, 39.121824178074476 ], [ -84.583679540750325, 39.121406720793225 ], [ -84.583812884798604, 39.121058216066501 ], [ -84.582992022755008, 39.121002421655675 ], [ -84.582976738371613, 39.120832097865446 ], [ -84.582826353255655, 39.120303198420167 ], [ -84.582831936820739, 39.120249529444017 ], [ -84.583381466073519, 39.120114886623234 ], [ -84.583733238688438, 39.120069286239762 ], [ -84.58435405582361, 39.12004890651081 ], [ -84.584712748293498, 39.120059488763403 ], [ -84.585068199435227, 39.120098432820065 ], [ -84.585416723300369, 39.12016533484023 ], [ -84.585754705750134, 39.120259501064496 ], [ -84.586078641921446, 39.120379955006335 ], [ -84.586978613594596, 39.120840471421289 ], [ -84.587582280704439, 39.120180529896352 ], [ -84.591085390885453, 39.120437404933639 ], [ -84.591042530981497, 39.120785080184731 ] ] ], [ [ [ -84.582171090399072, 39.148813186078961 ], [ -84.581911308098739, 39.148750327795952 ], [ -84.58204335312584, 39.148387055218599 ], [ -84.582090431810443, 39.148398446823151 ], [ -84.581813469985917, 39.148094917870445 ], [ -84.580979026766869, 39.147836333815867 ], [ -84.581180361737836, 39.1474529976376 ], [ -84.580004197681006, 39.147036399275912 ], [ -84.580126527694219, 39.146828720290898 ], [ -84.580571676120954, 39.146353409560454 ], [ -84.580099819210147, 39.146317845715714 ], [ -84.580119704781367, 39.146123173906119 ], [ -84.58041297000095, 39.145917123903459 ], [ -84.58136931054392, 39.145719918411537 ], [ -84.581389287063232, 39.145535735537933 ], [ -84.581284425734481, 39.145216516820554 ], [ -84.581327410199108, 39.144961753141573 ], [ -84.581415665369917, 39.144967519473376 ], [ -84.581445116631784, 39.144693913715244 ], [ -84.581580705709726, 39.144702763996278 ], [ -84.581843491704063, 39.144234673165862 ], [ -84.581902062221658, 39.14369050724909 ], [ -84.582294919177173, 39.143716149959175 ], [ -84.582342902016251, 39.143257140515622 ], [ -84.583571691238319, 39.144001710539833 ], [ -84.583709666883365, 39.143876600734821 ], [ -84.582870080393917, 39.143367900398744 ], [ -84.582928979033312, 39.142820601380187 ], [ -84.583386127538631, 39.14309768138277 ], [ -84.583954584994004, 39.142927408885043 ], [ -84.584096169519668, 39.142792965991596 ], [ -84.583438364682678, 39.142382457602899 ], [ -84.583458175467868, 39.142233635865857 ], [ -84.583718788152851, 39.142387307720206 ], [ -84.584929128106992, 39.142459871782144 ], [ -84.584995232602537, 39.141862716806081 ], [ -84.585211495864314, 39.141898578605186 ], [ -84.585108037432093, 39.142825994691385 ], [ -84.585683756823727, 39.142862130251387 ], [ -84.585792766306184, 39.141968298118549 ], [ -84.58601164331327, 39.141931207090188 ], [ -84.585896145841232, 39.142877487481272 ], [ -84.5861250372146, 39.142894037505293 ], [ -84.586253150193116, 39.141890494398694 ], [ -84.586518155652314, 39.141847050716663 ], [ -84.586384932916673, 39.142912828744585 ], [ -84.586684018804107, 39.142934452818515 ], [ -84.586736787858456, 39.142520120197666 ], [ -84.589263194198992, 39.142442761473426 ], [ -84.589429860747643, 39.142997237487222 ], [ -84.589891230359711, 39.142983160405194 ], [ -84.58994977466979, 39.143171539730183 ], [ -84.590169006511886, 39.143188073832313 ], [ -84.590088502216432, 39.143072235010621 ], [ -84.590068709414069, 39.142933817624638 ], [ -84.591754947553511, 39.14304631202188 ], [ -84.591861244447557, 39.142981670618319 ], [ -84.592100174940541, 39.143354516804749 ], [ -84.592058563463709, 39.143362463765456 ], [ -84.592404546333469, 39.143442354825176 ], [ -84.592300453589218, 39.143462388843233 ], [ -84.592321768948423, 39.143513097698303 ], [ -84.591701991762861, 39.143481926805357 ], [ -84.591255854788898, 39.143509124183105 ], [ -84.590105974013838, 39.143432409037587 ], [ -84.590069421183642, 39.143764594604185 ], [ -84.589487976700383, 39.143724604954876 ], [ -84.589467424913749, 39.143927074121237 ], [ -84.589030855774524, 39.144023923856786 ], [ -84.589015753996335, 39.144111877451905 ], [ -84.588912991651895, 39.144163368420166 ], [ -84.588751250803583, 39.14411472195259 ], [ -84.588351268021427, 39.144083433090017 ], [ -84.588163438256004, 39.144022489786039 ], [ -84.588153408297529, 39.144082944854006 ], [ -84.588160123339321, 39.144020548272792 ], [ -84.587994893729388, 39.143903335028853 ], [ -84.58782377903286, 39.14396278415537 ], [ -84.587724708763417, 39.144058137049981 ], [ -84.587604312186926, 39.144067625139463 ], [ -84.587521495434117, 39.144010299424508 ], [ -84.587516318628161, 39.143928662575696 ], [ -84.586588406758025, 39.143679697272965 ], [ -84.586535244675972, 39.144084218074219 ], [ -84.58628684142505, 39.144115295435888 ], [ -84.585810242846932, 39.144225132143511 ], [ -84.585072207100694, 39.144176132918631 ], [ -84.585045460815707, 39.144427708477892 ], [ -84.584502134371007, 39.144388541838161 ], [ -84.584451231051474, 39.144479746190328 ], [ -84.584480629365046, 39.1445235319663 ], [ -84.584981502947372, 39.144561393097469 ], [ -84.584759854307194, 39.144693508727968 ], [ -84.58434277908961, 39.144660201476725 ], [ -84.584282902267134, 39.14468213633954 ], [ -84.584185658606444, 39.144791791308833 ], [ -84.584441933074814, 39.144929045820426 ], [ -84.584337396623056, 39.145021881967509 ], [ -84.584096424524461, 39.144892820946922 ], [ -84.58383308642361, 39.145198325063333 ], [ -84.584052205940111, 39.145315681752685 ], [ -84.583973352125994, 39.145422305679844 ], [ -84.583772706311379, 39.145314845550239 ], [ -84.583714064589756, 39.145331775511146 ], [ -84.583633972505396, 39.145321470178317 ], [ -84.583455328763776, 39.145523724446022 ], [ -84.583076511518101, 39.145320764882555 ], [ -84.582783992911743, 39.145511719550761 ], [ -84.582623041027531, 39.145363560974765 ], [ -84.582520318388404, 39.145429536003512 ], [ -84.582319551184085, 39.145257917209157 ], [ -84.582150399609645, 39.14537372322782 ], [ -84.582358702401848, 39.14557367990399 ], [ -84.582296971964638, 39.145615912165013 ], [ -84.58239092205929, 39.145803868049768 ], [ -84.582885748689449, 39.145973988730496 ], [ -84.582976988696387, 39.145979726406267 ], [ -84.58296524988711, 39.146097914381095 ], [ -84.583522166547468, 39.146131192878002 ], [ -84.583490651743901, 39.146560203087169 ], [ -84.582344522680756, 39.146481005659865 ], [ -84.582252021274186, 39.146885372423313 ], [ -84.582618061399998, 39.147098643322728 ], [ -84.582864837868001, 39.147130616084851 ], [ -84.582783972034804, 39.147457432402142 ], [ -84.58275212402836, 39.147479087090169 ], [ -84.582982133813985, 39.147514702777571 ], [ -84.582954581707241, 39.147481776300609 ], [ -84.583031677704881, 39.147156475554901 ], [ -84.583289256712533, 39.14719735387029 ], [ -84.58320749723471, 39.147547291097752 ], [ -84.583403357576202, 39.147575612550177 ], [ -84.583389038573173, 39.147718943213171 ], [ -84.583212835776507, 39.147692690076951 ], [ -84.583133168334427, 39.148018287619841 ], [ -84.583107861481992, 39.148013655009841 ], [ -84.582994440907953, 39.148370696110653 ], [ -84.583318269899607, 39.148427316359879 ], [ -84.583296908100763, 39.148651198948556 ], [ -84.583239036729736, 39.148640768985132 ], [ -84.583182074087816, 39.149060810373065 ], [ -84.582944868010756, 39.149046076174365 ], [ -84.582958371215597, 39.148985970039305 ], [ -84.582715774577636, 39.148857418035853 ], [ -84.582663038715538, 39.14902857040223 ], [ -84.582101927583778, 39.148993715601485 ], [ -84.582171090399072, 39.148813186078961 ] ] ], [ [ [ -84.580004881526364, 39.11745816823796 ], [ -84.579668879108539, 39.117343677461413 ], [ -84.579620963294488, 39.117322499324629 ], [ -84.580020682342294, 39.117291731927637 ], [ -84.580004881526364, 39.11745816823796 ] ] ], [ [ [ -84.585335756234286, 39.116906092116267 ], [ -84.585258022711557, 39.117397970332831 ], [ -84.585105809880574, 39.117385009150631 ], [ -84.585108405334893, 39.117364874550397 ], [ -84.584727133573779, 39.117335053821805 ], [ -84.584710168095356, 39.117230164857688 ], [ -84.584503281320835, 39.117350678459736 ], [ -84.58449987920352, 39.1173901226339 ], [ -84.584561968916105, 39.117476636105145 ], [ -84.584283440005706, 39.117456390941136 ], [ -84.583912682728482, 39.117602743784737 ], [ -84.583583598537558, 39.117697445609082 ], [ -84.583068051719621, 39.117787574942405 ], [ -84.583057679371862, 39.117897204119089 ], [ -84.582790168097148, 39.117880431042977 ], [ -84.582796675555869, 39.117812634286942 ], [ -84.582619672657131, 39.117820242881614 ], [ -84.582615416317111, 39.117864517044339 ], [ -84.581902283717753, 39.117813250147016 ], [ -84.581904490455884, 39.117789701247169 ], [ -84.581378675995126, 39.11772502010669 ], [ -84.580997168494747, 39.117712545771496 ], [ -84.581003932998769, 39.1176451759382 ], [ -84.580837395849557, 39.117622469029534 ], [ -84.580833003952023, 39.117668735488081 ], [ -84.580411913402358, 39.117637862057769 ], [ -84.580418411910841, 39.117569406606322 ], [ -84.580330685091781, 39.117562974674819 ], [ -84.580360479349864, 39.117249124258016 ], [ -84.580319589068679, 39.117246126249334 ], [ -84.580760066644615, 39.117137261737376 ], [ -84.58087501668939, 39.117145519615541 ], [ -84.580878935898312, 39.117102059191616 ], [ -84.581058785012942, 39.117034057948636 ], [ -84.581047762063122, 39.117153783616104 ], [ -84.581503923074891, 39.117187378503331 ], [ -84.581533547586076, 39.116865590721765 ], [ -84.581814263394932, 39.116886263422685 ], [ -84.581835882674014, 39.116651418535184 ], [ -84.582210477193115, 39.116501906922466 ], [ -84.582395503865413, 39.116515573435954 ], [ -84.58240182645477, 39.116447104771957 ], [ -84.58274271242189, 39.116472278700819 ], [ -84.582771223308541, 39.116186062466461 ], [ -84.582871515894155, 39.116114034922958 ], [ -84.582860549490661, 39.116224934383297 ], [ -84.583285205500047, 39.116244200419985 ], [ -84.583318823176228, 39.115887204886505 ], [ -84.583452853839844, 39.11597102474478 ], [ -84.583429072265645, 39.116220761290457 ], [ -84.583832625305405, 39.116240920094008 ], [ -84.583817944047198, 39.116406091545606 ], [ -84.58458185812249, 39.116439642507409 ], [ -84.584748418707136, 39.116474176329056 ], [ -84.584722214923985, 39.116873456627516 ], [ -84.585335756234286, 39.116906092116267 ] ] ], [ [ [ -84.583291206933055, 39.149126482518227 ], [ -84.583121759813352, 39.149059846191093 ], [ -84.583285668226736, 39.149070025018304 ], [ -84.583291206933055, 39.149126482518227 ] ] ], [ [ [ -84.582634859112915, 39.122478153492843 ], [ -84.582608028377706, 39.122475052766269 ], [ -84.582639992138724, 39.122419773513812 ], [ -84.582634859112915, 39.122478153492843 ] ] ], [ [ [ -84.585963723483758, 39.116805101865509 ], [ -84.585439962246113, 39.116774650301984 ], [ -84.585452700064309, 39.11663221990031 ], [ -84.585987845914275, 39.116663319763774 ], [ -84.585963723483758, 39.116805101865509 ] ] ], [ [ [ -84.591201890655327, 39.150395290386498 ], [ -84.591259476502856, 39.149726603479003 ], [ -84.59140276702125, 39.149733576343095 ], [ -84.591349348666427, 39.150404330859828 ], [ -84.591201890655327, 39.150395290386498 ] ] ], [ [ [ -84.686174187287875, 39.114938502507499 ], [ -84.685999722817897, 39.11444151220438 ], [ -84.686058136555232, 39.11440843452511 ], [ -84.686018759583334, 39.114299078753753 ], [ -84.686271018287698, 39.114193298432163 ], [ -84.686473214788791, 39.114408053426722 ], [ -84.686521985252838, 39.114380692888055 ], [ -84.68620877811118, 39.114827020635005 ], [ -84.686174187287875, 39.114938502507499 ] ] ], [ [ [ -84.689955208040544, 39.120678316567464 ], [ -84.688957130469561, 39.121249397437126 ], [ -84.688705888448126, 39.121102938373582 ], [ -84.688010159949272, 39.120814800595092 ], [ -84.68805423904098, 39.120749968356222 ], [ -84.687931448987285, 39.120744750678185 ], [ -84.68811791054496, 39.12048147377341 ], [ -84.688179580727237, 39.12050814527111 ], [ -84.688238115242669, 39.120315146569048 ], [ -84.688201911006999, 39.120018326732698 ], [ -84.68801539286936, 39.119287953399372 ], [ -84.688077430056467, 39.11927737905058 ], [ -84.688129791254184, 39.119618692060023 ], [ -84.688176731643409, 39.119624236435705 ], [ -84.688484918862585, 39.11953523192031 ], [ -84.688605590694237, 39.119643507793342 ], [ -84.688416672742164, 39.119701922252538 ], [ -84.688556635073837, 39.119999199409939 ], [ -84.688801045525452, 39.119929383276009 ], [ -84.688841429760984, 39.120234292216978 ], [ -84.68891371263463, 39.12024296888967 ], [ -84.688971285660642, 39.12027810238488 ], [ -84.689161277471499, 39.120029800409164 ], [ -84.689230131091094, 39.120103665247555 ], [ -84.68934293926246, 39.120419658759047 ], [ -84.689665919808576, 39.120266097061624 ], [ -84.689851367015706, 39.120331589598067 ], [ -84.689710189098818, 39.120409739939433 ], [ -84.689955208040544, 39.120678316567464 ] ] ] ] } }
]
}
