{
"type": "FeatureCollection",
"name": "delta_reading_habitable",
"crs": { "type": "name", "properties": { "name": "urn:ogc:def:crs:OGC:1.3:CRS84" } },
"features": [
{ "type": "Feature", "properties": { "name": "delta_reading_habitable", "city": "reading", "extract_date": "2026-08-25", "crs": "EPSG:3735", "kind": "parcel_extended_delta", "definition": "union(reading extra buffers, habitable parcels intersecting them) minus parcel-extended restricted_state", "simplify_ft": 5.0, "display_only": false }, "geometry": { "type": "MultiPolygon", "coordinates": [ [ [ [ -84.426904959910871, 39.226395868890229 ], [ -84.426899102477421, 39.22678740678748 ], [ -84.426719107785345, 39.226767555100615 ], [ -84.426663123618042, 39.22733467153342 ], [ -84.426396852894342, 39.227319485867731 ], [ -84.426452138386509, 39.226759458387328 ], [ -84.426263355186705, 39.226875810306097 ], [ -84.426224678085049, 39.227270809492587 ], [ -84.425805456715921, 39.22724544102438 ], [ -84.42576370106508, 39.227657583193114 ], [ -84.425780373359146, 39.227675918542317 ], [ -84.425677335102449, 39.227738058824734 ], [ -84.425632048510849, 39.227858123101264 ], [ -84.425136281232852, 39.227831529773361 ], [ -84.42515128456867, 39.227667174771334 ], [ -84.424870080549752, 39.227661743296345 ], [ -84.424892150723821, 39.227449331690565 ], [ -84.424660324371956, 39.227433070810363 ], [ -84.424431429169559, 39.227518180927227 ], [ -84.424387842974269, 39.227476909893873 ], [ -84.424303162760339, 39.22745533827856 ], [ -84.424138189658521, 39.227497950092001 ], [ -84.423137978261209, 39.227508380105995 ], [ -84.42292001857642, 39.227544775832214 ], [ -84.422842836444076, 39.227374654680652 ], [ -84.422506326717084, 39.227504021107748 ], [ -84.422427353392649, 39.227341906927919 ], [ -84.4222421663262, 39.227331449843462 ], [ -84.422270701646099, 39.227415074456175 ], [ -84.421668030705632, 39.227563717587543 ], [ -84.420134286139984, 39.227479843879472 ], [ -84.420172301507222, 39.227059589117779 ], [ -84.420000729078552, 39.22700028667073 ], [ -84.419971832764006, 39.227319835052 ], [ -84.419002945817439, 39.227412279094004 ], [ -84.418892490410144, 39.226454462114759 ], [ -84.419294545738438, 39.226637994408463 ], [ -84.418918183120212, 39.226354609389759 ], [ -84.418266663277947, 39.226256738526608 ], [ -84.417619259340555, 39.226383980423201 ], [ -84.416202248110366, 39.226967631728066 ], [ -84.416221859741896, 39.227050222065017 ], [ -84.41632705620988, 39.227006001867636 ], [ -84.416479082340729, 39.227611463388598 ], [ -84.416834146513509, 39.228100085237934 ], [ -84.416757208416882, 39.228168068685676 ], [ -84.416751738017126, 39.228258536687406 ], [ -84.415734086240548, 39.22847998555023 ], [ -84.415732167475412, 39.228505703740879 ], [ -84.415200771416266, 39.228697428718 ], [ -84.415233507219369, 39.228798338993009 ], [ -84.415058670657459, 39.228809140305614 ], [ -84.415019654368976, 39.22872644855282 ], [ -84.414912069677897, 39.228672114392573 ], [ -84.414128908053499, 39.228622791913011 ], [ -84.414098921666948, 39.228965202888247 ], [ -84.413465404087447, 39.228926836684487 ], [ -84.41343541320272, 39.22926924839502 ], [ -84.413469108631887, 39.229271289101952 ], [ -84.413256071458264, 39.229396064379713 ], [ -84.412789844389465, 39.229367826729671 ], [ -84.412759561829162, 39.22971352262185 ], [ -84.412334432660927, 39.229688603646615 ], [ -84.412303697982964, 39.230030972228114 ], [ -84.412500729334738, 39.230043165152658 ], [ -84.412401460475806, 39.230174725966201 ], [ -84.412080259833047, 39.230154848367448 ], [ -84.411990722652774, 39.230837828420512 ], [ -84.410687092366871, 39.230757142087867 ], [ -84.410648208040371, 39.230734753538286 ], [ -84.410636582554687, 39.230671026233779 ], [ -84.410452093990088, 39.230639927605552 ], [ -84.410469270612012, 39.230727283906184 ], [ -84.409658202751004, 39.230685142206639 ], [ -84.409960059114326, 39.227328384509363 ], [ -84.40903189838231, 39.22715774649209 ], [ -84.408372734206594, 39.226911010283871 ], [ -84.408027214980976, 39.226594119331153 ], [ -84.407764575852809, 39.226227854524296 ], [ -84.407884617066884, 39.226064338539871 ], [ -84.407801160811957, 39.225955388015159 ], [ -84.409217569941987, 39.224792785996449 ], [ -84.409223858818862, 39.224724402370377 ], [ -84.409646863992293, 39.224753733409358 ], [ -84.409581501730727, 39.224960888005015 ], [ -84.409792401152401, 39.224902106653069 ], [ -84.40982147735707, 39.224775701958798 ], [ -84.410135821181242, 39.224823782957813 ], [ -84.410170556539981, 39.224466489797152 ], [ -84.413257726990793, 39.224647079971419 ], [ -84.413516138706413, 39.224702061442073 ], [ -84.413623637094787, 39.224677224517578 ], [ -84.41367189678121, 39.224611895459034 ], [ -84.415194420220672, 39.224818385884539 ], [ -84.415186965673271, 39.224895931581649 ], [ -84.414642039534854, 39.224863269057266 ], [ -84.414610903987068, 39.225210924230325 ], [ -84.415788374380995, 39.22527881589221 ], [ -84.415756466479081, 39.225616090286763 ], [ -84.415629913387079, 39.225609499560257 ], [ -84.415600224190129, 39.225922767569969 ], [ -84.415918227269302, 39.226335084295862 ], [ -84.415943019487401, 39.226065617366224 ], [ -84.415711097281545, 39.226051781106783 ], [ -84.415727896803148, 39.225892474220032 ], [ -84.415958947240327, 39.225903206474896 ], [ -84.416037875756516, 39.225098361710735 ], [ -84.415806476690662, 39.225087449803986 ], [ -84.415858785699925, 39.224530325016836 ], [ -84.416556098475439, 39.224568285558156 ], [ -84.416581144949291, 39.22429813132085 ], [ -84.41798314343626, 39.224369990210953 ], [ -84.417645779087934, 39.223710909728553 ], [ -84.418025590408874, 39.223594042185553 ], [ -84.418031922104774, 39.223501996903266 ], [ -84.417854009162383, 39.223556919834706 ], [ -84.41740965854126, 39.222691827196989 ], [ -84.417512181374647, 39.222542478003589 ], [ -84.416297556361926, 39.222486460595277 ], [ -84.416460693024831, 39.220801126440996 ], [ -84.416796842812559, 39.220655029868539 ], [ -84.418818072828586, 39.2207605544586 ], [ -84.418831583694114, 39.220587045648905 ], [ -84.419267775080456, 39.220614899752427 ], [ -84.419288939782177, 39.220348177625517 ], [ -84.419739069740572, 39.220393217559554 ], [ -84.419738120510317, 39.220409268615953 ], [ -84.419948871139482, 39.2203110292782 ], [ -84.419860995031598, 39.22029766512447 ], [ -84.419797837274245, 39.220316751757615 ], [ -84.419557685924019, 39.22005619492942 ], [ -84.419666484765386, 39.21997729346613 ], [ -84.419889928304144, 39.21995336034351 ], [ -84.42002610469396, 39.21982519856337 ], [ -84.420479463510219, 39.220050255829435 ], [ -84.420395324332119, 39.220152507586221 ], [ -84.42065990217246, 39.220084342882238 ], [ -84.42097388026616, 39.21970155407304 ], [ -84.421326576718158, 39.219884411593149 ], [ -84.421440454997366, 39.219745398876171 ], [ -84.421805774955743, 39.219933672727365 ], [ -84.42176958288627, 39.219977837538408 ], [ -84.422015344036723, 39.219986589935964 ], [ -84.422044088673957, 39.219951533461085 ], [ -84.42244534918656, 39.220150937579803 ], [ -84.422074329062568, 39.220922882053102 ], [ -84.422238812486697, 39.220987172663584 ], [ -84.422210944339554, 39.221358987329388 ], [ -84.422396893472865, 39.221340025962682 ], [ -84.422383378704026, 39.221484589784978 ], [ -84.422297628688042, 39.221495186576846 ], [ -84.422338847154421, 39.221874012904941 ], [ -84.421892511925932, 39.221851019748151 ], [ -84.42189242951207, 39.221899491012671 ], [ -84.421940306377692, 39.222039197143516 ], [ -84.422009269277169, 39.222119697006896 ], [ -84.422156836521566, 39.222207938268369 ], [ -84.422312478317821, 39.222242982197699 ], [ -84.422299613897181, 39.22238058587245 ], [ -84.422157075917156, 39.222356804343299 ], [ -84.421990718575344, 39.22273695427311 ], [ -84.422264971139924, 39.222751137808331 ], [ -84.422223519301625, 39.223376975386003 ], [ -84.422249397786629, 39.223645792321683 ], [ -84.422401879946278, 39.224171057703209 ], [ -84.42264321215022, 39.224601417498661 ], [ -84.42253745754266, 39.224596406883535 ], [ -84.422517136546503, 39.224917168228686 ], [ -84.422932721927936, 39.224953899236588 ], [ -84.42307919102565, 39.225099460553395 ], [ -84.423049807320098, 39.225097866312176 ], [ -84.423020333059313, 39.22542654257952 ], [ -84.423548549702375, 39.22545520000714 ], [ -84.423519077699595, 39.225783879088347 ], [ -84.424371567209491, 39.225830119047416 ], [ -84.424648502826201, 39.225911034132075 ], [ -84.42463368182203, 39.22595627311226 ], [ -84.425013512547466, 39.226107145901906 ], [ -84.425021921807698, 39.226020785317182 ], [ -84.426110866439586, 39.226083104841621 ], [ -84.426098720279199, 39.226219341994131 ], [ -84.426713686163552, 39.226245538347406 ], [ -84.426613099140638, 39.225966793837458 ], [ -84.426787345058187, 39.225928998398892 ], [ -84.426857754705779, 39.226147158892076 ], [ -84.426995884556916, 39.226304517206422 ], [ -84.426904959910871, 39.226395868890229 ] ] ], [ [ [ -84.42928230108916, 39.224844054096515 ], [ -84.42930427932771, 39.224829259315968 ], [ -84.429282301403475, 39.224844054922741 ], [ -84.42928230108916, 39.224844054096515 ] ] ], [ [ [ -84.429742993018593, 39.225298756190625 ], [ -84.429745825538873, 39.225351745856209 ], [ -84.429743665048775, 39.225350613624613 ], [ -84.429742993018593, 39.225298756190625 ] ] ], [ [ [ -84.447979298169514, 39.225132314718017 ], [ -84.447736635848401, 39.225358538452966 ], [ -84.447753025179864, 39.225756683900016 ], [ -84.447706153831305, 39.22608012267694 ], [ -84.447704388776728, 39.226191273133274 ], [ -84.4479068897963, 39.22621429347133 ], [ -84.447938677087762, 39.226277152894319 ], [ -84.445479717854354, 39.230695133396587 ], [ -84.444874004571346, 39.231336010312191 ], [ -84.445337754979036, 39.230949996067345 ], [ -84.445010583, 39.23153735681727 ], [ -84.445112071354444, 39.23160581024716 ], [ -84.445554400696963, 39.23172049550417 ], [ -84.445348736789441, 39.232427359652306 ], [ -84.445620569417699, 39.23265312387835 ], [ -84.443806246632278, 39.235554442537058 ], [ -84.443284079148782, 39.235713601985118 ], [ -84.442956560368856, 39.235775889173595 ], [ -84.442286124902992, 39.235826373748793 ], [ -84.441615562782346, 39.235776916930249 ], [ -84.440969284478712, 39.235629319094421 ], [ -84.440370816161987, 39.235388953223001 ], [ -84.439744537363154, 39.235069723943695 ], [ -84.438610347405657, 39.234659758928437 ], [ -84.438297476489879, 39.234531471467392 ], [ -84.438002682295988, 39.234379481196548 ], [ -84.437728923751436, 39.234205313746493 ], [ -84.437478948575531, 39.234010717343295 ], [ -84.437255265698113, 39.233797645255869 ], [ -84.437060120078044, 39.233568236184979 ], [ -84.436895470174747, 39.233324792791805 ], [ -84.436762968297927, 39.233069758580456 ], [ -84.436663944033356, 39.232805693368334 ], [ -84.43659939091016, 39.232535247589226 ], [ -84.436569956442938, 39.23226113568834 ], [ -84.436575935648406, 39.23198610887593 ], [ -84.43661726810079, 39.231712927513037 ], [ -84.43669353855482, 39.231444333406742 ], [ -84.436803981129586, 39.231183022293031 ], [ -84.436947487010571, 39.230931616782911 ], [ -84.43742698605557, 39.230193653492975 ], [ -84.437595018003023, 39.229963354028818 ], [ -84.437885953895972, 39.22966045073558 ], [ -84.437814951412477, 39.229634419648839 ], [ -84.437939134772918, 39.229429529281333 ], [ -84.437807415274563, 39.229381237852749 ], [ -84.438055781577432, 39.228971456963478 ], [ -84.438578542450358, 39.229171416189565 ], [ -84.43916083390917, 39.228918967170635 ], [ -84.439019026479031, 39.228867099044137 ], [ -84.439266540048237, 39.22845234799361 ], [ -84.43979748391672, 39.22864585630105 ], [ -84.43972161817706, 39.228769580508981 ], [ -84.439843304041773, 39.228748909474454 ], [ -84.439925049901404, 39.228605732707145 ], [ -84.44029354194609, 39.228124564831489 ], [ -84.439603487135685, 39.2278761624273 ], [ -84.439620849062422, 39.227848546628259 ], [ -84.439322452523498, 39.227849059877734 ], [ -84.438822629909495, 39.227799595677311 ], [ -84.438940407824703, 39.227842341256931 ], [ -84.43881840905108, 39.228048023463977 ], [ -84.438650461406894, 39.227987069949378 ], [ -84.438766721374662, 39.22779106566427 ], [ -84.438308139581153, 39.227694305417863 ], [ -84.4374665321062, 39.227387074311537 ], [ -84.436907435637849, 39.2270661601139 ], [ -84.436558728387524, 39.226778495363632 ], [ -84.436079446982433, 39.226608558733922 ], [ -84.436204046683002, 39.226403823574287 ], [ -84.436000525789993, 39.226334091065183 ], [ -84.435869464332583, 39.226536612784805 ], [ -84.435830949623863, 39.226523308494784 ], [ -84.436020576677905, 39.226217151720618 ], [ -84.435861742706564, 39.226162433972839 ], [ -84.435669457361456, 39.226467569825203 ], [ -84.435377667889639, 39.226365577956493 ], [ -84.43528948021482, 39.226423247949946 ], [ -84.435321947354652, 39.226434473394711 ], [ -84.435083314915772, 39.226846673857736 ], [ -84.434875098676841, 39.226770083543848 ], [ -84.434543094216849, 39.226997059800688 ], [ -84.43370712368926, 39.227206324947176 ], [ -84.433070821518086, 39.227178744900101 ], [ -84.432951158401025, 39.227104397584441 ], [ -84.432764796650062, 39.227531229686051 ], [ -84.432271399202108, 39.227218061388776 ], [ -84.432158295921397, 39.227382722444752 ], [ -84.43174994802375, 39.227248512110819 ], [ -84.431823658486834, 39.227044983760543 ], [ -84.431478380695111, 39.226949411035022 ], [ -84.431259642150806, 39.226730597059252 ], [ -84.430799351239074, 39.227022102695848 ], [ -84.430096894668992, 39.226351966374274 ], [ -84.430390609705285, 39.226155954928316 ], [ -84.430096895802109, 39.226351965454427 ], [ -84.429857327855046, 39.226121628188707 ], [ -84.429961749917524, 39.226052353083709 ], [ -84.429863331509026, 39.225955369498983 ], [ -84.430247422464745, 39.22570055656913 ], [ -84.430061123563377, 39.225516980612674 ], [ -84.429804381997187, 39.225382433063913 ], [ -84.430306808896802, 39.225049330476971 ], [ -84.430591415668985, 39.225330277464657 ], [ -84.430899023657304, 39.225129567182606 ], [ -84.430842836238725, 39.225074145143729 ], [ -84.431391474108793, 39.225036870387854 ], [ -84.431390547594432, 39.224982780734969 ], [ -84.431572018739729, 39.224953738348439 ], [ -84.431583790518445, 39.225087203349418 ], [ -84.431673251075949, 39.22520000466892 ], [ -84.431981707713376, 39.224994734484689 ], [ -84.43206573218491, 39.225071122953857 ], [ -84.432651792247412, 39.22483613527185 ], [ -84.432539344632616, 39.224727148294214 ], [ -84.432904371413571, 39.224486662337377 ], [ -84.432883017929996, 39.224466392054296 ], [ -84.433076116186811, 39.224345696263867 ], [ -84.433212102866108, 39.224474055614451 ], [ -84.433300993249972, 39.22461187351869 ], [ -84.433900796355502, 39.224333127614287 ], [ -84.433599924217944, 39.223940722724777 ], [ -84.4334717767033, 39.224024431273321 ], [ -84.434338761167012, 39.223161745666935 ], [ -84.43469039019503, 39.222755096847244 ], [ -84.434988162807727, 39.22231538323765 ], [ -84.435218408029243, 39.22180781890583 ], [ -84.435316924759789, 39.221275067951638 ], [ -84.435315399676014, 39.22100562902677 ], [ -84.435279930044331, 39.220737603767844 ], [ -84.435196712133873, 39.220437866716161 ], [ -84.435335658225569, 39.220460663359667 ], [ -84.435379582703533, 39.219928879381563 ], [ -84.435213547528448, 39.219851937074729 ], [ -84.435226779198047, 39.219715041639596 ], [ -84.435559248889533, 39.219866739791712 ], [ -84.435713462506328, 39.218267172872807 ], [ -84.437083193291073, 39.218394270855896 ], [ -84.437032927762786, 39.218744426947559 ], [ -84.437205284586042, 39.21880549562529 ], [ -84.437211906143716, 39.218705112036538 ], [ -84.438462221235952, 39.218833707661027 ], [ -84.438627066829056, 39.218239651326215 ], [ -84.438461100458497, 39.218224192448311 ], [ -84.439144999591605, 39.217136801892224 ], [ -84.439404069386214, 39.217160931789806 ], [ -84.439813343519106, 39.21673083296529 ], [ -84.440312027426174, 39.216377087926531 ], [ -84.440591665514873, 39.216229629421946 ], [ -84.441198748661748, 39.216000282083726 ], [ -84.441575120345206, 39.215911338939108 ], [ -84.441719390441108, 39.21540461467211 ], [ -84.441917943601467, 39.215019802897054 ], [ -84.442128040429552, 39.214705171670133 ], [ -84.442283644834717, 39.214520491349788 ], [ -84.442639140834359, 39.214190118987219 ], [ -84.442845453319677, 39.214038459609334 ], [ -84.443277570158685, 39.213786087487932 ], [ -84.44373343211835, 39.213593464216011 ], [ -84.444021076267873, 39.213502687166965 ], [ -84.444317829329847, 39.213431843176622 ], [ -84.444890535178914, 39.213352352198214 ], [ -84.445200470952656, 39.213338988405283 ], [ -84.44577555776705, 39.213369993005557 ], [ -84.445987408144745, 39.213014045608695 ], [ -84.446147450585627, 39.21307185364585 ], [ -84.445925111991912, 39.213445455276066 ], [ -84.446132306406085, 39.213520367656955 ], [ -84.445865808543772, 39.213881152445069 ], [ -84.44573702006484, 39.214124655681069 ], [ -84.445638807107002, 39.21437663610844 ], [ -84.445537432536966, 39.214896702330769 ], [ -84.445565408353943, 39.215422263260166 ], [ -84.445627768297712, 39.215681064603189 ], [ -84.445834302021566, 39.216155128403216 ], [ -84.445584215257284, 39.216132237822265 ], [ -84.445539997699612, 39.216551352501213 ], [ -84.4460667321258, 39.216582039736338 ], [ -84.446040071996904, 39.216865683383915 ], [ -84.446335677894695, 39.216893679289818 ], [ -84.446666597717851, 39.217274889333716 ], [ -84.446911214296634, 39.217484607124824 ], [ -84.447182300124666, 39.217673609569502 ], [ -84.447476971515812, 39.217839886008008 ], [ -84.447792093804964, 39.217981667532776 ], [ -84.448124314698376, 39.218097445812028 ], [ -84.448749389569713, 39.218260630983885 ], [ -84.448700995709572, 39.218380342459596 ], [ -84.448630493814193, 39.218845542009952 ], [ -84.448593190465644, 39.218841979519489 ], [ -84.448543476118502, 39.219152277869831 ], [ -84.448143197731326, 39.21911397122706 ], [ -84.447953195860023, 39.219333714954587 ], [ -84.44793049805476, 39.219485525988816 ], [ -84.447894272571659, 39.219530648999807 ], [ -84.447765710075544, 39.219519973523489 ], [ -84.447322861662457, 39.219967760484117 ], [ -84.447207126325011, 39.220167068869145 ], [ -84.446723689202116, 39.219994242912726 ], [ -84.446389445692915, 39.219914478756301 ], [ -84.446046697934392, 39.219860825670949 ], [ -84.44558004849118, 39.219829190868971 ], [ -84.445583776988883, 39.219794253963926 ], [ -84.445252347382592, 39.219765082597853 ], [ -84.445247598710765, 39.219816259426409 ], [ -84.445032123441862, 39.219812617468669 ], [ -84.445039133407732, 39.219736763863736 ], [ -84.444752175281124, 39.219722564739847 ], [ -84.444747071935652, 39.219770464739803 ], [ -84.444655614650813, 39.219764548503349 ], [ -84.44466846901237, 39.219643177801778 ], [ -84.44439006245581, 39.219567830222786 ], [ -84.44423331941428, 39.219835951205866 ], [ -84.444309286791551, 39.219863012023303 ], [ -84.444135045984368, 39.219890257788059 ], [ -84.443574235727823, 39.219687264123486 ], [ -84.443300984252076, 39.220144028232184 ], [ -84.442906037312667, 39.220335760121074 ], [ -84.442656366616234, 39.220245385212642 ], [ -84.442581905584277, 39.220369850021669 ], [ -84.442751354100523, 39.220431186535883 ], [ -84.442414728700967, 39.220671133804004 ], [ -84.441999491619455, 39.221087206311765 ], [ -84.441694034458564, 39.221557298850051 ], [ -84.441509600704208, 39.222064111430569 ], [ -84.441451460232727, 39.222451672248319 ], [ -84.441457786062799, 39.222940739183755 ], [ -84.441103872723019, 39.222844934449157 ], [ -84.44097960089222, 39.22305106907686 ], [ -84.441504093880482, 39.223191134929216 ], [ -84.441511058117442, 39.223223642133711 ], [ -84.44137772564396, 39.223188404716552 ], [ -84.44115313792237, 39.223549212129853 ], [ -84.441656898008347, 39.223680470722002 ], [ -84.441672778542255, 39.223654080598429 ], [ -84.441881621611884, 39.224010176704326 ], [ -84.441804525706814, 39.224142447523796 ], [ -84.442039317499578, 39.224208522033713 ], [ -84.442069837119959, 39.224246112943312 ], [ -84.441788309456427, 39.224167245909726 ], [ -84.441764130230098, 39.224208541520738 ], [ -84.442127043143671, 39.224305940293945 ], [ -84.442152997200054, 39.224331802072932 ], [ -84.442017558459952, 39.224555137037534 ], [ -84.442503296668761, 39.224693959294697 ], [ -84.442521681185994, 39.224658479002628 ], [ -84.442516713744411, 39.224697791077382 ], [ -84.44262120610756, 39.224727645416031 ], [ -84.443073341225727, 39.224996201842458 ], [ -84.442958732912047, 39.225183531957953 ], [ -84.444365214188579, 39.225643833209361 ], [ -84.44444894308954, 39.225503822988657 ], [ -84.444459091058008, 39.22539840440129 ], [ -84.444637458350869, 39.225421004883927 ], [ -84.444621161719283, 39.225549404735389 ], [ -84.445727106658779, 39.225669648782862 ], [ -84.445762984347937, 39.225480641833499 ], [ -84.446293323127236, 39.225419641475661 ], [ -84.446672222588504, 39.22533103951428 ], [ -84.446746625369499, 39.225339439611126 ], [ -84.446753008674634, 39.225306107394246 ], [ -84.446885526204341, 39.225265209808278 ], [ -84.44686814106889, 39.225353155630849 ], [ -84.447255927167845, 39.225396933250529 ], [ -84.447304982906388, 39.225097692515362 ], [ -84.447505890036211, 39.2249966888321 ], [ -84.447492616864849, 39.225063520115768 ], [ -84.447979298169514, 39.225132314718017 ] ], [ [ -84.430229851039599, 39.226082438951643 ], [ -84.430273010302571, 39.226053637424052 ], [ -84.430229850081503, 39.226082438673899 ], [ -84.430229851039599, 39.226082438951643 ] ] ], [ [ [ -84.433957999185267, 39.218507483209429 ], [ -84.434090647967139, 39.218595964983351 ], [ -84.434209548087878, 39.218584950492513 ], [ -84.434302700151662, 39.218498035030755 ], [ -84.434289135078345, 39.218402767491355 ], [ -84.434804691930808, 39.218200086700236 ], [ -84.434727187390621, 39.218556911449497 ], [ -84.434775129827287, 39.218625391232187 ], [ -84.434573080506254, 39.218842124574977 ], [ -84.43449883391348, 39.218778880969758 ], [ -84.433982349268646, 39.218975353442573 ], [ -84.433664986178343, 39.218797380975417 ], [ -84.433957999185267, 39.218507483209429 ] ] ], [ [ [ -84.448780615187701, 39.224167712591004 ], [ -84.448766565252853, 39.224326337871808 ], [ -84.448689980875585, 39.224474365720035 ], [ -84.448516454571376, 39.224697400490875 ], [ -84.448373024322251, 39.224763106383676 ], [ -84.448242215953996, 39.22488756918132 ], [ -84.447785588936995, 39.224828251065944 ], [ -84.448064491033222, 39.224622083319396 ], [ -84.448288099165651, 39.224416792352969 ], [ -84.448484798726369, 39.224195463329686 ], [ -84.44874153407514, 39.223800704817471 ], [ -84.44885773992489, 39.224033497907847 ], [ -84.448780615187701, 39.224167712591004 ] ] ] ] } }
]
}
