{
"type": "FeatureCollection",
"name": "delta_evendale_habitable",
"crs": { "type": "name", "properties": { "name": "urn:ogc:def:crs:OGC:1.3:CRS84" } },
"features": [
{ "type": "Feature", "properties": { "name": "delta_evendale_habitable", "city": "evendale", "extract_date": "2026-08-25", "crs": "EPSG:3735", "kind": "parcel_extended_delta", "definition": "union(evendale extra buffers, habitable parcels intersecting them) minus parcel-extended restricted_state", "simplify_ft": 5.0, "display_only": false }, "geometry": { "type": "MultiPolygon", "coordinates": [ [ [ [ -84.394773920720496, 39.252944934336789 ], [ -84.394787012665546, 39.252718230729499 ], [ -84.395010702442349, 39.250224831210517 ], [ -84.395717104146513, 39.250257557770489 ], [ -84.396064390196059, 39.250307996208228 ], [ -84.396403456807306, 39.250385162345601 ], [ -84.397014668816681, 39.250604528518544 ], [ -84.396646439180415, 39.250783053772693 ], [ -84.396136773866004, 39.251132716362093 ], [ -84.39591674115826, 39.251334504832379 ], [ -84.395620204951484, 39.251694149411776 ], [ -84.39488570504713, 39.25166667244649 ], [ -84.394780430227598, 39.252859638566584 ], [ -84.39480211474654, 39.252860391210476 ], [ -84.394773920720496, 39.252944934336789 ] ] ], [ [ [ -84.394937590288066, 39.252560650274994 ], [ -84.394917918258159, 39.252519322075699 ], [ -84.394937590335672, 39.252560650190127 ], [ -84.394937590288066, 39.252560650274994 ] ] ], [ [ [ -84.423803111661201, 39.236731794533164 ], [ -84.423794631494886, 39.236546857648925 ], [ -84.424543123010992, 39.236385937920687 ], [ -84.424529130737312, 39.236538014166825 ], [ -84.425243566606341, 39.236577840007584 ], [ -84.425222909754794, 39.236823496300651 ], [ -84.425398187434567, 39.236842041402653 ], [ -84.425419941528688, 39.23660594717736 ], [ -84.425824919938194, 39.236537353929464 ], [ -84.426529078510171, 39.23657572776586 ], [ -84.426478610178322, 39.237123499189906 ], [ -84.426423478352604, 39.237120419027811 ], [ -84.426633015597943, 39.237214789978488 ], [ -84.426510868948981, 39.237263180241918 ], [ -84.425917593890745, 39.237233119705586 ], [ -84.425380101799632, 39.237246242852848 ], [ -84.425358431454683, 39.237273377043095 ], [ -84.425278025933778, 39.238145824482906 ], [ -84.425076529435685, 39.238411804645068 ], [ -84.425078959192959, 39.238385441619037 ], [ -84.424362569513079, 39.238345507201572 ], [ -84.42427047739649, 39.23934904664771 ], [ -84.424497907216576, 39.239362394940748 ], [ -84.424295551952255, 39.23981553438847 ], [ -84.424219574660299, 39.240159507779012 ], [ -84.423700402471553, 39.240746365898161 ], [ -84.424253819335263, 39.241044385587593 ], [ -84.42427004835055, 39.241026045891928 ], [ -84.424326785236659, 39.241213586336492 ], [ -84.423962337084376, 39.241620829583269 ], [ -84.426043610176833, 39.243108934189642 ], [ -84.426153909378428, 39.242927831788251 ], [ -84.427217360891234, 39.243288058871855 ], [ -84.427883043754434, 39.243406481874871 ], [ -84.428223802476865, 39.243427624755682 ], [ -84.428905213009614, 39.243392784162616 ], [ -84.42923947724347, 39.243337127286033 ], [ -84.429879486083948, 39.243151944125657 ], [ -84.430179231345576, 39.243024153745026 ], [ -84.430461678946173, 39.242874422393719 ], [ -84.430964278144913, 39.242514943527659 ], [ -84.431179718835665, 39.242308565682208 ], [ -84.431393389591108, 39.242050484361059 ], [ -84.431727316822503, 39.242383963473799 ], [ -84.432043069999438, 39.242855347784548 ], [ -84.432236113117455, 39.243365206228702 ], [ -84.432299209767507, 39.243894433438093 ], [ -84.432229992618616, 39.244423197829349 ], [ -84.432146383721047, 39.244681193289509 ], [ -84.432031052560305, 39.244931684723831 ], [ -84.431709842043404, 39.24540083889962 ], [ -84.431278396177817, 39.245813078743915 ], [ -84.430492924666666, 39.246430407016142 ], [ -84.430245260680508, 39.246607342741633 ], [ -84.429719833015341, 39.246888481087524 ], [ -84.429528208030646, 39.247290470987082 ], [ -84.429374454114679, 39.247526011897939 ], [ -84.429192301109254, 39.24774897429176 ], [ -84.428838438055038, 39.248076290817771 ], [ -84.428892120131721, 39.248358815069324 ], [ -84.428907200474313, 39.2486327945144 ], [ -84.428887055256126, 39.248906577037857 ], [ -84.428823046680492, 39.249210149280273 ], [ -84.428317615366453, 39.2504525121767 ], [ -84.428193675963996, 39.250702093329117 ], [ -84.427847679498754, 39.251174916424226 ], [ -84.427760555023895, 39.251351852204699 ], [ -84.427734863657832, 39.251632313574895 ], [ -84.427675772787239, 39.25189478582034 ], [ -84.427324686807978, 39.252720060510775 ], [ -84.426980862990575, 39.253190839407267 ], [ -84.426524904951847, 39.253600011649993 ], [ -84.425974539820302, 39.253931667500531 ], [ -84.425670520229119, 39.254064264476625 ], [ -84.425149051160432, 39.254223893239981 ], [ -84.425268106679539, 39.254661540481095 ], [ -84.42528466237134, 39.255190085687971 ], [ -84.425170608667884, 39.255711298585751 ], [ -84.425065737914622, 39.255963085331622 ], [ -84.424284900917385, 39.257334089288626 ], [ -84.422945442963425, 39.259220811025116 ], [ -84.422557727882733, 39.259659555624332 ], [ -84.422324695863409, 39.259854964410245 ], [ -84.421791236712068, 39.260188668782185 ], [ -84.421495834400474, 39.260323820919218 ], [ -84.421184969735421, 39.260436074286559 ], [ -84.420650832008789, 39.260564577087592 ], [ -84.420129616692904, 39.260871034989734 ], [ -84.419811939738736, 39.261005701210649 ], [ -84.419478204927287, 39.261114391345252 ], [ -84.419131915548277, 39.261195964428147 ], [ -84.418776706725708, 39.261249564149558 ], [ -84.418416307247085, 39.261274627847108 ], [ -84.416506577016591, 39.261193121767874 ], [ -84.416160284124004, 39.261162321973444 ], [ -84.41548779329932, 39.261022119675609 ], [ -84.414863754514911, 39.260782077443416 ], [ -84.414577584142663, 39.260627389294335 ], [ -84.414070850927899, 39.26025619798358 ], [ -84.413740164965915, 39.259903232108002 ], [ -84.413561285277652, 39.260054790349535 ], [ -84.413496322624383, 39.260639091244009 ], [ -84.412792682610998, 39.260591007996688 ], [ -84.412802200200062, 39.260505412935075 ], [ -84.412701672831972, 39.260545609308728 ], [ -84.412828223766198, 39.259239350639554 ], [ -84.408140336635924, 39.259081045218508 ], [ -84.407806449920614, 39.262137390113367 ], [ -84.40563852221301, 39.262072388586688 ], [ -84.405888065690476, 39.259429466212509 ], [ -84.405679340348343, 39.259423239122086 ], [ -84.405699977091359, 39.259011424948824 ], [ -84.404518941773588, 39.258975498224856 ], [ -84.404462707462841, 39.258922111381096 ], [ -84.405302947948158, 39.257707533924318 ], [ -84.405568361323432, 39.257818863869588 ], [ -84.405584069114994, 39.257667940019374 ], [ -84.405109724476134, 39.257467042318609 ], [ -84.405085490431517, 39.257431865585623 ], [ -84.405559835176774, 39.256767737601088 ], [ -84.405683743795464, 39.256711233314356 ], [ -84.4057107350189, 39.25644771699195 ], [ -84.405667803405734, 39.25644636876121 ], [ -84.405582351330082, 39.255624703363985 ], [ -84.405675947017286, 39.255619840115791 ], [ -84.405750108189721, 39.254641224440462 ], [ -84.40588459978305, 39.254646374502535 ], [ -84.405898006828735, 39.25450411074597 ], [ -84.405780518696261, 39.254499616518956 ], [ -84.40581530792997, 39.253951093797752 ], [ -84.40567005911781, 39.253945537057454 ], [ -84.405734720720034, 39.253260977053785 ], [ -84.406174907136034, 39.253277815003791 ], [ -84.406169897146555, 39.253330858900704 ], [ -84.406261265562662, 39.253165228421771 ], [ -84.406210051188168, 39.253163771658784 ], [ -84.406234575241186, 39.252642446022818 ], [ -84.406277328975605, 39.252643660592597 ], [ -84.40627298900273, 39.252712231575224 ], [ -84.40634806941307, 39.252714366938193 ], [ -84.407035834729754, 39.251931696607315 ], [ -84.407382457122267, 39.252114155319553 ], [ -84.407577896535429, 39.252015228496276 ], [ -84.407479703430354, 39.251963946260453 ], [ -84.407813650275742, 39.25159501143753 ], [ -84.40660467933138, 39.250952980001685 ], [ -84.407137437997278, 39.250339421907654 ], [ -84.40755057932256, 39.250563408809008 ], [ -84.407946518237935, 39.250897216933112 ], [ -84.410207515157509, 39.251294718150682 ], [ -84.410192565754215, 39.251414360089832 ], [ -84.410850718920031, 39.250927874606262 ], [ -84.411073581126686, 39.251068335318188 ], [ -84.411742250374502, 39.251333733781856 ], [ -84.411816400141717, 39.251393930867494 ], [ -84.411847242999983, 39.251466114386496 ], [ -84.412169142277506, 39.251549937601574 ], [ -84.412403795064279, 39.251537983271049 ], [ -84.412913994250232, 39.251371722805864 ], [ -84.413577564419541, 39.251540773903628 ], [ -84.413591735784934, 39.251387274994592 ], [ -84.413926114693979, 39.251405172880396 ], [ -84.413980981463297, 39.251501065353999 ], [ -84.414046039495986, 39.251522194792592 ], [ -84.414116647079496, 39.251516074621314 ], [ -84.41417435598818, 39.251484267382793 ], [ -84.414204942341854, 39.251434786195176 ], [ -84.414187552122755, 39.251308139503614 ], [ -84.414283436481412, 39.251063580564598 ], [ -84.414379392685291, 39.250939105079716 ], [ -84.41457595223612, 39.250784679117928 ], [ -84.41473672107719, 39.250708089845801 ], [ -84.414913475286269, 39.250657058550708 ], [ -84.416041857937216, 39.250428999133149 ], [ -84.41609021018283, 39.250455651620356 ], [ -84.41630673496546, 39.251101240704564 ], [ -84.416485828312588, 39.251092100999891 ], [ -84.416259935433715, 39.250404502304761 ], [ -84.416293119233799, 39.250377471106162 ], [ -84.416613766945332, 39.250314114420625 ], [ -84.41700707871486, 39.250293608535308 ], [ -84.417429673693576, 39.250369665367181 ], [ -84.417802354390034, 39.250541800869989 ], [ -84.417966927132056, 39.250667652771618 ], [ -84.418018419690767, 39.250784479860123 ], [ -84.418119258846843, 39.250825178685567 ], [ -84.418227620333298, 39.250794007712635 ], [ -84.418269080653957, 39.250728598809673 ], [ -84.418251928848079, 39.250661233096338 ], [ -84.418165162471809, 39.250609505559787 ], [ -84.418666985716214, 39.250299983371121 ], [ -84.418769713769791, 39.250403968140589 ], [ -84.418756141308748, 39.249909666792206 ], [ -84.418861260229193, 39.249870316018253 ], [ -84.418894265782484, 39.249790328067014 ], [ -84.418837217040277, 39.249645521330606 ], [ -84.418721904932994, 39.249484821489013 ], [ -84.418572219763007, 39.249354047401731 ], [ -84.418350446318954, 39.249233754315405 ], [ -84.417937075855491, 39.249094433133898 ], [ -84.417452142599714, 39.248995570584135 ], [ -84.417636047069152, 39.248192709397181 ], [ -84.417464394603385, 39.248159195260129 ], [ -84.417296874512658, 39.248318386846954 ], [ -84.417182496272375, 39.248312014183512 ], [ -84.416842049997882, 39.248144405903922 ], [ -84.416607454618571, 39.248104137758247 ], [ -84.416481691535623, 39.248314987593453 ], [ -84.41638310103373, 39.248320688186347 ], [ -84.416057090862637, 39.248066024020403 ], [ -84.415832074135935, 39.24796778032151 ], [ -84.415661753990278, 39.24782630238316 ], [ -84.415213426737125, 39.248249356625891 ], [ -84.414974374548237, 39.248042770186757 ], [ -84.414870859638739, 39.247868424638781 ], [ -84.414832135658486, 39.24773380088439 ], [ -84.414658436865437, 39.247722376976895 ], [ -84.414694418797851, 39.24787457888236 ], [ -84.413901433203279, 39.24813559062212 ], [ -84.413902782397855, 39.248121748931531 ], [ -84.413459309912625, 39.248096262476345 ], [ -84.413417066785627, 39.248591621565133 ], [ -84.413125048338713, 39.248575060752408 ], [ -84.413167735003839, 39.248081274838434 ], [ -84.412751155431778, 39.24805313694916 ], [ -84.412766905744348, 39.247884653773198 ], [ -84.412104170789846, 39.247843322341097 ], [ -84.412326165356745, 39.248562356486516 ], [ -84.412127036448013, 39.248630552414355 ], [ -84.411849243528422, 39.247724952431966 ], [ -84.411887320179702, 39.247338185568388 ], [ -84.411372452720926, 39.247298504831662 ], [ -84.411229955279055, 39.248684472438569 ], [ -84.411168591954763, 39.248686977191419 ], [ -84.411298410969209, 39.247323121538159 ], [ -84.410009772890064, 39.247258001018515 ], [ -84.410736308499082, 39.246074964557558 ], [ -84.410546815238746, 39.246065960739386 ], [ -84.410251082738952, 39.245220758529705 ], [ -84.410677670670609, 39.245107177548462 ], [ -84.410669253953472, 39.244961770309679 ], [ -84.410294411050359, 39.245068405691221 ], [ -84.410108388683653, 39.244587880976802 ], [ -84.410408773166836, 39.244310051284259 ], [ -84.41054542392223, 39.244416615475913 ], [ -84.410689903120769, 39.244591454474879 ], [ -84.410711753246602, 39.244358779895691 ], [ -84.410510320653756, 39.244197237384029 ], [ -84.410334156855498, 39.244102924084125 ], [ -84.410681588111984, 39.24363017510958 ], [ -84.410728318413348, 39.243087413889405 ], [ -84.414346170519352, 39.243275484275472 ], [ -84.414467193320249, 39.241959775700366 ], [ -84.414075787424849, 39.241680155819452 ], [ -84.413825217565901, 39.24165458870587 ], [ -84.413858475775513, 39.241458602019826 ], [ -84.414030171700887, 39.241373892811183 ], [ -84.41397074078246, 39.241264119512564 ], [ -84.414310370144946, 39.241036022124234 ], [ -84.414045431128898, 39.240797469204807 ], [ -84.414077508433934, 39.240775925566219 ], [ -84.414094151913531, 39.240607018195057 ], [ -84.414554231129742, 39.240634477412726 ], [ -84.414536163221385, 39.240818751406621 ], [ -84.414669603451756, 39.240825705911845 ], [ -84.414630234744067, 39.240653292843447 ], [ -84.414645013776834, 39.240453683357742 ], [ -84.414754380420533, 39.240380963651781 ], [ -84.414813912574914, 39.239736217255761 ], [ -84.414872530672483, 39.239616585604267 ], [ -84.414918025963303, 39.239601167168594 ], [ -84.415823670401679, 39.239649856509573 ], [ -84.416016446101651, 39.239522962499429 ], [ -84.415796354717045, 39.239510515864986 ], [ -84.415842855429531, 39.239032856846933 ], [ -84.41657771201794, 39.239075764574615 ], [ -84.41658552684315, 39.238992785378656 ], [ -84.416792872240279, 39.239004799248988 ], [ -84.418973442162752, 39.23755236326388 ], [ -84.418905403630419, 39.237499625272605 ], [ -84.419474599012347, 39.237053032467934 ], [ -84.419596400419621, 39.237148783368681 ], [ -84.419684101105133, 39.237099203569478 ], [ -84.419266794918869, 39.23677492811612 ], [ -84.419276728317556, 39.236760591218776 ], [ -84.419848003199192, 39.236734405069392 ], [ -84.420171465298836, 39.236991823280121 ], [ -84.420556202448353, 39.236725110765533 ], [ -84.421055124982004, 39.236743876092149 ], [ -84.421063747344547, 39.236660728528726 ], [ -84.421234809665535, 39.236637800379974 ], [ -84.421243974485165, 39.236544060305604 ], [ -84.421231970773334, 39.236666837230345 ], [ -84.421936306196343, 39.236708230887288 ], [ -84.421967281158643, 39.236373368757583 ], [ -84.422429440592808, 39.236955821472272 ], [ -84.422543393903496, 39.236936396618411 ], [ -84.422648044740612, 39.236976485998639 ], [ -84.422682842827371, 39.236599935132894 ], [ -84.423633399109676, 39.236653062043843 ], [ -84.423627097414908, 39.236721261883851 ], [ -84.423803111661201, 39.236731794533164 ] ], [ [ -84.418769713769791, 39.250403968140589 ], [ -84.419132086306021, 39.250774335268964 ], [ -84.419132086765543, 39.250774333834535 ], [ -84.418769713769791, 39.250403968140589 ] ], [ [ -84.418626035285968, 39.24939485529864 ], [ -84.4189366633844, 39.249161554801489 ], [ -84.4189366633844, 39.249161554801489 ], [ -84.418626035285968, 39.24939485529864 ] ] ] ] } }
]
}
