{
"type": "FeatureCollection",
"name": "delta_norwood_habitable",
"crs": { "type": "name", "properties": { "name": "urn:ogc:def:crs:OGC:1.3:CRS84" } },
"features": [
{ "type": "Feature", "properties": { "name": "delta_norwood_habitable", "city": "norwood", "extract_date": "2026-08-25", "crs": "EPSG:3735", "kind": "parcel_extended_delta", "definition": "union(norwood extra buffers, habitable parcels intersecting them) minus parcel-extended restricted_state", "simplify_ft": 5.0, "display_only": false }, "geometry": { "type": "MultiPolygon", "coordinates": [ [ [ [ -84.446938334589859, 39.160284175502184 ], [ -84.446504627898364, 39.160468359775265 ], [ -84.446588270648149, 39.160828030686673 ], [ -84.446596372122912, 39.161295003939841 ], [ -84.446687500936136, 39.161565108002087 ], [ -84.446760161232262, 39.162091233950996 ], [ -84.446646241988859, 39.163124551996525 ], [ -84.446567571257475, 39.163385679336095 ], [ -84.446314229668261, 39.163883846006016 ], [ -84.44614197581609, 39.16411613128038 ], [ -84.445893183650256, 39.164377132261947 ], [ -84.446775955839939, 39.164426372692908 ], [ -84.446790257874795, 39.164275351331234 ], [ -84.446895462459935, 39.164281599770369 ], [ -84.44688053042384, 39.164433063521344 ], [ -84.446906224963399, 39.164434707479373 ], [ -84.446920716750839, 39.164283099474666 ], [ -84.447494273843205, 39.164317163087425 ], [ -84.447478811864286, 39.164479555735703 ], [ -84.447652753346944, 39.164501989587116 ], [ -84.447669069882565, 39.164327728451312 ], [ -84.448189548292561, 39.16435820019948 ], [ -84.448163233035444, 39.164605955247971 ], [ -84.448694810753693, 39.164633037928297 ], [ -84.448677360996243, 39.164797893375784 ], [ -84.448847734839489, 39.164875247348476 ], [ -84.448857207962646, 39.164781410409041 ], [ -84.449387546438842, 39.164813535702784 ], [ -84.449360595981759, 39.165087192301669 ], [ -84.449893221785729, 39.165119317424377 ], [ -84.449880181775328, 39.165258219363373 ], [ -84.449426656794429, 39.165230875721271 ], [ -84.449755672680922, 39.165525138656967 ], [ -84.449854172394851, 39.165531482747873 ], [ -84.449845862152785, 39.165617862492944 ], [ -84.450053595025338, 39.165875633993934 ], [ -84.450205152209094, 39.166119422557934 ], [ -84.450413082001745, 39.166639603790543 ], [ -84.450559288833929, 39.166659771453276 ], [ -84.450519077083612, 39.167019101433326 ], [ -84.45095292126247, 39.167038599462906 ], [ -84.450915011519299, 39.167425378914075 ], [ -84.450625389787248, 39.167406533917941 ], [ -84.450595238861979, 39.16770548824055 ], [ -84.450488399617711, 39.167729882273967 ], [ -84.450467041753797, 39.168176696027544 ], [ -84.450648373152561, 39.168122726690193 ], [ -84.450703554145207, 39.168127402892161 ], [ -84.450672283154844, 39.168454518221345 ], [ -84.450621010220914, 39.168475566468089 ], [ -84.450582121153644, 39.168526799766866 ], [ -84.450609974847524, 39.168611172515995 ], [ -84.450302470579445, 39.168593515424242 ], [ -84.450073936125037, 39.169013157854259 ], [ -84.44989379982853, 39.169246938474799 ], [ -84.449505382839149, 39.169618916375128 ], [ -84.449603603571532, 39.1697041532368 ], [ -84.44922090844959, 39.169826804262442 ], [ -84.448906207811319, 39.170010786563431 ], [ -84.448287064639487, 39.170264271808023 ], [ -84.447638870512307, 39.170413342736481 ], [ -84.447217971144482, 39.170580164765234 ], [ -84.446677754295592, 39.170719847303864 ], [ -84.446457035038492, 39.170892767196726 ], [ -84.445844482023873, 39.171468467066099 ], [ -84.445880559273931, 39.171981735262889 ], [ -84.445789368972328, 39.172501523474921 ], [ -84.445569522843215, 39.173013110001897 ], [ -84.445013306164839, 39.174035469516241 ], [ -84.444969760184961, 39.174022092246815 ], [ -84.444379855249679, 39.174762453035946 ], [ -84.444163572842257, 39.174972841975915 ], [ -84.44371401803987, 39.175329907198673 ], [ -84.442933884634158, 39.174642785682352 ], [ -84.44330589088122, 39.174407744428301 ], [ -84.443761719328279, 39.174060376801684 ], [ -84.443654678649764, 39.173990644849482 ], [ -84.440097253559131, 39.172722681004373 ], [ -84.440105573278515, 39.172640560919035 ], [ -84.439865897672078, 39.172623568952929 ], [ -84.439918430133247, 39.17210876255205 ], [ -84.439863494803163, 39.17210401039813 ], [ -84.439515635538925, 39.171156587316737 ], [ -84.43968472453551, 39.171029854855995 ], [ -84.440300046257917, 39.170721093112959 ], [ -84.440324515909978, 39.170479527977918 ], [ -84.439669970215704, 39.170441809924604 ], [ -84.439776822022552, 39.169686281766651 ], [ -84.440395717630437, 39.16972749677776 ], [ -84.440439035404594, 39.169291134471635 ], [ -84.44091947783842, 39.169317154527086 ], [ -84.440928079902534, 39.169223555260409 ], [ -84.440749108959423, 39.169206304465717 ], [ -84.440865450775689, 39.168212737275546 ], [ -84.44104535704237, 39.168046563760186 ], [ -84.440962190376538, 39.168864117198062 ], [ -84.441617864971093, 39.168690897090869 ], [ -84.441748301803756, 39.169004991839749 ], [ -84.441639206180298, 39.169034065339382 ], [ -84.442127199012646, 39.169024848656363 ], [ -84.442335588160262, 39.168968580021129 ], [ -84.442284940965848, 39.16886217658621 ], [ -84.442203141942898, 39.168884127430452 ], [ -84.442079221459849, 39.168568960866146 ], [ -84.442009666803557, 39.168587343795728 ], [ -84.441609230278758, 39.167497014788196 ], [ -84.441816172940364, 39.167488930727686 ], [ -84.441806564625566, 39.167461814450832 ], [ -84.441540956399436, 39.167472189755436 ], [ -84.441801913161555, 39.167217090893047 ], [ -84.442211115526021, 39.166941059476194 ], [ -84.442265405330176, 39.16659174887306 ], [ -84.442460037642334, 39.166082898208103 ], [ -84.442776835071825, 39.165612721321679 ], [ -84.44301054556189, 39.165368686370044 ], [ -84.442574247708521, 39.165346543319416 ], [ -84.441750067793834, 39.165262865218843 ], [ -84.441086677072832, 39.165116765151133 ], [ -84.440515304146274, 39.164892098505547 ], [ -84.439985754381325, 39.164877633601563 ], [ -84.439510973109691, 39.164522275295035 ], [ -84.439228722114379, 39.164365176811422 ], [ -84.438805982966542, 39.164187563116435 ], [ -84.438834602435421, 39.164187024240654 ], [ -84.438876667722425, 39.163776985550733 ], [ -84.438724479532993, 39.163767380563613 ], [ -84.438694388015364, 39.164095901195289 ], [ -84.438571088225927, 39.164088917953414 ], [ -84.438603167506983, 39.163759724419847 ], [ -84.436969662420069, 39.163657112658001 ], [ -84.436778776643976, 39.163478859078538 ], [ -84.436695764355918, 39.163473213221209 ], [ -84.436703135076812, 39.16340296823217 ], [ -84.436499171651874, 39.163155046053909 ], [ -84.436344197814705, 39.162913407157596 ], [ -84.436154181869753, 39.162471866692599 ], [ -84.436223201474448, 39.162394379798741 ], [ -84.436070748809286, 39.162128861614015 ], [ -84.436047157339658, 39.161864798161034 ], [ -84.436140270521236, 39.160949743777692 ], [ -84.436218660173907, 39.16080574278174 ], [ -84.436597404395201, 39.16084954535836 ], [ -84.43750157128558, 39.15941447838388 ], [ -84.437434238462487, 39.159394903544118 ], [ -84.437538307785132, 39.159219117504357 ], [ -84.437915336046331, 39.159029676010157 ], [ -84.438229190189119, 39.158911012307087 ], [ -84.438957946584253, 39.158704213576314 ], [ -84.439748465941904, 39.158550261680318 ], [ -84.439651784348641, 39.158169821672814 ], [ -84.439639336111185, 39.157631442748759 ], [ -84.439724174283242, 39.156809030289182 ], [ -84.439846505035575, 39.156279977963848 ], [ -84.439938359643335, 39.156067866925952 ], [ -84.440738240066537, 39.155287469624163 ], [ -84.441207407416741, 39.154711612277495 ], [ -84.441414428228413, 39.154405577684159 ], [ -84.441277932264171, 39.154396275910258 ], [ -84.44132947548178, 39.154281590201798 ], [ -84.441480556147837, 39.154291794741425 ], [ -84.441434378069843, 39.154371391475919 ], [ -84.441485416288543, 39.154283931807718 ], [ -84.441522202226011, 39.154213287113727 ], [ -84.441768415786456, 39.154648967655255 ], [ -84.442161218697535, 39.155091477161754 ], [ -84.442054737422637, 39.155085048417966 ], [ -84.441989866411859, 39.155151968048997 ], [ -84.442180590347974, 39.155163338643852 ], [ -84.442198647312452, 39.155122940371896 ], [ -84.442252133180673, 39.155167388011321 ], [ -84.442197145298252, 39.155639703863763 ], [ -84.442460708028818, 39.15571719463744 ], [ -84.442481987839969, 39.155512419679418 ], [ -84.442766665448673, 39.155528895535291 ], [ -84.442745118542078, 39.155746043201731 ], [ -84.443193036043084, 39.155772264769972 ], [ -84.443196307472945, 39.155739236021262 ], [ -84.443368101227918, 39.155804364764101 ], [ -84.443358396474366, 39.155902238608206 ], [ -84.443747590185538, 39.155925699379679 ], [ -84.443740340143336, 39.155999823597789 ], [ -84.445264441846973, 39.15609006625224 ], [ -84.445267894838324, 39.156054780091409 ], [ -84.445445531562001, 39.156038622559777 ], [ -84.445439036077431, 39.156102959026228 ], [ -84.445472862369172, 39.156105034279797 ], [ -84.445507475799943, 39.156604187134327 ], [ -84.445449573089675, 39.157006352796905 ], [ -84.445627284356092, 39.157016837621207 ], [ -84.445664870162972, 39.157109338712786 ], [ -84.445636908488495, 39.157175149467328 ], [ -84.44548982381545, 39.157166184475813 ], [ -84.445447571641267, 39.157578181283611 ], [ -84.445411427627846, 39.157575560223165 ], [ -84.445369146916974, 39.157987429508353 ], [ -84.445491753836791, 39.157995041205901 ], [ -84.445443926587174, 39.158572072479224 ], [ -84.445167284405343, 39.158554951920117 ], [ -84.445152966675622, 39.158692346605022 ], [ -84.445578019452924, 39.158718815762278 ], [ -84.445550193099777, 39.158993097020854 ], [ -84.445700803067112, 39.159002486456323 ], [ -84.445942434558361, 39.159418167434033 ], [ -84.446338886039541, 39.159857696545714 ], [ -84.446576592524806, 39.160052730683361 ], [ -84.446938334589859, 39.160284175502184 ] ], [ [ -84.440240042925666, 39.171317170506811 ], [ -84.440240030834218, 39.171317289836907 ], [ -84.440240043487435, 39.17131717086545 ], [ -84.440240042925666, 39.171317170506811 ] ] ], [ [ [ -84.458272721841482, 39.173160045484082 ], [ -84.458442008322677, 39.173226587447346 ], [ -84.458443479898435, 39.173212696356615 ], [ -84.458795960309388, 39.173232386199828 ], [ -84.458786493023311, 39.17332276441806 ], [ -84.459137955195743, 39.173343814738637 ], [ -84.459118749105698, 39.173525930048314 ], [ -84.459006055903231, 39.17351941737823 ], [ -84.45921934915431, 39.173664257627443 ], [ -84.459201952908543, 39.173834552125172 ], [ -84.458737195239109, 39.178162814225772 ], [ -84.458632854822312, 39.178158213231583 ], [ -84.458614444172639, 39.178334320355908 ], [ -84.458592091347811, 39.178340380459225 ], [ -84.458223739469631, 39.178314034654321 ], [ -84.458010819732181, 39.178220280232843 ], [ -84.457870091089944, 39.178190552730719 ], [ -84.457838070741062, 39.178158216179014 ], [ -84.457766203832193, 39.178153664515044 ], [ -84.45776019535289, 39.178211133277493 ], [ -84.457670654422245, 39.178205461615633 ], [ -84.457030777407326, 39.178650531007314 ], [ -84.457024050172862, 39.178714868578282 ], [ -84.457773352547605, 39.178762328347339 ], [ -84.457734726972049, 39.179131769568386 ], [ -84.457699566267664, 39.179129541909205 ], [ -84.45773533107085, 39.178787467647297 ], [ -84.45698602845377, 39.178740007632804 ], [ -84.457033745360803, 39.178283658562698 ], [ -84.45631865492372, 39.178616273557893 ], [ -84.456224915800988, 39.178516697932402 ], [ -84.456104241231287, 39.178439831428214 ], [ -84.45595496489274, 39.178387113042 ], [ -84.455743939350228, 39.178360176040151 ], [ -84.455620204500008, 39.178303513055035 ], [ -84.455496940220414, 39.178334555010849 ], [ -84.455455326531961, 39.178385636146899 ], [ -84.455451219370303, 39.178446035670568 ], [ -84.455303999950118, 39.178469966809445 ], [ -84.455073798380695, 39.178076633638184 ], [ -84.455150488044396, 39.177926057420258 ], [ -84.449209950477993, 39.177514940349859 ], [ -84.449251059199597, 39.176994728309232 ], [ -84.445714458497889, 39.176758679677654 ], [ -84.445780001444049, 39.176118015255824 ], [ -84.445922833227243, 39.17616496317325 ], [ -84.445982498784687, 39.176038518644688 ], [ -84.446007314713171, 39.175758449293689 ], [ -84.445792558731625, 39.175745426600621 ], [ -84.445775935846612, 39.175674398693438 ], [ -84.446154101540728, 39.175697683185739 ], [ -84.446164097114433, 39.175601916610383 ], [ -84.446109141850386, 39.175598358831529 ], [ -84.446115764469681, 39.175528849294501 ], [ -84.446054779352011, 39.17552570711068 ], [ -84.446064719881207, 39.175432045323696 ], [ -84.446264264452424, 39.175442563843234 ], [ -84.446440200402861, 39.175097309253196 ], [ -84.446698695648735, 39.175177810261815 ], [ -84.446838649405464, 39.175073035667317 ], [ -84.446807362063453, 39.175063363010622 ], [ -84.447016007952826, 39.17468855046782 ], [ -84.447295675068034, 39.174746101034664 ], [ -84.447335781737408, 39.17433940851695 ], [ -84.448434282297995, 39.174406038527351 ], [ -84.448905026757359, 39.174341877294168 ], [ -84.449257498952221, 39.174328962871186 ], [ -84.449609865326707, 39.174343522150593 ], [ -84.450774189399269, 39.174430587283538 ], [ -84.451121830740405, 39.174492334698243 ], [ -84.451448239586568, 39.17457807671056 ], [ -84.452576229600282, 39.174649297250937 ], [ -84.452592815796407, 39.174611394355658 ], [ -84.452726609421347, 39.174658791686433 ], [ -84.452692602726316, 39.174656644803328 ], [ -84.452647825107306, 39.17507293207958 ], [ -84.45475195070243, 39.175202644196524 ], [ -84.454766605730853, 39.175065193969942 ], [ -84.454907034956349, 39.175074142193182 ], [ -84.454920452217863, 39.174950507280052 ], [ -84.455313814961812, 39.174974140082888 ], [ -84.455276724775572, 39.17484752677656 ], [ -84.455723323965159, 39.174761494824523 ], [ -84.455917444650723, 39.174703571743919 ], [ -84.455923042342903, 39.174768801426211 ], [ -84.456331206806468, 39.174791492799542 ], [ -84.456356141427818, 39.174544388777228 ], [ -84.456543358309943, 39.174452985991294 ], [ -84.456535876173461, 39.174526481530215 ], [ -84.456887270650256, 39.174544458439406 ], [ -84.456914871757292, 39.174272017038021 ], [ -84.457266804143956, 39.17429143523281 ], [ -84.457304065554197, 39.17393445847415 ], [ -84.457695841918451, 39.173498839110579 ], [ -84.457741003670904, 39.17350139931542 ], [ -84.457736972080966, 39.173537804268122 ], [ -84.457878035170523, 39.173545539806952 ], [ -84.457917271488611, 39.173172812761003 ], [ -84.458268301870731, 39.173201835230941 ], [ -84.458272721841482, 39.173160045484082 ] ] ], [ [ [ -84.459896628651862, 39.146769092826609 ], [ -84.459798520309661, 39.147689105926489 ], [ -84.459446887235785, 39.147665676716422 ], [ -84.459413148277648, 39.147981592078992 ], [ -84.459125623512293, 39.147962457981372 ], [ -84.45898821914308, 39.148146978829999 ], [ -84.459023269866222, 39.148149311164929 ], [ -84.458993887554257, 39.148424027743374 ], [ -84.459187485384945, 39.148436907345875 ], [ -84.45917285584315, 39.14857426551859 ], [ -84.458644919337587, 39.148539144150206 ], [ -84.45864881618138, 39.148502785148295 ], [ -84.458416072383613, 39.148689712163829 ], [ -84.458374738007905, 39.149074473731439 ], [ -84.457846526055476, 39.149039509201152 ], [ -84.457802046183176, 39.149451347039921 ], [ -84.457391782349518, 39.149424146017658 ], [ -84.457034812831765, 39.149655605656669 ], [ -84.457014510632234, 39.149841353940253 ], [ -84.456486200094801, 39.14980655778939 ], [ -84.456448646055563, 39.150149268529262 ], [ -84.455920613304315, 39.150114545271649 ], [ -84.455923479345998, 39.150088362674822 ], [ -84.455517434032856, 39.150171073825497 ], [ -84.455504605636989, 39.15028250639957 ], [ -84.454314195713096, 39.150191950162657 ], [ -84.45429750259693, 39.150339964197258 ], [ -84.453350389018652, 39.150278952571988 ], [ -84.453356746810712, 39.150222093408644 ], [ -84.453181651758015, 39.150217113605123 ], [ -84.453176296435188, 39.150264875032981 ], [ -84.452228912205797, 39.150202328920976 ], [ -84.452242730419655, 39.150077770478809 ], [ -84.452071318014887, 39.150026157541916 ], [ -84.452068119378211, 39.150055357974537 ], [ -84.451596031936077, 39.15002430080574 ], [ -84.45161112599979, 39.14988712615876 ], [ -84.451137261532878, 39.149855032057161 ], [ -84.451164018937817, 39.149613382495211 ], [ -84.4509993931471, 39.149504033238962 ], [ -84.450992084826169, 39.149570405979446 ], [ -84.450519080855656, 39.149539916735215 ], [ -84.450534234872151, 39.149402745751814 ], [ -84.450410493717158, 39.14939545495465 ], [ -84.450424164337122, 39.149285389771336 ], [ -84.450387955089241, 39.149283149850703 ], [ -84.450406243558547, 39.149119060668689 ], [ -84.450559578754806, 39.149128922847844 ], [ -84.450402193129207, 39.148953404487749 ], [ -84.450108505924888, 39.148933483725109 ], [ -84.450152364473951, 39.148584617975644 ], [ -84.449919690228199, 39.148090905592234 ], [ -84.449833978938969, 39.147753318167197 ], [ -84.451608925325445, 39.147082772440797 ], [ -84.451676440845944, 39.147088866930218 ], [ -84.451710544049604, 39.147139944945508 ], [ -84.451891349030319, 39.147128598494795 ], [ -84.452462267231382, 39.146976953869171 ], [ -84.452484202840452, 39.146838930394104 ], [ -84.452155924274706, 39.146802172582468 ], [ -84.452248161565663, 39.146302878270305 ], [ -84.452590000373974, 39.146294479296408 ], [ -84.452570314358894, 39.145903936850402 ], [ -84.4526230702851, 39.145901868968998 ], [ -84.452642789187635, 39.146293043368466 ], [ -84.45352543235991, 39.146271066274437 ], [ -84.453701102536542, 39.146234715653733 ], [ -84.453725494993591, 39.146412906228726 ], [ -84.454327107208499, 39.145991572524366 ], [ -84.454638804063507, 39.145828014608938 ], [ -84.454654485697688, 39.145692918031067 ], [ -84.454652032502125, 39.145714044017524 ], [ -84.454122541906941, 39.145841851737664 ], [ -84.454064826050498, 39.145786487691225 ], [ -84.45426297394863, 39.145510344512559 ], [ -84.454664636847724, 39.145605511650878 ], [ -84.454659120607218, 39.145653003920465 ], [ -84.45475475977436, 39.145681184807529 ], [ -84.454911089946791, 39.145626877708828 ], [ -84.455771362695245, 39.145888322202445 ], [ -84.455713098809014, 39.145923906636817 ], [ -84.455771556687452, 39.145943086163498 ], [ -84.455640965932517, 39.146034656894436 ], [ -84.456188501233058, 39.146196308399283 ], [ -84.456794083379407, 39.14614728919765 ], [ -84.457149375129987, 39.146211095765743 ], [ -84.457114133233659, 39.146342938685706 ], [ -84.45824698513006, 39.146390986051919 ], [ -84.458585532864234, 39.146421653329675 ], [ -84.458587886643713, 39.146446207661434 ], [ -84.459524605104789, 39.146486857899333 ], [ -84.459533258567618, 39.146744887378723 ], [ -84.459896628651862, 39.146769092826609 ] ], [ [ -84.452650607743195, 39.146857574889999 ], [ -84.4526141100377, 39.146874137603746 ], [ -84.452862424741042, 39.14676151577806 ], [ -84.452650607743195, 39.146857574889999 ] ] ], [ [ [ -84.454650796644458, 39.157126146247222 ], [ -84.454753200371144, 39.157016549943222 ], [ -84.454435510093859, 39.156749740263884 ], [ -84.455080410501679, 39.156287407750263 ], [ -84.455353689190517, 39.156516316588032 ], [ -84.455500493130728, 39.156429338904296 ], [ -84.455526079652515, 39.156259849146863 ], [ -84.455337969176895, 39.156102753471437 ], [ -84.455630224738854, 39.155892737060356 ], [ -84.455825881143454, 39.155491932649383 ], [ -84.45568560801712, 39.155592209313056 ], [ -84.455399262173259, 39.155352087928776 ], [ -84.4556564158746, 39.155166548580041 ], [ -84.455902813910271, 39.155373015122258 ], [ -84.455991608612109, 39.155244180294957 ], [ -84.455867670422265, 39.155139421378991 ], [ -84.456387867742833, 39.1547485588261 ], [ -84.456382302968919, 39.154933564065388 ], [ -84.456725239574126, 39.154956199324758 ], [ -84.456686489171432, 39.155342794153889 ], [ -84.457040209006152, 39.155362815627036 ], [ -84.457069704216252, 39.155091835944447 ], [ -84.457243021654705, 39.155172490965043 ], [ -84.457218997109948, 39.155374721584273 ], [ -84.458007425648816, 39.15541955869962 ], [ -84.458441717157086, 39.155495253697865 ], [ -84.458961177995718, 39.155542644395638 ], [ -84.459307952871484, 39.155543098930728 ], [ -84.459993306383552, 39.155464698650349 ], [ -84.460645750478136, 39.155283498355637 ], [ -84.46106790332972, 39.15509598653766 ], [ -84.461062980176607, 39.155147271327202 ], [ -84.461597110232319, 39.155183336443947 ], [ -84.461638411908311, 39.154796326033946 ], [ -84.461564845785134, 39.154791186534219 ], [ -84.461808910884926, 39.154591728157328 ], [ -84.461783867321202, 39.154806487627241 ], [ -84.461964941650791, 39.154819136868959 ], [ -84.462006208385645, 39.15443348379479 ], [ -84.462398501582655, 39.154461731926709 ], [ -84.462362239630409, 39.154809715713675 ], [ -84.462523544941632, 39.154967558893169 ], [ -84.462525092259256, 39.154952797722054 ], [ -84.462913309138884, 39.154977392862847 ], [ -84.462883213612812, 39.155268771466773 ], [ -84.46276440084273, 39.155260875850587 ], [ -84.462868515380578, 39.155418342030622 ], [ -84.46301355509587, 39.155427196154925 ], [ -84.462992869716814, 39.155649307127838 ], [ -84.463133306803556, 39.156032829890457 ], [ -84.463095435845261, 39.156441293972073 ], [ -84.462899977592031, 39.156647207130746 ], [ -84.46291127040196, 39.156525884071321 ], [ -84.462306025242285, 39.15648898926797 ], [ -84.462228345857625, 39.157312986617356 ], [ -84.462475283758408, 39.15732836806221 ], [ -84.462420554484595, 39.157463212465352 ], [ -84.46221516493064, 39.157450311596392 ], [ -84.462182709359013, 39.157794056215707 ], [ -84.462203780883186, 39.15779541286782 ], [ -84.462045843416064, 39.158119343097205 ], [ -84.461538880655681, 39.158087376727487 ], [ -84.461527323849225, 39.158198464239071 ], [ -84.460885378355044, 39.158060021255459 ], [ -84.460540420769277, 39.158026436146976 ], [ -84.459770266610548, 39.157981318055946 ], [ -84.459326562295715, 39.157979814091348 ], [ -84.458887512299739, 39.157929597853787 ], [ -84.457640481920578, 39.157869865306452 ], [ -84.456952160992188, 39.157935472950506 ], [ -84.456617543406651, 39.158007441413076 ], [ -84.455989642245967, 39.158223848589572 ], [ -84.454650796644458, 39.157126146247222 ] ] ], [ [ [ -84.469949715191376, 39.154329283783035 ], [ -84.470964132539251, 39.154407592836087 ], [ -84.471663918983197, 39.157246009107823 ], [ -84.472131991072644, 39.158997812249275 ], [ -84.47154614911237, 39.160153073357314 ], [ -84.471789266117696, 39.161088249182086 ], [ -84.471740545682508, 39.161569031667362 ], [ -84.473299750307817, 39.161654734645282 ], [ -84.473695192304859, 39.16181730445507 ], [ -84.473583741055734, 39.162047858420927 ], [ -84.473411849548299, 39.162283083879892 ], [ -84.47302195392156, 39.162103407890811 ], [ -84.472705665096441, 39.1619954564663 ], [ -84.472040101136557, 39.161854149840693 ], [ -84.471643019301993, 39.161819177633042 ], [ -84.471660868365078, 39.161639746540025 ], [ -84.471221332644021, 39.16161324747204 ], [ -84.4712032502662, 39.161795058796812 ], [ -84.470824733119727, 39.161787551751083 ], [ -84.470505224243567, 39.161806723134838 ], [ -84.470528628525912, 39.161571481435303 ], [ -84.470166452641209, 39.161549642117755 ], [ -84.470138845298592, 39.161827121175008 ], [ -84.470280611284366, 39.161835669736661 ], [ -84.469951702383298, 39.161896027211789 ], [ -84.469953328093425, 39.161879732101809 ], [ -84.469635951711368, 39.161860635049692 ], [ -84.46962372840018, 39.161983054723549 ], [ -84.469174432602557, 39.162147640655547 ], [ -84.468819695006673, 39.162331032311045 ], [ -84.468821554829034, 39.162310650808294 ], [ -84.468294330947373, 39.162276690261521 ], [ -84.468261620967894, 39.162635125937648 ], [ -84.468071362746784, 39.162622869986883 ], [ -84.468046728451924, 39.162896764132917 ], [ -84.467577918178762, 39.16286656362427 ], [ -84.467806527002168, 39.163251510670548 ], [ -84.467760787811315, 39.163317403285433 ], [ -84.467647103212386, 39.163309681190448 ], [ -84.46768710687968, 39.163423443073555 ], [ -84.46725273815224, 39.163394021864967 ], [ -84.46723206444382, 39.163282565619731 ], [ -84.467002272213819, 39.163267551935029 ], [ -84.466814544038172, 39.162952759601239 ], [ -84.466174075300444, 39.162911032063406 ], [ -84.466007802775977, 39.162625829864439 ], [ -84.466644272659693, 39.162667236850034 ], [ -84.466560398609218, 39.162526590748897 ], [ -84.46722086395846, 39.162569572596766 ], [ -84.46702925601673, 39.162240725720551 ], [ -84.467314677389737, 39.162073912990728 ], [ -84.467942365405875, 39.162114242045959 ], [ -84.467975411045416, 39.161759560704013 ], [ -84.468367384868429, 39.161784757456381 ], [ -84.468402920087996, 39.161430244522911 ], [ -84.468272902888501, 39.161421883354706 ], [ -84.468415697470391, 39.16129370169007 ], [ -84.468784343132384, 39.161316741817934 ], [ -84.468841941360125, 39.160900229180243 ], [ -84.46876191853795, 39.160894870091859 ], [ -84.468975327240827, 39.160548461877241 ], [ -84.469084637939744, 39.16029105083512 ], [ -84.469160806483231, 39.160026501758054 ], [ -84.469216426486554, 39.159614104568128 ], [ -84.469360801896698, 39.159293527979401 ], [ -84.469436465653729, 39.15902801507503 ], [ -84.469511954241852, 39.158379418980282 ], [ -84.46949318907312, 39.157847135973718 ], [ -84.469434212447908, 39.157584564522956 ], [ -84.469219846939552, 39.157078911994532 ], [ -84.46888415329451, 39.156614982633691 ], [ -84.468653630457894, 39.156386885172196 ], [ -84.468665669790255, 39.156248764253966 ], [ -84.468561814227471, 39.156227203665836 ], [ -84.468589094530174, 39.156194598612799 ], [ -84.468173008249337, 39.155900274422926 ], [ -84.468160491058285, 39.156022988916583 ], [ -84.467986006382375, 39.155925857328647 ], [ -84.467999780925894, 39.155777684938435 ], [ -84.467617944339793, 39.155751553543347 ], [ -84.467295186733367, 39.155636314454952 ], [ -84.466778733365118, 39.155514651536969 ], [ -84.466800485894296, 39.155310978553779 ], [ -84.466624944810448, 39.155298055573432 ], [ -84.466640451841826, 39.155152863338373 ], [ -84.466284640147919, 39.155126617499704 ], [ -84.46631119218786, 39.154853574954267 ], [ -84.466845367617026, 39.154888822246058 ], [ -84.466831331568685, 39.155022971604637 ], [ -84.467025709558314, 39.154891708291011 ], [ -84.467058531712411, 39.154544672097053 ], [ -84.467228115634498, 39.154771530622561 ], [ -84.467405554800081, 39.154686298853306 ], [ -84.467337090305563, 39.154593539740134 ], [ -84.467800456660058, 39.154387842239352 ], [ -84.467848567823268, 39.154452951309857 ], [ -84.468310270131084, 39.154251803968656 ], [ -84.468396214082475, 39.15436862307255 ], [ -84.468855497611656, 39.154303653632695 ], [ -84.469170898993369, 39.154290006360966 ], [ -84.469124268495833, 39.154226118496574 ], [ -84.469715052381176, 39.153958621045433 ], [ -84.469975358130171, 39.154210918416027 ], [ -84.469999335655814, 39.154306495430227 ], [ -84.469949715191376, 39.154329283783035 ] ] ], [ [ [ -84.468274404781624, 39.162723727687023 ], [ -84.468282253681366, 39.162636454349915 ], [ -84.468365931079234, 39.162641446082837 ], [ -84.468360588402788, 39.16264543200375 ], [ -84.468274404781624, 39.162723727687023 ] ] ] ] } }
]
}
