{
"type": "FeatureCollection",
"name": "delta_golf_manor_habitable",
"crs": { "type": "name", "properties": { "name": "urn:ogc:def:crs:OGC:1.3:CRS84" } },
"features": [
{ "type": "Feature", "properties": { "name": "delta_golf_manor_habitable", "city": "golf_manor", "extract_date": "2026-08-25", "crs": "EPSG:3735", "kind": "parcel_extended_delta", "definition": "union(golf_manor extra buffers, habitable parcels intersecting them) minus parcel-extended restricted_state", "simplify_ft": 5.0, "display_only": false }, "geometry": { "type": "MultiPolygon", "coordinates": [ [ [ [ -84.442084533878017, 39.187294483457386 ], [ -84.442576864479307, 39.187325567730042 ], [ -84.442538290497851, 39.187627567177785 ], [ -84.442924074400125, 39.187651882649682 ], [ -84.442888178975736, 39.187953228285139 ], [ -84.442841788501369, 39.1879502502739 ], [ -84.442950713725097, 39.188092791751103 ], [ -84.44326432699178, 39.188112529851743 ], [ -84.443228271269177, 39.188413184506764 ], [ -84.443415908686305, 39.188424217909379 ], [ -84.443380471094201, 39.188809864174715 ], [ -84.443359367529581, 39.188808698297279 ], [ -84.443403445230587, 39.188946860153237 ], [ -84.443568444628156, 39.188957064543956 ], [ -84.443488113219303, 39.189800727626093 ], [ -84.44358693638921, 39.189806923506488 ], [ -84.443553108506165, 39.19013523244363 ], [ -84.443448889673292, 39.190128543965272 ], [ -84.443415203949201, 39.190456454012406 ], [ -84.443315358932267, 39.190450173943944 ], [ -84.443242792392709, 39.190609886890108 ], [ -84.443266369877662, 39.19061138209387 ], [ -84.443233869949665, 39.190953654063527 ], [ -84.443032275160945, 39.190940868524784 ], [ -84.442980326465104, 39.191009194930231 ], [ -84.442969271588595, 39.191281205572636 ], [ -84.442752006776146, 39.19126742563315 ], [ -84.442611923550572, 39.19139627320979 ], [ -84.442731206442218, 39.191403839459163 ], [ -84.442698703516015, 39.191746110347523 ], [ -84.442347037540159, 39.191723804869817 ], [ -84.442359109916197, 39.191596688756441 ], [ -84.442187196594531, 39.191713666035618 ], [ -84.439277187972678, 39.191529044495311 ], [ -84.439239640564381, 39.191940058705789 ], [ -84.438205225815679, 39.191874247747457 ], [ -84.438240662420938, 39.191463265628379 ], [ -84.438219043380528, 39.191708459805533 ], [ -84.43730875698607, 39.192211912843689 ], [ -84.437155641082924, 39.192083341238053 ], [ -84.43694825886304, 39.191984329947104 ], [ -84.437271571237233, 39.191407545645788 ], [ -84.437711944792909, 39.191426857728977 ], [ -84.437735844785237, 39.191097013022159 ], [ -84.437818816048335, 39.191083671574553 ], [ -84.437885287108429, 39.191042791125668 ], [ -84.437927394003964, 39.190925002097444 ], [ -84.438287623962083, 39.19094812746647 ], [ -84.43832310634194, 39.190558899286614 ], [ -84.437956329342242, 39.19053966494242 ], [ -84.437966727126707, 39.190421897560611 ], [ -84.438023333901299, 39.190343907761097 ], [ -84.438099967434198, 39.190311881225213 ], [ -84.438348541373855, 39.190279898617966 ], [ -84.438356968909673, 39.190137942060176 ], [ -84.438181951317915, 39.190188314912184 ], [ -84.438213046735612, 39.189820274198418 ], [ -84.437954952329974, 39.189807517042624 ], [ -84.437998865278672, 39.189194371557186 ], [ -84.437956079222744, 39.189101713217674 ], [ -84.438499930271661, 39.188765138646311 ], [ -84.437549380398778, 39.188716488312799 ], [ -84.437597963586086, 39.188237491424225 ], [ -84.438548507013294, 39.188286141362354 ], [ -84.438543381901653, 39.188336679826044 ], [ -84.438588018142326, 39.187896540177732 ], [ -84.43868898285109, 39.18769765698142 ], [ -84.438764966791766, 39.186688323217219 ], [ -84.438876767102386, 39.186673919249685 ], [ -84.438892098118544, 39.186517122035994 ], [ -84.439367181502277, 39.186548222561747 ], [ -84.439381219030281, 39.186405095461751 ], [ -84.440788525095513, 39.186447391061193 ], [ -84.440754040003725, 39.186770847375485 ], [ -84.441740108619882, 39.186832645768128 ], [ -84.441711223333812, 39.187093355798524 ], [ -84.442084533878017, 39.187294483457386 ] ], [ [ -84.438348541373813, 39.190279898618556 ], [ -84.438346775041595, 39.190299263716547 ], [ -84.438347005913229, 39.190299278368407 ], [ -84.438348541373813, 39.190279898618556 ] ], [ [ -84.438753034546323, 39.191495782389872 ], [ -84.438742484408976, 39.191495112867784 ], [ -84.438753034544575, 39.191495782408275 ], [ -84.438753034546323, 39.191495782389872 ] ] ], [ [ [ -84.447027139461071, 39.188212297302435 ], [ -84.446673043270721, 39.188188034836557 ], [ -84.446697945834472, 39.187897811365481 ], [ -84.447213781825624, 39.187928615111694 ], [ -84.447210824731485, 39.187963151080318 ], [ -84.447406144055279, 39.187748899224154 ], [ -84.447414709942606, 39.187651626141985 ], [ -84.447376736047659, 39.188085334116053 ], [ -84.447138254755373, 39.188355030262592 ], [ -84.446952671021947, 39.188343283183947 ], [ -84.447027139461071, 39.188212297302435 ] ] ], [ [ [ -84.449768989079772, 39.186718798457683 ], [ -84.44994495628994, 39.186709571211345 ], [ -84.449953749679679, 39.186618866416005 ], [ -84.45045716994305, 39.186650907668025 ], [ -84.450460633234442, 39.186615930839778 ], [ -84.450890826234328, 39.186639343392322 ], [ -84.450882862993879, 39.186735556365484 ], [ -84.451068206729431, 39.186747876545105 ], [ -84.451077141372636, 39.18665348965974 ], [ -84.451524920885404, 39.186663296193323 ], [ -84.451510960750198, 39.186802062883793 ], [ -84.451769675217434, 39.186830925502399 ], [ -84.451767887103287, 39.18685156401888 ], [ -84.451981611317379, 39.186907529489602 ], [ -84.452651116230825, 39.186899798428826 ], [ -84.454191059342193, 39.187012902343483 ], [ -84.454016850922642, 39.188224993766795 ], [ -84.453991185237172, 39.188223630336253 ], [ -84.453944901218861, 39.188530446950985 ], [ -84.453762297878882, 39.188412907909417 ], [ -84.453411662020272, 39.188030262539257 ], [ -84.452915395441522, 39.187660926952937 ], [ -84.452336602382829, 39.187373393230985 ], [ -84.451738615578293, 39.187189392036125 ], [ -84.451752871668006, 39.187024868412884 ], [ -84.45104523957005, 39.186990517915831 ], [ -84.45103626849577, 39.187085288520478 ], [ -84.450853180566767, 39.187073178201238 ], [ -84.450858796246123, 39.187019280687267 ], [ -84.450423389391602, 39.186994185152081 ], [ -84.450418399656812, 39.18704253338354 ], [ -84.449915938069921, 39.187008925168449 ], [ -84.449912220542473, 39.187047273630625 ], [ -84.449734837982106, 39.187056789538424 ], [ -84.449740087222821, 39.186997777215254 ], [ -84.449238360899272, 39.186964270850716 ], [ -84.449227307437781, 39.18707861075994 ], [ -84.448725557372327, 39.187045927895426 ], [ -84.448704098340571, 39.187279577361409 ], [ -84.448521206592432, 39.18735055936812 ], [ -84.44852912561845, 39.187263873647588 ], [ -84.448032847762931, 39.187230951699853 ], [ -84.448065562158177, 39.186886419896929 ], [ -84.448560565506668, 39.18691968653436 ], [ -84.448552050377458, 39.187012904942478 ], [ -84.448736137477695, 39.186930730129255 ], [ -84.449151600218528, 39.186821334572542 ], [ -84.448749224065978, 39.186795159899759 ], [ -84.448763665247498, 39.18664911431101 ], [ -84.449768989079772, 39.186718798457683 ] ] ], [ [ [ -84.448032847762931, 39.187230951699853 ], [ -84.448000165169432, 39.187575138755577 ], [ -84.447424810686627, 39.187536262692902 ], [ -84.447454958754463, 39.187191927376972 ], [ -84.447977777502842, 39.187226292852181 ], [ -84.447988697781312, 39.187111084059637 ], [ -84.448015814080875, 39.187113801192162 ], [ -84.448004663114489, 39.187229081437167 ], [ -84.448032847762931, 39.187230951699853 ] ] ] ] } }
]
}
