{
"type": "FeatureCollection",
"name": "extras_norwood_simplified",
"crs": { "type": "name", "properties": { "name": "urn:ogc:def:crs:OGC:1.3:CRS84" } },
"features": [
{ "type": "Feature", "properties": { "name": "extras_norwood", "extract_date": "2026-08-25", "crs": "EPSG:3735", "city": "norwood" }, "geometry": { "type": "MultiPolygon", "coordinates": [ [ [ [ -84.456538567810824, 39.149896727711869 ], [ -84.455088223127831, 39.150218089283527 ], [ -84.452945162468794, 39.150203674855469 ], [ -84.451942520246149, 39.149987375819691 ], [ -84.451064595926638, 39.149552660593343 ], [ -84.450587001761519, 39.149159505205979 ], [ -84.450078369741249, 39.148452810925562 ], [ -84.449833978938969, 39.147753318167197 ], [ -84.451608925325431, 39.147082772440797 ], [ -84.451891349030319, 39.147128598494781 ], [ -84.452936965900932, 39.146777913788945 ], [ -84.454638804063507, 39.145828014608938 ], [ -84.45465911886437, 39.145653003406927 ], [ -84.454911089946791, 39.145626877708828 ], [ -84.455771362695245, 39.145888322202445 ], [ -84.455640965932517, 39.146034656894422 ], [ -84.456188501233058, 39.146196308399297 ], [ -84.456794083379407, 39.146147289197657 ], [ -84.457149375129987, 39.146211095765743 ], [ -84.457114133233659, 39.146342938685706 ], [ -84.459524605104789, 39.146486857899347 ], [ -84.459357566670022, 39.147543851453634 ], [ -84.45889251721033, 39.148264854716111 ], [ -84.457382701821928, 39.149431604046626 ], [ -84.456538567810824, 39.149896727711869 ] ] ], [ [ [ -84.455500493130728, 39.156429338904296 ], [ -84.455943319645556, 39.155310403882154 ], [ -84.456792198017212, 39.154388023999346 ], [ -84.457644224195434, 39.15392386206819 ], [ -84.458633072031333, 39.15367335415452 ], [ -84.46001497899374, 39.153706403446819 ], [ -84.461732304424487, 39.154355769142164 ], [ -84.462658813114587, 39.155116792073073 ], [ -84.462965474421878, 39.155586289216167 ], [ -84.463196168200199, 39.156351146726131 ], [ -84.463812966570273, 39.155921740316778 ], [ -84.464749653803608, 39.155561837057881 ], [ -84.465432007611554, 39.155448210753939 ], [ -84.466343666601119, 39.155457583234842 ], [ -84.467229127672709, 39.154770929727654 ], [ -84.468170620352254, 39.15441425577982 ], [ -84.46920511677726, 39.154288525721405 ], [ -84.470964132539251, 39.15440759283608 ], [ -84.472131991072644, 39.158997812249275 ], [ -84.47154614911237, 39.160153073357314 ], [ -84.471789266117696, 39.161088249182086 ], [ -84.471740545682508, 39.161569031667348 ], [ -84.473299750307817, 39.161654734645282 ], [ -84.473695192304859, 39.16181730445507 ], [ -84.473583741055734, 39.162047858420927 ], [ -84.472386332641875, 39.163602341036224 ], [ -84.467470882504074, 39.163298168755851 ], [ -84.466369374325168, 39.162527242730221 ], [ -84.465900524731111, 39.161825689120441 ], [ -84.465739040122827, 39.161304703162074 ], [ -84.464492929002617, 39.161108816824317 ], [ -84.463464821767971, 39.160615756092739 ], [ -84.463176201718142, 39.161552948996437 ], [ -84.462866101788606, 39.162038828309974 ], [ -84.462439326914108, 39.162467749105843 ], [ -84.461617939805294, 39.16296846527144 ], [ -84.46098070974611, 39.163188159012805 ], [ -84.459952403889005, 39.163325149269561 ], [ -84.458231235465917, 39.163220945672194 ], [ -84.457571012857997, 39.163077239627654 ], [ -84.456418255736736, 39.162508749230525 ], [ -84.455574794967347, 39.161534413726372 ], [ -84.454613568360585, 39.160937867898298 ], [ -84.454205728594104, 39.16049235352255 ], [ -84.453825642986601, 39.159728766724228 ], [ -84.453751732346745, 39.158911873508679 ], [ -84.453990561282225, 39.158114344527078 ], [ -84.454650796644458, 39.157126146247222 ], [ -84.455500493130728, 39.156429338904296 ] ] ], [ [ [ -84.452351624013914, 39.174982468193249 ], [ -84.453353479877876, 39.173681591140117 ], [ -84.453881776114201, 39.173333703256652 ], [ -84.454811568061146, 39.172978224909834 ], [ -84.45583392389193, 39.172848303341738 ], [ -84.457014232692885, 39.172904118824263 ], [ -84.457700955487184, 39.172993935573388 ], [ -84.458655446581503, 39.173320062373016 ], [ -84.45921934915431, 39.173664257627429 ], [ -84.458737195239109, 39.178162814225772 ], [ -84.449209950477993, 39.177514940349859 ], [ -84.449251059199597, 39.176994728309232 ], [ -84.445746787011629, 39.17676086505854 ], [ -84.445961813800167, 39.176074286153138 ], [ -84.4464888387689, 39.175362856857539 ], [ -84.447262586374208, 39.174804559884329 ], [ -84.447882036053997, 39.174542806657733 ], [ -84.44855597542356, 39.17438213620342 ], [ -84.449609865326693, 39.174343522150586 ], [ -84.451121830740405, 39.174492334698243 ], [ -84.452351624013914, 39.174982468193249 ] ] ], [ [ [ -84.4458314424637, 39.151811928832913 ], [ -84.446994310668472, 39.152390059226349 ], [ -84.447783291014659, 39.153271343076653 ], [ -84.448077595811526, 39.154320878885315 ], [ -84.447919621220137, 39.155461382287193 ], [ -84.448494163878649, 39.156299717292292 ], [ -84.448664649419214, 39.157095958560916 ], [ -84.448522395246044, 39.158458403376542 ], [ -84.448191374572517, 39.15921955313042 ], [ -84.447591460042574, 39.159873484619922 ], [ -84.446504627898364, 39.160468359775258 ], [ -84.446740149800931, 39.161826805074767 ], [ -84.446691809236313, 39.162858694924417 ], [ -84.446456547429619, 39.163639585017783 ], [ -84.445893183650256, 39.164377132261947 ], [ -84.447937524519745, 39.16455435424632 ], [ -84.448883450273613, 39.164891462992642 ], [ -84.449425578264496, 39.165229968601729 ], [ -84.449871922410281, 39.165644654996456 ], [ -84.450325119022423, 39.166373648676746 ], [ -84.450465929790226, 39.166903441690081 ], [ -84.450474637110631, 39.167975292325359 ], [ -84.450073936125037, 39.169013157854259 ], [ -84.449188526292659, 39.169849477227302 ], [ -84.448604729864712, 39.170149507309013 ], [ -84.446964170046783, 39.170654316207859 ], [ -84.445599123708007, 39.170799547864661 ], [ -84.445877926778692, 39.171719136578936 ], [ -84.44569637968732, 39.172753957941687 ], [ -84.444861557461834, 39.174167965064228 ], [ -84.444379855249679, 39.174762453035932 ], [ -84.443695828807108, 39.175313765293879 ], [ -84.442933884634158, 39.174642785682359 ], [ -84.443710988925417, 39.17401742168142 ], [ -84.440097253559131, 39.172722681004373 ], [ -84.440287088970663, 39.170874824570262 ], [ -84.440182713584107, 39.170779784273989 ], [ -84.440300046257917, 39.170721093112952 ], [ -84.440439127564915, 39.169290086756462 ], [ -84.44138797061764, 39.169056566174085 ], [ -84.442374359325996, 39.169040321863086 ], [ -84.442103419774639, 39.168288003930066 ], [ -84.442100313011096, 39.167503615658347 ], [ -84.442346884727826, 39.16633365271008 ], [ -84.44301054556189, 39.165368686370037 ], [ -84.441750067793834, 39.165262865218843 ], [ -84.440515304146274, 39.164892098505533 ], [ -84.439271658620797, 39.164763133789137 ], [ -84.4376805651372, 39.164125984376348 ], [ -84.437135156133039, 39.163793125027091 ], [ -84.436499171651874, 39.163155046053909 ], [ -84.436154181869753, 39.162471866692599 ], [ -84.436057205471869, 39.161594828400737 ], [ -84.436218660173907, 39.160805742781726 ], [ -84.436597404395187, 39.16084954535836 ], [ -84.437538307785132, 39.159219117504335 ], [ -84.438229190189119, 39.158911012307087 ], [ -84.439748465941904, 39.158550261680318 ], [ -84.439639336111185, 39.157631442748759 ], [ -84.439846505035575, 39.156279977963848 ], [ -84.441207407416741, 39.154711612277495 ], [ -84.441788584892933, 39.153521691950374 ], [ -84.442078620649582, 39.153205059002524 ], [ -84.44222048483438, 39.151758529406635 ], [ -84.443439257454173, 39.151563814861213 ], [ -84.44516389432674, 39.151666443133806 ], [ -84.4458314424637, 39.151811928832913 ] ] ] ] } }
]
}
