{
"type": "FeatureCollection",
"name": "extras_cincinnati_simplified",
"crs": { "type": "name", "properties": { "name": "urn:ogc:def:crs:OGC:1.3:CRS84" } },
"features": [
{ "type": "Feature", "properties": { "name": "extras_cincinnati", "extract_date": "2026-08-25", "crs": "EPSG:3735", "city": "cincinnati" }, "geometry": { "type": "MultiPolygon", "coordinates": [ [ [ [ -84.565633341558694, 39.111198181218484 ], [ -84.564879055647097, 39.111750487713628 ], [ -84.564275136964767, 39.112012889911639 ], [ -84.563275597510525, 39.11222261841435 ], [ -84.562584205285873, 39.112232004947209 ], [ -84.561481044814585, 39.112149130588648 ], [ -84.560502154749528, 39.111891254506844 ], [ -84.559661355835999, 39.111423270687112 ], [ -84.55921392259971, 39.111013776071992 ], [ -84.558877529845944, 39.110544189096295 ], [ -84.558608076422686, 39.109767005184182 ], [ -84.558835533631154, 39.107045972007548 ], [ -84.559338673837544, 39.106047960231507 ], [ -84.560294034220732, 39.105276185120367 ], [ -84.560897910291345, 39.105013803144487 ], [ -84.561897355170927, 39.104804094740317 ], [ -84.56369172806896, 39.104877577156792 ], [ -84.564970000369911, 39.105269708559781 ], [ -84.565958721585517, 39.106012848005918 ], [ -84.566417501310511, 39.106734177317456 ], [ -84.566577556253648, 39.107797256829016 ], [ -84.566337502274322, 39.10998062767316 ], [ -84.566149111570667, 39.110498966383005 ], [ -84.565633341558694, 39.111198181218484 ] ] ], [ [ [ -84.578587543031617, 39.116685848544982 ], [ -84.578190433580929, 39.116246942734222 ], [ -84.577818159311533, 39.115497233188087 ], [ -84.577789895897851, 39.114160084198559 ], [ -84.57790603313083, 39.113631350971723 ], [ -84.578320758564871, 39.112896192639418 ], [ -84.579261460997074, 39.112119719081335 ], [ -84.580179582414857, 39.111754714932751 ], [ -84.58085041880021, 39.111633855186277 ], [ -84.583524281872513, 39.11173297776341 ], [ -84.584818903301567, 39.112115886530837 ], [ -84.585824250653971, 39.112857802199393 ], [ -84.586385111664299, 39.113844190921476 ], [ -84.586375991642299, 39.11531228281833 ], [ -84.585866896168653, 39.116319652264949 ], [ -84.584526576885281, 39.117339476555287 ], [ -84.583244058447107, 39.117766192505258 ], [ -84.581828232429174, 39.117784085778979 ], [ -84.579984216693092, 39.117452830034971 ], [ -84.579368755405298, 39.1172110263375 ], [ -84.578587543031617, 39.116685848544982 ] ] ], [ [ [ -84.687931448987285, 39.120744750678185 ], [ -84.688238116070096, 39.120315143840877 ], [ -84.687695139083573, 39.118224626892797 ], [ -84.687062624573514, 39.116333576730547 ], [ -84.686325003445234, 39.115395860003112 ], [ -84.685999722817897, 39.11444151220438 ], [ -84.688026909567569, 39.113362823739465 ], [ -84.689384782508469, 39.113116349305969 ], [ -84.690426015547118, 39.113213767238271 ], [ -84.691544826633859, 39.113634283667466 ], [ -84.692236971822339, 39.113731211860902 ], [ -84.69317843005841, 39.114063894460209 ], [ -84.694165901556644, 39.114808755955842 ], [ -84.695191415336453, 39.115986620842996 ], [ -84.695466150059133, 39.116480483250584 ], [ -84.695611929601483, 39.117006609664344 ], [ -84.695577959055058, 39.117811918456098 ], [ -84.695072373437981, 39.118808198352731 ], [ -84.694115826414318, 39.119577916165831 ], [ -84.692288734109582, 39.120417381391391 ], [ -84.690928662970165, 39.120538606046416 ], [ -84.690974880311217, 39.120113856789899 ], [ -84.690348414975816, 39.12046065912994 ], [ -84.689924742775261, 39.120356977023285 ], [ -84.689132519132173, 39.120634217252636 ], [ -84.687931448987285, 39.120744750678185 ] ] ], [ [ [ -84.580758067399842, 39.126792805381456 ], [ -84.579991038799534, 39.126224787799387 ], [ -84.579475066455416, 39.125505025277448 ], [ -84.579256657587806, 39.124698405055874 ], [ -84.579355491079966, 39.123877642393971 ], [ -84.579762646960759, 39.123116724990439 ], [ -84.581322321181233, 39.121142452242296 ], [ -84.58238640805618, 39.120413147075155 ], [ -84.583381466073519, 39.120114886623206 ], [ -84.584089125709653, 39.120051606494179 ], [ -84.585068199435227, 39.120098432820065 ], [ -84.585754705750134, 39.120259501064496 ], [ -84.589409308829048, 39.122146029773191 ], [ -84.590260116017262, 39.122957890741233 ], [ -84.590521163280755, 39.123443465525519 ], [ -84.590678908273702, 39.124221958672997 ], [ -84.590469765360481, 39.125668538774057 ], [ -84.58982265637141, 39.126631792841046 ], [ -84.588746276616504, 39.127323903590707 ], [ -84.58775697062444, 39.127597638721461 ], [ -84.586708035864234, 39.127632287286964 ], [ -84.582049288875325, 39.127228174093297 ], [ -84.580758067399842, 39.126792805381456 ] ] ], [ [ [ -84.532989551184173, 39.141693663411253 ], [ -84.532205819945375, 39.140836179879095 ], [ -84.53192389257795, 39.140075710534909 ], [ -84.531896755001071, 39.139547423806732 ], [ -84.53223021768936, 39.138527457524376 ], [ -84.533618027070005, 39.136998691153011 ], [ -84.534766659326337, 39.13634501575725 ], [ -84.536246835678114, 39.136077089131021 ], [ -84.537596444248578, 39.136253005222542 ], [ -84.538758403987089, 39.136815857812493 ], [ -84.539557676662398, 39.137680861474337 ], [ -84.539873845426612, 39.138717712442961 ], [ -84.539570752005048, 39.140450004887136 ], [ -84.539325033412155, 39.140962810519959 ], [ -84.538725123684145, 39.141635878404166 ], [ -84.537582347020916, 39.142263962153983 ], [ -84.536215872557733, 39.142496581951654 ], [ -84.534452021965905, 39.142343126774811 ], [ -84.533524687277378, 39.142019043962542 ], [ -84.532989551184173, 39.141693663411253 ] ] ], [ [ [ -84.594873554450302, 39.145399071408647 ], [ -84.595031450350803, 39.146195288234729 ], [ -84.594913736508289, 39.147352933468916 ], [ -84.594528659112754, 39.148378316852629 ], [ -84.593923107671316, 39.149028910333975 ], [ -84.593395404465454, 39.149374232013713 ], [ -84.592791499336599, 39.149633013622839 ], [ -84.591793830393655, 39.149838288956694 ], [ -84.584500794592515, 39.149386124624812 ], [ -84.583500447583106, 39.149200916385119 ], [ -84.582611258557108, 39.148798869611085 ], [ -84.582118151446693, 39.148426575743095 ], [ -84.581574637186648, 39.147746940026508 ], [ -84.581306035002925, 39.146974107942867 ], [ -84.581455126618479, 39.145072716689427 ], [ -84.581966399920375, 39.144069912356848 ], [ -84.582934370531902, 39.14329792984428 ], [ -84.583545089710356, 39.143037694615742 ], [ -84.584553916630199, 39.142834178534912 ], [ -84.592255167025797, 39.143400772824755 ], [ -84.593190204976054, 39.143744833692161 ], [ -84.593984093900289, 39.144258811182603 ], [ -84.594605293946998, 39.144903082532998 ], [ -84.594873554450302, 39.145399071408647 ] ] ], [ [ [ -84.550664061829906, 39.14970382192957 ], [ -84.549742982191646, 39.148663181305871 ], [ -84.549346940091127, 39.147498768601679 ], [ -84.549388228266494, 39.146256744134448 ], [ -84.549759221634744, 39.145512186435724 ], [ -84.55015358040734, 39.14507595529836 ], [ -84.551226254681978, 39.144420256530083 ], [ -84.552538210244961, 39.144130543037171 ], [ -84.554681427113437, 39.144199110804891 ], [ -84.55567213381525, 39.14449677853267 ], [ -84.556249457991214, 39.144817839114538 ], [ -84.557101898405008, 39.145694064915283 ], [ -84.557342503546138, 39.14621376029357 ], [ -84.557517055128045, 39.147173882580944 ], [ -84.557315782123325, 39.14863312691913 ], [ -84.556881438646386, 39.149372304805148 ], [ -84.556444691373571, 39.149795659622797 ], [ -84.555296724878758, 39.150403118594383 ], [ -84.553936600195101, 39.150618553761674 ], [ -84.552181865188913, 39.150441947770339 ], [ -84.551210891045031, 39.15007144381314 ], [ -84.550664061829906, 39.14970382192957 ] ] ], [ [ [ -84.602708385349146, 39.151302316658914 ], [ -84.601662580741802, 39.152201048767076 ], [ -84.600420710424842, 39.152627839013924 ], [ -84.599063787407673, 39.152657730815093 ], [ -84.598091767507086, 39.152414736969654 ], [ -84.597511405335325, 39.152135953185237 ], [ -84.596155412895669, 39.150883469599904 ], [ -84.595124105293522, 39.149451396453109 ], [ -84.594981007158168, 39.14865357739972 ], [ -84.595054551598864, 39.148118511570146 ], [ -84.595260710584697, 39.147604891562708 ], [ -84.595799951315612, 39.146917415906884 ], [ -84.596572203400513, 39.146381386355912 ], [ -84.59751099173684, 39.146042941032832 ], [ -84.599770498204748, 39.145802582468555 ], [ -84.601057854611028, 39.145983715414559 ], [ -84.601917356055722, 39.145445261426623 ], [ -84.603214839386752, 39.145107573390682 ], [ -84.607316497309043, 39.145285350526137 ], [ -84.608303345070098, 39.145534556593283 ], [ -84.609154349590369, 39.145996607864539 ], [ -84.60979584292474, 39.146631508239423 ], [ -84.610172288633706, 39.147384298206205 ], [ -84.610258862879434, 39.147919725106178 ], [ -84.61013739080785, 39.149244644105352 ], [ -84.610062417068207, 39.149507928599768 ], [ -84.608335251367535, 39.149425458284284 ], [ -84.608137983106644, 39.151277404750118 ], [ -84.606833667779938, 39.151527036413107 ], [ -84.602708385349146, 39.151302316658914 ] ] ], [ [ [ -84.558774948776403, 39.15517034727867 ], [ -84.557988343436492, 39.154302040690901 ], [ -84.557711102990666, 39.153532613315527 ], [ -84.557690468365323, 39.152999045639199 ], [ -84.558256212088608, 39.151495756246945 ], [ -84.558982033152773, 39.150585647357346 ], [ -84.560099889039137, 39.149961079180414 ], [ -84.561439603192838, 39.149717128442433 ], [ -84.562467706962721, 39.149808679577973 ], [ -84.563333120075498, 39.150047652399714 ], [ -84.564514197024465, 39.150621660571083 ], [ -84.5653178950175, 39.151506871909909 ], [ -84.565618916722286, 39.152565298363442 ], [ -84.565422002221737, 39.153984400548794 ], [ -84.56499648155895, 39.154718893796215 ], [ -84.56456762039862, 39.155141058690205 ], [ -84.563437482838253, 39.155752207192194 ], [ -84.562092968426683, 39.155980088917644 ], [ -84.560251509424234, 39.155826064738285 ], [ -84.559612856811754, 39.155631884760858 ], [ -84.558774948776403, 39.15517034727867 ] ] ], [ [ [ -84.547334424255752, 39.163445844994172 ], [ -84.54600848182082, 39.165201971311241 ], [ -84.544958423464934, 39.165873989554584 ], [ -84.543997624744677, 39.166145913251604 ], [ -84.543318588928528, 39.166202314088324 ], [ -84.541042589628233, 39.16604640392638 ], [ -84.539769619956274, 39.165649286471698 ], [ -84.53899662355505, 39.165117711172435 ], [ -84.538606086023776, 39.16467585161574 ], [ -84.538046244702102, 39.163399286982838 ], [ -84.53812956999225, 39.162069162758392 ], [ -84.539227576767473, 39.160013026210144 ], [ -84.539635821445557, 39.15949935764057 ], [ -84.540368294926949, 39.158933962404163 ], [ -84.54127954994442, 39.158557736349422 ], [ -84.542291641579396, 39.158402859392588 ], [ -84.544719106663692, 39.158633319985626 ], [ -84.545517081000696, 39.158818671133396 ], [ -84.546395331466854, 39.159239196389613 ], [ -84.547079838188637, 39.159839499422283 ], [ -84.547398803423548, 39.160314748559991 ], [ -84.547640876063426, 39.161095031134451 ], [ -84.547666956258269, 39.162257512929358 ], [ -84.547334424255752, 39.163445844994172 ] ] ], [ [ [ -84.548422383679721, 39.19568896668968 ], [ -84.545916355368831, 39.19433811641553 ], [ -84.544055870263065, 39.192520758450321 ], [ -84.543721015563463, 39.191773274722607 ], [ -84.543657017757695, 39.191246867350692 ], [ -84.543805786519101, 39.190463778545634 ], [ -84.544235463578374, 39.18974626425544 ], [ -84.545180575780009, 39.188993249305398 ], [ -84.547221129181594, 39.18809012668796 ], [ -84.547452738540983, 39.187315319135386 ], [ -84.547973518761978, 39.186612601620382 ], [ -84.548735417630141, 39.186058981055986 ], [ -84.549671926790637, 39.185702781147306 ], [ -84.550701301081162, 39.185575092822731 ], [ -84.554692249627848, 39.185829583462017 ], [ -84.555373712646414, 39.185926686849783 ], [ -84.556317717416746, 39.186260897912433 ], [ -84.556859545854948, 39.186596883207692 ], [ -84.557488971652418, 39.18723835092225 ], [ -84.557762783432253, 39.187733613189195 ], [ -84.557928481173448, 39.188530351827339 ], [ -84.557189491215794, 39.195395312222566 ], [ -84.55695143985713, 39.196175201075683 ], [ -84.556635285573876, 39.196650797443013 ], [ -84.555954830125543, 39.197252625520527 ], [ -84.554669298500016, 39.197852876491226 ], [ -84.553651460321717, 39.198061771729584 ], [ -84.552599719216502, 39.19802774333575 ], [ -84.551607683266994, 39.19775381993567 ], [ -84.551023559073514, 39.197449143510809 ], [ -84.549461991723376, 39.195906992884645 ], [ -84.548422383679721, 39.19568896668968 ] ] ], [ [ [ -84.52014412840019, 39.104344804611955 ], [ -84.521202568057689, 39.105028734547652 ], [ -84.521583424357885, 39.105477836747802 ], [ -84.521926803106652, 39.106237928146264 ], [ -84.522057912415775, 39.107043375370012 ], [ -84.521986655000944, 39.107578712634357 ], [ -84.521453953990218, 39.10856628128424 ], [ -84.520755550336943, 39.109160475880074 ], [ -84.520179201562073, 39.109457192967952 ], [ -84.51860862747867, 39.109814503342825 ], [ -84.517233482326262, 39.109809001485679 ], [ -84.515965741361271, 39.109393888271605 ], [ -84.514998447074504, 39.108632375242443 ], [ -84.514478879669596, 39.107640419375691 ], [ -84.514347853024844, 39.106834906453692 ], [ -84.514419178170868, 39.10629958158367 ], [ -84.514951970058561, 39.105312062776505 ], [ -84.515929191685402, 39.104558541942346 ], [ -84.51720209335808, 39.104153709074289 ], [ -84.518830342948959, 39.104028540726837 ], [ -84.52014412840019, 39.104344804611955 ] ] ], [ [ [ -84.524671684771022, 39.107780041553042 ], [ -84.524605779561952, 39.106976961501459 ], [ -84.524900449996935, 39.105632761731123 ], [ -84.525640645539497, 39.104736227745228 ], [ -84.526455255736821, 39.104246390698286 ], [ -84.527755932308494, 39.103915714309963 ], [ -84.529287446625048, 39.103967176122815 ], [ -84.530286954409448, 39.104230204771198 ], [ -84.53138077815521, 39.10491418322303 ], [ -84.531926728901922, 39.105617547872718 ], [ -84.532181004702366, 39.106415302831536 ], [ -84.531959902499239, 39.108050316202835 ], [ -84.531180853575094, 39.109096881295649 ], [ -84.531677129521199, 39.109856411463738 ], [ -84.531836578532989, 39.110924362117188 ], [ -84.531685998748912, 39.111721756991415 ], [ -84.531434795646121, 39.112220081311506 ], [ -84.530588399941465, 39.113057228339798 ], [ -84.529396601120212, 39.113580253846941 ], [ -84.527863190422792, 39.113700362442557 ], [ -84.526530996644283, 39.113412779787858 ], [ -84.525443281104344, 39.112748135442303 ], [ -84.524890796597518, 39.112061941860716 ], [ -84.52461936902057, 39.111280017579261 ], [ -84.524758311883346, 39.109940347643089 ], [ -84.525411932315507, 39.108963148049824 ], [ -84.524881491410866, 39.108292142468507 ], [ -84.524671684771022, 39.107780041553042 ] ] ], [ [ [ -84.503099869337561, 39.115105067124368 ], [ -84.503228703715848, 39.113861469047322 ], [ -84.503559653615369, 39.113098344612425 ], [ -84.504412597800979, 39.112258429758363 ], [ -84.505289712730246, 39.111831935690034 ], [ -84.506632913984873, 39.111603980009733 ], [ -84.507893101619715, 39.111721990363613 ], [ -84.509114704198439, 39.112207206446655 ], [ -84.5100061737202, 39.113018896716085 ], [ -84.510432558827546, 39.114034198704459 ], [ -84.510335895650996, 39.115549823762926 ], [ -84.509832491710384, 39.116554899627353 ], [ -84.508935479261893, 39.117292617764264 ], [ -84.509376157890628, 39.118009945937544 ], [ -84.50951524108099, 39.118541421045862 ], [ -84.5093704052601, 39.119970970453721 ], [ -84.509025312553561, 39.120744707740606 ], [ -84.508638035712693, 39.12120124510232 ], [ -84.507557560817389, 39.121892243541289 ], [ -84.506565530193882, 39.122163904706383 ], [ -84.505865788449967, 39.122212275915594 ], [ -84.503737289000611, 39.121986990977128 ], [ -84.502507623461582, 39.121447922948136 ], [ -84.501647934768101, 39.12057635761343 ], [ -84.501295982855197, 39.119511973663982 ], [ -84.501424400873461, 39.118339409352231 ], [ -84.502036706781141, 39.117355083977088 ], [ -84.503526291260954, 39.116364906269695 ], [ -84.503178913679307, 39.115637628589838 ], [ -84.503099869337561, 39.115105067124368 ] ] ], [ [ [ -84.503023056128242, 39.114151242457119 ], [ -84.502882842776103, 39.11523193159681 ], [ -84.501894871674253, 39.11705099006614 ], [ -84.500151508095513, 39.118999370683248 ], [ -84.499191918155276, 39.119607042367505 ], [ -84.498160912969936, 39.120566607698485 ], [ -84.497298006495342, 39.120964620801381 ], [ -84.496326124912741, 39.121157220440388 ], [ -84.491592509023874, 39.120898307109414 ], [ -84.491236555965102, 39.121586819416315 ], [ -84.49070663634302, 39.122135821038299 ], [ -84.489767787208564, 39.122676083279792 ], [ -84.488938376286399, 39.122909309000747 ], [ -84.48806072140394, 39.122975843755825 ], [ -84.487192657550153, 39.122872589766352 ], [ -84.486380614337065, 39.12260483789845 ], [ -84.485342219301273, 39.122010489608805 ], [ -84.482670352075417, 39.119933466506566 ], [ -84.482149375043761, 39.119237936054546 ], [ -84.481779866938865, 39.118354384307565 ], [ -84.481751728386683, 39.117286390001048 ], [ -84.482165523301703, 39.116390000663159 ], [ -84.484935122562575, 39.11395858047031 ], [ -84.486140967693203, 39.113160871188349 ], [ -84.487171033603644, 39.112197105980613 ], [ -84.487457752959898, 39.111668220106957 ], [ -84.488687404429456, 39.110485502361087 ], [ -84.489597161936217, 39.109295010298176 ], [ -84.4911979508353, 39.108284210552597 ], [ -84.492764653702963, 39.107834975888444 ], [ -84.493482950239951, 39.107767222095681 ], [ -84.495235212047504, 39.107869232029607 ], [ -84.496233620321689, 39.107469695615166 ], [ -84.497591347884196, 39.10734606396359 ], [ -84.498940267598599, 39.107478844089378 ], [ -84.500261051584019, 39.107835330223381 ], [ -84.501149971825782, 39.108245747558293 ], [ -84.50184790926258, 39.108839386941476 ], [ -84.502380734362589, 39.109825981295586 ], [ -84.502437506253898, 39.110629803609534 ], [ -84.502125835215807, 39.112580814136145 ], [ -84.502765914117177, 39.113359172183344 ], [ -84.503023056128242, 39.114151242457119 ] ] ], [ [ [ -84.523693192104247, 39.121570680654912 ], [ -84.522712219528245, 39.121815699112709 ], [ -84.522025560174981, 39.121850974045785 ], [ -84.52069111721913, 39.121610361357718 ], [ -84.519494662864275, 39.120962007715399 ], [ -84.518765665852484, 39.120054804848408 ], [ -84.518537334995898, 39.118999412904053 ], [ -84.518844343398001, 39.117956200358563 ], [ -84.519322998097252, 39.117248681781724 ], [ -84.519764789461689, 39.116848546964349 ], [ -84.520899052400225, 39.116280073128237 ], [ -84.522224344885018, 39.116085087221194 ], [ -84.523546618355567, 39.116292138877348 ], [ -84.524784580813602, 39.116929788128836 ], [ -84.525557859738981, 39.11785061415344 ], [ -84.525796224591943, 39.118657245205462 ], [ -84.525617589574765, 39.119748769642406 ], [ -84.524781524797262, 39.120922851182506 ], [ -84.523693192104247, 39.121570680654912 ] ] ], [ [ [ -84.490251611706796, 39.130607793401026 ], [ -84.489204716661618, 39.13130354004138 ], [ -84.487895556909479, 39.13163406778957 ], [ -84.486143938967231, 39.131525394331348 ], [ -84.48491793056219, 39.131037248214319 ], [ -84.484025548350246, 39.130220550455689 ], [ -84.483602927857746, 39.129199902793388 ], [ -84.483742893577215, 39.127868000148617 ], [ -84.484379036156767, 39.126908950127678 ], [ -84.485440645019239, 39.126215018950063 ], [ -84.486763626153774, 39.125893462053149 ], [ -84.488510297630611, 39.126018894812908 ], [ -84.489717607018207, 39.126511182296952 ], [ -84.490594993266242, 39.127323358981414 ], [ -84.491011326245015, 39.128334052653386 ], [ -84.490876689706113, 39.129652869679163 ], [ -84.490251611706796, 39.130607793401026 ] ] ], [ [ [ -84.509518647665999, 39.13456938909151 ], [ -84.508395808018378, 39.135173184098178 ], [ -84.507743442175979, 39.135337145450762 ], [ -84.506719650914874, 39.135392025874296 ], [ -84.504764240147622, 39.135154735598952 ], [ -84.50414671192371, 39.134909722551683 ], [ -84.503364904584231, 39.134378579981806 ], [ -84.502692860334136, 39.133440437297146 ], [ -84.50253446199325, 39.132373272418697 ], [ -84.502695011990809, 39.131009710217661 ], [ -84.502884455971923, 39.130492634491333 ], [ -84.503400814058892, 39.129795343781268 ], [ -84.503880594039998, 39.129408694045111 ], [ -84.504757726398154, 39.12898298208323 ], [ -84.505414756207145, 39.128817886080171 ], [ -84.507079122672181, 39.128803734012529 ], [ -84.508405004797822, 39.129097327748667 ], [ -84.509779167768983, 39.129985358249321 ], [ -84.510455013223279, 39.130934088362281 ], [ -84.510606241155742, 39.132012651667672 ], [ -84.510375322634019, 39.133426233592786 ], [ -84.509946668134575, 39.134152385266724 ], [ -84.509518647665999, 39.13456938909151 ] ] ], [ [ [ -84.492938907997669, 39.147868331955891 ], [ -84.492050865380449, 39.147442727950228 ], [ -84.491565085474136, 39.147053965419289 ], [ -84.490931187517788, 39.146093888098193 ], [ -84.49082160787033, 39.145017732660385 ], [ -84.490971327356675, 39.14415057188851 ], [ -84.491335487527749, 39.143402628171209 ], [ -84.491961020815026, 39.142768155516322 ], [ -84.492497818691518, 39.142435345823927 ], [ -84.493766157832283, 39.142040809583406 ], [ -84.495566666779496, 39.142074551352692 ], [ -84.496874972667868, 39.142392878953082 ], [ -84.497928551500252, 39.143075654250339 ], [ -84.49845361302971, 39.143766507679388 ], [ -84.498650448625867, 39.144280390601175 ], [ -84.498621770834774, 39.145659604876975 ], [ -84.498215753434195, 39.146687289826772 ], [ -84.497334019984265, 39.147514755506513 ], [ -84.496111785600405, 39.148015096074474 ], [ -84.494298822184291, 39.14810227233928 ], [ -84.492938907997669, 39.147868331955891 ] ] ], [ [ [ -84.490727241425574, 39.146456303262198 ], [ -84.491539683973087, 39.147313007711602 ], [ -84.491770968383491, 39.147816817063713 ], [ -84.491872986792231, 39.148613821210297 ], [ -84.491544936645752, 39.149647703330714 ], [ -84.490952378720436, 39.150600869044098 ], [ -84.490527421690743, 39.151045065596037 ], [ -84.489381537469072, 39.151692097906192 ], [ -84.488001176149979, 39.151936131559651 ], [ -84.486318466019412, 39.15179202308002 ], [ -84.485372272678234, 39.151458861135772 ], [ -84.484828972318326, 39.151123022317172 ], [ -84.484044593342247, 39.150238340294578 ], [ -84.483756604425849, 39.149186967563232 ], [ -84.483906301760157, 39.147788783425959 ], [ -84.484138113502325, 39.147276133762489 ], [ -84.484716270415404, 39.146598464275634 ], [ -84.485832574140943, 39.145954720262672 ], [ -84.48718154522723, 39.145696649677028 ], [ -84.489228741312928, 39.145825492865079 ], [ -84.490176935270526, 39.146135936958707 ], [ -84.490727241425574, 39.146456303262198 ] ] ], [ [ [ -84.519209003609362, 39.15379313901078 ], [ -84.51791899005228, 39.153582851409382 ], [ -84.516285035041506, 39.152862087993057 ], [ -84.515413983264125, 39.152046330068394 ], [ -84.515005152488214, 39.151034351414339 ], [ -84.515124830627173, 39.149471438140445 ], [ -84.515637589626124, 39.148471828748214 ], [ -84.516327277194065, 39.147865988189807 ], [ -84.516900943545267, 39.147561096474476 ], [ -84.518220332104008, 39.147239929917163 ], [ -84.520930205464182, 39.147393379944994 ], [ -84.522199422900854, 39.147793477022589 ], [ -84.523177227840904, 39.148539876325259 ], [ -84.523508386530779, 39.14900938821858 ], [ -84.523771130149527, 39.149784744109631 ], [ -84.523586839027104, 39.151477353993677 ], [ -84.522950210069013, 39.152432813129195 ], [ -84.522464424440585, 39.152819370069942 ], [ -84.521577783274751, 39.153242291108675 ], [ -84.520192609493009, 39.153698782065383 ], [ -84.519209003609362, 39.15379313901078 ] ] ], [ [ [ -84.496432828017262, 39.153470450946088 ], [ -84.496926239280739, 39.153828521297754 ], [ -84.497480574076306, 39.154485713250999 ], [ -84.497772968460581, 39.155238278392531 ], [ -84.497809575355816, 39.155762671240382 ], [ -84.497698084902751, 39.156371760575411 ], [ -84.497331764256572, 39.157145839498149 ], [ -84.496776239218335, 39.157801635183866 ], [ -84.496221659738893, 39.158230377604042 ], [ -84.494372148049223, 39.159171401564578 ], [ -84.493360541219261, 39.159410730390469 ], [ -84.492500287165598, 39.1594798750819 ], [ -84.490772119061546, 39.159350650932303 ], [ -84.49011546120316, 39.15919838486947 ], [ -84.489231878316517, 39.158792814985041 ], [ -84.488742846882275, 39.158419203238203 ], [ -84.488205328901401, 39.157739078812355 ], [ -84.487997389582318, 39.157230813613104 ], [ -84.487919608609914, 39.156700836751334 ], [ -84.488053121434604, 39.155256547802409 ], [ -84.488429571210332, 39.154226210111808 ], [ -84.489283735258297, 39.153386440838112 ], [ -84.490485589967406, 39.152865058634021 ], [ -84.491506344184174, 39.152732915693285 ], [ -84.494902096067293, 39.152945310649415 ], [ -84.495551912550781, 39.153086074215139 ], [ -84.496432828017262, 39.153470450946088 ] ] ], [ [ [ -84.518851847962424, 39.180113727817215 ], [ -84.518320995824027, 39.180816588075906 ], [ -84.517548346408475, 39.181367130516897 ], [ -84.516602029350835, 39.181716806808311 ], [ -84.515508115860271, 39.181832389915108 ], [ -84.515738061695686, 39.182364514965244 ], [ -84.516325501821555, 39.182823491075027 ], [ -84.516872103720317, 39.183502742863524 ], [ -84.517143386214613, 39.184275902331365 ], [ -84.517116225116169, 39.185077091374396 ], [ -84.516623416567498, 39.186071334123888 ], [ -84.514008341939018, 39.18854896081492 ], [ -84.513085461744168, 39.188968271741125 ], [ -84.512398330318604, 39.189119178644511 ], [ -84.510978314901763, 39.189087104912836 ], [ -84.510303587836944, 39.188905437860804 ], [ -84.508088543952525, 39.188116066737223 ], [ -84.507245085957109, 39.187641876494958 ], [ -84.506639389164818, 39.187145054223507 ], [ -84.506141815749089, 39.18646180272372 ], [ -84.505957860848838, 39.185957147835147 ], [ -84.505900589617696, 39.185434476951436 ], [ -84.506055494816479, 39.184658433671629 ], [ -84.506706170969196, 39.183716878602731 ], [ -84.506844437634228, 39.182870788439743 ], [ -84.5075161949229, 39.181568928226639 ], [ -84.508125225258183, 39.180915283738905 ], [ -84.509218061448635, 39.180327441975535 ], [ -84.508386993884585, 39.179742130716264 ], [ -84.507865699591918, 39.179049904110961 ], [ -84.507623792804864, 39.178269939866674 ], [ -84.507681923583903, 39.177468848824709 ], [ -84.508213891277478, 39.176485635118574 ], [ -84.509791315076171, 39.175212884854574 ], [ -84.510999983554925, 39.174713082298155 ], [ -84.512018273223745, 39.174595971981283 ], [ -84.513163298630133, 39.17474234664369 ], [ -84.516029786122715, 39.174544938280732 ], [ -84.516707585359995, 39.17464195598302 ], [ -84.517646872113332, 39.17497412675317 ], [ -84.518632723013852, 39.17571654967329 ], [ -84.519180206386565, 39.176695538292236 ], [ -84.519182425983075, 39.178514062989791 ], [ -84.518851847962424, 39.180113727817215 ] ], [ [ -84.510038698218906, 39.188796053911823 ], [ -84.510076498269143, 39.188811148269821 ], [ -84.510077404389307, 39.188809536394544 ], [ -84.510038698218906, 39.188796053911823 ] ] ], [ [ [ -84.381179045850317, 39.08792032780417 ], [ -84.380641155325762, 39.08758048578791 ], [ -84.380019233292387, 39.086934207975588 ], [ -84.379613320234412, 39.085907784367798 ], [ -84.379814054476483, 39.084253517005379 ], [ -84.380452518486422, 39.083310548940446 ], [ -84.381503715102241, 39.082628224884033 ], [ -84.382809132924706, 39.082309427499027 ], [ -84.384908234114405, 39.082453738119845 ], [ -84.386126599726367, 39.082948757686289 ], [ -84.387009359776471, 39.083769363667869 ], [ -84.387422229250902, 39.084790738278798 ], [ -84.387235532440016, 39.086449600310054 ], [ -84.3865984286507, 39.087401361012645 ], [ -84.385541736738318, 39.088089986963709 ], [ -84.384226989318577, 39.088410204339674 ], [ -84.382455874707858, 39.088324627188314 ], [ -84.381179045850317, 39.08792032780417 ] ] ], [ [ [ -84.463999174914548, 39.121935220214809 ], [ -84.465711960296119, 39.121922476263634 ], [ -84.469527977782406, 39.121416911351623 ], [ -84.470667946638216, 39.121553817079615 ], [ -84.47158837043095, 39.121435180576619 ], [ -84.471909204092682, 39.122089108751979 ], [ -84.472157545200901, 39.123506730746371 ], [ -84.472045323872251, 39.124305512015695 ], [ -84.47180659053987, 39.124809044404238 ], [ -84.470979230181428, 39.125661204439496 ], [ -84.469796908612523, 39.126202861485766 ], [ -84.467465893048086, 39.126536591184767 ], [ -84.466760497112844, 39.126483396891075 ], [ -84.465763384579631, 39.126201428839082 ], [ -84.464919131419933, 39.125701162849644 ], [ -84.46447976531698, 39.125268049614093 ], [ -84.463974262839571, 39.124242634877554 ], [ -84.463841506913283, 39.122642053369034 ], [ -84.463938548104565, 39.1220943874985 ], [ -84.463999174914548, 39.121935220214809 ] ] ], [ [ [ -84.478246181445627, 39.13449479747122 ], [ -84.478696987780665, 39.134904792289731 ], [ -84.479159479600128, 39.135628104951287 ], [ -84.479321102958977, 39.136695035760461 ], [ -84.478939161301071, 39.137797911403567 ], [ -84.478566079160998, 39.138250911995236 ], [ -84.477812749264075, 39.1388030588597 ], [ -84.477209525551729, 39.139065631990512 ], [ -84.476210931297175, 39.139276067466376 ], [ -84.474265327946611, 39.13919556083777 ], [ -84.472996094354968, 39.138811214675151 ], [ -84.472008603559914, 39.138080930083468 ], [ -84.471450184449566, 39.137113669741908 ], [ -84.471410755670888, 39.135979825070883 ], [ -84.471898994842277, 39.134969844315719 ], [ -84.472849286042688, 39.134184413952184 ], [ -84.473779005271055, 39.133817568567153 ], [ -84.475154243206902, 39.133685398227875 ], [ -84.477082805851765, 39.133917518691071 ], [ -84.478246181445627, 39.13449479747122 ] ] ], [ [ [ -84.429639993975542, 39.150961617531728 ], [ -84.428393753341055, 39.152022434468257 ], [ -84.426203945093349, 39.152968117443997 ], [ -84.425526038272352, 39.153091602613131 ], [ -84.424484004194142, 39.153077499566749 ], [ -84.4238120191457, 39.152935744756981 ], [ -84.422903363602558, 39.152538351193968 ], [ -84.42199709375204, 39.151722261381479 ], [ -84.421623276761565, 39.150964803899242 ], [ -84.421540159818321, 39.150426606781181 ], [ -84.421819697212499, 39.147642215509158 ], [ -84.422148892586179, 39.146877970267276 ], [ -84.422521570594441, 39.146424383232585 ], [ -84.423274691490064, 39.14587133303241 ], [ -84.423878017096044, 39.145608195647377 ], [ -84.425222418301459, 39.145378569354733 ], [ -84.428047490764683, 39.145553906912937 ], [ -84.428998794480449, 39.145811529594056 ], [ -84.429563888490989, 39.146095778330782 ], [ -84.430437574386559, 39.146886264721033 ], [ -84.430807655208838, 39.147615691873966 ], [ -84.43089979600667, 39.14813460977053 ], [ -84.430573302746168, 39.149706516147944 ], [ -84.430276082048024, 39.150243352714035 ], [ -84.429639993975542, 39.150961617531728 ] ] ], [ [ [ -84.399260152199645, 39.162234939685071 ], [ -84.400036840944409, 39.163110785455785 ], [ -84.400304049887723, 39.163883720056013 ], [ -84.400317161615305, 39.164418306915287 ], [ -84.400013439694476, 39.166747874430094 ], [ -84.399586441142546, 39.16748539128676 ], [ -84.398915732216366, 39.16808391035589 ], [ -84.398965701605817, 39.167930795452641 ], [ -84.397805039137296, 39.167852641075129 ], [ -84.397857075110934, 39.167296876542224 ], [ -84.395937814888356, 39.167169430358037 ], [ -84.395855302900628, 39.167081560408867 ], [ -84.395379220516347, 39.167133007670124 ], [ -84.395402687072618, 39.16688690457962 ], [ -84.393717426831572, 39.166776239403312 ], [ -84.393615044348181, 39.167014262867191 ], [ -84.39299027693616, 39.166979778570685 ], [ -84.393031278046209, 39.167746920572881 ], [ -84.391936129270775, 39.167330626161132 ], [ -84.391627367031845, 39.167626228148364 ], [ -84.390972321764195, 39.166728308432781 ], [ -84.39081736431136, 39.166212401386012 ], [ -84.390811465462249, 39.165463213196134 ], [ -84.390999016267898, 39.16403523200534 ], [ -84.391195317019395, 39.163520498261725 ], [ -84.391516544766134, 39.163045348236793 ], [ -84.392204553416036, 39.162446004189142 ], [ -84.393410141744965, 39.161934822617376 ], [ -84.394342897566759, 39.161813914108038 ], [ -84.39545000168674, 39.161471201535967 ], [ -84.396135765947051, 39.161413737166747 ], [ -84.397789044296715, 39.16156740692459 ], [ -84.398426488763675, 39.161766447949354 ], [ -84.399260152199645, 39.162234939685071 ] ] ], [ [ [ -84.469863055231443, 39.171541089221712 ], [ -84.470803280756314, 39.171922776144754 ], [ -84.471751772818692, 39.172734566331322 ], [ -84.472150971301346, 39.17349926469457 ], [ -84.472218593824792, 39.174464499093062 ], [ -84.4733568907739, 39.174684062431027 ], [ -84.474235230093242, 39.175113654940517 ], [ -84.474915057994153, 39.175723532367364 ], [ -84.475337580343449, 39.176460955303817 ], [ -84.475443836178158, 39.177796862310686 ], [ -84.475053271930733, 39.17887137334084 ], [ -84.474119598715276, 39.179779769929176 ], [ -84.472773589617276, 39.180333540175937 ], [ -84.471248879228213, 39.18042476829919 ], [ -84.470567764026313, 39.180308794390463 ], [ -84.469633876560565, 39.179946102066857 ], [ -84.46910527132394, 39.179592259198522 ], [ -84.468504787999137, 39.178927861782789 ], [ -84.468180368362184, 39.178155789682876 ], [ -84.468133894403124, 39.177580245208318 ], [ -84.466640053951039, 39.177341644404798 ], [ -84.465701070695218, 39.176984981110579 ], [ -84.464734123930967, 39.176208733510315 ], [ -84.464305131385146, 39.175467215672519 ], [ -84.46417402229099, 39.174660414426604 ], [ -84.464427197968604, 39.173537496841149 ], [ -84.464813299981387, 39.172765780014849 ], [ -84.465477454577581, 39.172118779605569 ], [ -84.466359233746161, 39.171655356419251 ], [ -84.467372558587869, 39.171417973362246 ], [ -84.468819584941357, 39.171394161860462 ], [ -84.469863055231443, 39.171541089221712 ] ] ], [ [ [ -84.430005333323308, 39.182947746715342 ], [ -84.426987196374739, 39.182809084918958 ], [ -84.425691936932225, 39.182436175724852 ], [ -84.42467988816118, 39.18170483680894 ], [ -84.42410614556573, 39.180727152812509 ], [ -84.42401933654304, 39.179921568236395 ], [ -84.4241755998695, 39.178382090344563 ], [ -84.42451829698166, 39.177341607063646 ], [ -84.425347627963859, 39.176483073261366 ], [ -84.425907558957803, 39.176164777548536 ], [ -84.426869633869785, 39.175861585675555 ], [ -84.427903426999478, 39.175789448559556 ], [ -84.430234990205008, 39.175894092622293 ], [ -84.431260318084341, 39.176061574326205 ], [ -84.432177236531075, 39.176456056087567 ], [ -84.432687733456092, 39.176828715640553 ], [ -84.433093662203007, 39.177272484701639 ], [ -84.433472816648319, 39.178032659720159 ], [ -84.43354839947321, 39.178845982309824 ], [ -84.433343905308107, 39.180685624219343 ], [ -84.433020955340794, 39.181440063530069 ], [ -84.432656225013687, 39.181889029210559 ], [ -84.431918996287919, 39.182439613088491 ], [ -84.431009945923648, 39.182802671393169 ], [ -84.430005333323308, 39.182947746715342 ] ] ], [ [ [ -84.47168280859097, 39.214118379022374 ], [ -84.471201280987003, 39.213576927711699 ], [ -84.470898993313767, 39.212966570028421 ], [ -84.470803247692771, 39.211538069367037 ], [ -84.470912479574309, 39.211005509425263 ], [ -84.471320552693825, 39.210263234013254 ], [ -84.472259436929747, 39.2094767070461 ], [ -84.473180796384199, 39.209105277539976 ], [ -84.474457516872008, 39.208961109887738 ], [ -84.474388533266605, 39.20984942563949 ], [ -84.47885098170353, 39.210240160342437 ], [ -84.479273178756671, 39.210891865949812 ], [ -84.479432022671219, 39.211415726675256 ], [ -84.479319934738925, 39.213423949451304 ], [ -84.474068623621591, 39.212962270847534 ], [ -84.473839918804728, 39.215283932587582 ], [ -84.472310141388718, 39.214553898792886 ], [ -84.47168280859097, 39.214118379022374 ] ] ] ] } }
]
}
