{
"type": "FeatureCollection",
"name": "extras_reading_simplified",
"crs": { "type": "name", "properties": { "name": "urn:ogc:def:crs:OGC:1.3:CRS84" } },
"features": [
{ "type": "Feature", "properties": { "name": "extras_reading", "extract_date": "2026-08-25", "crs": "EPSG:3735", "city": "reading" }, "geometry": { "type": "MultiPolygon", "coordinates": [ [ [ [ -84.441844655735096, 39.215149383108887 ], [ -84.442283644834717, 39.214520491349795 ], [ -84.442835316552305, 39.2140453843529 ], [ -84.44373343211835, 39.213593464216011 ], [ -84.444317829329847, 39.213431843176622 ], [ -84.445800012808832, 39.213372136613621 ], [ -84.446656902117979, 39.213561168712154 ], [ -84.44740139723244, 39.213889041008095 ], [ -84.44831785849145, 39.213427180545835 ], [ -84.449331174506696, 39.213210375421838 ], [ -84.45038162749448, 39.213235284526348 ], [ -84.451127104190121, 39.213411111088888 ], [ -84.450659821286408, 39.21365902105817 ], [ -84.450510493504865, 39.214921286854405 ], [ -84.449999221487886, 39.216211764451231 ], [ -84.450164806896524, 39.216275468365801 ], [ -84.448729744979559, 39.218288067151981 ], [ -84.448543476118502, 39.219152277869831 ], [ -84.448143197731326, 39.21911397122706 ], [ -84.447894272571659, 39.219530648999807 ], [ -84.447765710075544, 39.219519973523489 ], [ -84.447322861662457, 39.219967760484117 ], [ -84.447128243705691, 39.220375253166779 ], [ -84.447096581905811, 39.22051749972826 ], [ -84.447943033910022, 39.222143911300556 ], [ -84.448033870682153, 39.223039999129455 ], [ -84.44885773992489, 39.224033497907847 ], [ -84.448516454571376, 39.224697400490854 ], [ -84.447736635848401, 39.225358538452966 ], [ -84.447704388776728, 39.226191273133395 ], [ -84.447938677087762, 39.226277152894319 ], [ -84.445479717854354, 39.230695133396587 ], [ -84.444874004571346, 39.231336010312191 ], [ -84.445337754979036, 39.230949996067345 ], [ -84.445010583, 39.231537356817284 ], [ -84.445554400696963, 39.23172049550417 ], [ -84.445348736789441, 39.232427359652299 ], [ -84.445620569417699, 39.23265312387835 ], [ -84.443806246632263, 39.235554442537037 ], [ -84.442286124902992, 39.2358263737488 ], [ -84.440969284478712, 39.235629319094421 ], [ -84.438002682295988, 39.234379481196548 ], [ -84.437060120078044, 39.233568236184979 ], [ -84.43659939091016, 39.232535247589226 ], [ -84.43669353855482, 39.231444333406742 ], [ -84.437595018003023, 39.229963354028818 ], [ -84.438525168893975, 39.2291981561714 ], [ -84.439843304041773, 39.228748909474454 ], [ -84.440529067541675, 39.227726395693118 ], [ -84.438978382629074, 39.227823358850202 ], [ -84.437773799239366, 39.227513899798439 ], [ -84.436661035344883, 39.226875187760072 ], [ -84.435964540640981, 39.225981833541425 ], [ -84.435020830874038, 39.226582576485974 ], [ -84.43411310190875, 39.226931952841554 ], [ -84.4331151839028, 39.227066477971889 ], [ -84.431786550630179, 39.226895173257688 ], [ -84.430637108659511, 39.226349315219622 ], [ -84.429769718661163, 39.22558984444683 ], [ -84.429298837576027, 39.224887522698111 ], [ -84.429105326752463, 39.224109871650924 ], [ -84.429205282418494, 39.223321613340737 ], [ -84.429590376301846, 39.222588350505539 ], [ -84.430228551814253, 39.221971106977847 ], [ -84.431927924599137, 39.220945309650524 ], [ -84.4323298419542, 39.219902791383745 ], [ -84.432964419650276, 39.219242471627112 ], [ -84.434145097746054, 39.218644372096414 ], [ -84.435532448504773, 39.218453143034537 ], [ -84.436575873546872, 39.218597698191985 ], [ -84.438705899587106, 39.219336731523157 ], [ -84.438794054195597, 39.218347857811914 ], [ -84.439410325393879, 39.21715194542071 ], [ -84.440312027426174, 39.216377087926546 ], [ -84.441575120345206, 39.215911338939101 ], [ -84.441844655735096, 39.215149383108887 ] ], [ [ -84.443558813903024, 39.223996414847782 ], [ -84.444905749958536, 39.224092716583904 ], [ -84.444432361410804, 39.223427025513821 ], [ -84.444213722943658, 39.222731265246281 ], [ -84.443740630027847, 39.222549102177609 ], [ -84.443762118530046, 39.223389801619085 ], [ -84.443558813903024, 39.223996414847782 ] ] ], [ [ [ -84.417994148345784, 39.224323934520946 ], [ -84.418158272229988, 39.222262686873414 ], [ -84.418646522873146, 39.221262721006973 ], [ -84.419317579083099, 39.2206505484085 ], [ -84.419879995353881, 39.220338424222852 ], [ -84.421182858425666, 39.219996217720016 ], [ -84.424564051684357, 39.220118117924997 ], [ -84.425897827235133, 39.220397042261595 ], [ -84.426486502232308, 39.220682846234446 ], [ -84.427207159672378, 39.221264809636473 ], [ -84.427552286179477, 39.221733094371082 ], [ -84.427833770075608, 39.222510893689936 ], [ -84.427680627123365, 39.224871755002994 ], [ -84.427319548637541, 39.225897510441619 ], [ -84.426954888876836, 39.22635030123562 ], [ -84.42621486356515, 39.226905696821788 ], [ -84.425300425810292, 39.227271631148625 ], [ -84.424631814188857, 39.227394242077771 ], [ -84.420953265673674, 39.227244302892409 ], [ -84.420291362653884, 39.227100741310409 ], [ -84.419396438937241, 39.226706200908517 ], [ -84.418685767549547, 39.226127736669163 ], [ -84.418219697023218, 39.225414474563934 ], [ -84.417994148345784, 39.224323934520946 ] ] ], [ [ [ -84.416189587869511, 39.228518871094472 ], [ -84.41586478379223, 39.229287395099263 ], [ -84.415493332532392, 39.229744105675486 ], [ -84.414739633129074, 39.230301627701095 ], [ -84.414134535277569, 39.230567282647229 ], [ -84.412784361550848, 39.230800085788225 ], [ -84.410956865478553, 39.230702785350992 ], [ -84.409954248852642, 39.230524918294577 ], [ -84.409680435659936, 39.230430031457821 ], [ -84.409960059114326, 39.227328384509363 ], [ -84.40903189838231, 39.22715774649209 ], [ -84.408372734206594, 39.226911010283864 ], [ -84.407764575852809, 39.226227854524296 ], [ -84.408484753190777, 39.225494495600962 ], [ -84.409676234224804, 39.224929910313193 ], [ -84.411520901114827, 39.224567559920047 ], [ -84.41328708501851, 39.224782522333598 ], [ -84.414857758201308, 39.225342261257055 ], [ -84.415795753232317, 39.226153267834235 ], [ -84.416253709019884, 39.227184348300582 ], [ -84.416189587869511, 39.228518871094472 ] ] ] ] } }
]
}
