{
"type": "FeatureCollection",
"name": "extras_golf_manor_simplified",
"crs": { "type": "name", "properties": { "name": "urn:ogc:def:crs:OGC:1.3:CRS84" } },
"features": [
{ "type": "Feature", "properties": { "name": "extras_golf_manor", "extract_date": "2026-08-25", "crs": "EPSG:3735", "city": "golf_manor" }, "geometry": { "type": "MultiPolygon", "coordinates": [ [ [ [ -84.440163356173173, 39.186698337427096 ], [ -84.441192768565514, 39.186887462070452 ], [ -84.442103895556315, 39.187305540302134 ], [ -84.442814850928471, 39.18791499918354 ], [ -84.443352693454258, 39.188787778313454 ], [ -84.443501991274289, 39.189577073345745 ], [ -84.443353399635456, 39.190366449196077 ], [ -84.442919454917643, 39.191089257068626 ], [ -84.442187196594531, 39.191713666035618 ], [ -84.438240662420938, 39.191463265628379 ], [ -84.438764966791766, 39.186688323217219 ], [ -84.440163356173173, 39.186698337427096 ] ] ], [ [ [ -84.453155161554719, 39.192408190289861 ], [ -84.446685357004952, 39.191999220446164 ], [ -84.446459626704865, 39.191474193699193 ], [ -84.446420581013996, 39.190278086530483 ], [ -84.446701575667262, 39.188982692193548 ], [ -84.446886134007102, 39.188460317671982 ], [ -84.447399735928173, 39.187754666128555 ], [ -84.448450832151863, 39.187052181168923 ], [ -84.449768451712217, 39.186718826635378 ], [ -84.454191059342193, 39.187012902343483 ], [ -84.453621813353152, 39.19127176828291 ], [ -84.455204255015445, 39.191776722948319 ], [ -84.455066767889662, 39.193178196741179 ], [ -84.454192339427863, 39.19346348291333 ], [ -84.452989706652531, 39.193541097008726 ], [ -84.453155161554719, 39.192408190289861 ] ] ], [ [ [ -84.454135387741772, 39.193620054299096 ], [ -84.455019282411143, 39.193667058793295 ], [ -84.454677425322544, 39.197168418173895 ], [ -84.452284031315671, 39.197013193006811 ], [ -84.452654278883799, 39.195663104136401 ], [ -84.452952228009053, 39.193797716534753 ], [ -84.454135387741772, 39.193620054299096 ] ] ] ] } }
]
}
