{
"type": "FeatureCollection",
"name": "extras_evendale_simplified",
"crs": { "type": "name", "properties": { "name": "urn:ogc:def:crs:OGC:1.3:CRS84" } },
"features": [
{ "type": "Feature", "properties": { "name": "extras_evendale", "extract_date": "2026-08-25", "crs": "EPSG:3735", "city": "evendale" }, "geometry": { "type": "MultiPolygon", "coordinates": [ [ [ [ -84.429719833015341, 39.246888481087517 ], [ -84.429374454114679, 39.247526011897932 ], [ -84.428838438055038, 39.248076290817771 ], [ -84.428823046680492, 39.249210149280273 ], [ -84.428317615366453, 39.2504525121767 ], [ -84.427760555023895, 39.251351852204678 ], [ -84.427324686807978, 39.252720060510775 ], [ -84.426524904951847, 39.253600011649993 ], [ -84.425974539820302, 39.253931667500531 ], [ -84.425149051160417, 39.254223893239981 ], [ -84.4252927862712, 39.254925502546257 ], [ -84.425243810095154, 39.255452831491205 ], [ -84.424461728308771, 39.25704609045939 ], [ -84.422765295242584, 39.259447505347708 ], [ -84.421791236712068, 39.260188668782178 ], [ -84.419131915548277, 39.261195964428147 ], [ -84.418416307247085, 39.261274627847129 ], [ -84.416506577016591, 39.261193121767874 ], [ -84.41548779329932, 39.261022119675602 ], [ -84.414863754514911, 39.260782077443416 ], [ -84.414312422066942, 39.260451525140837 ], [ -84.413740164965915, 39.259903232108002 ], [ -84.412701672831972, 39.260545609308728 ], [ -84.412828223766198, 39.259239350639568 ], [ -84.405786667304724, 39.259014025119249 ], [ -84.405556791631696, 39.258101752731953 ], [ -84.405965246337843, 39.253901861247741 ], [ -84.406445227144431, 39.252898632982607 ], [ -84.407382110924829, 39.252114330555997 ], [ -84.408301007594716, 39.25174327994047 ], [ -84.410556124184723, 39.251373429249121 ], [ -84.411575464041391, 39.251413527692215 ], [ -84.41273482782853, 39.251769318898916 ], [ -84.414026852096342, 39.251852325287203 ], [ -84.415146946584883, 39.251320000697966 ], [ -84.416154075902512, 39.251109031163487 ], [ -84.419063740329037, 39.251222338269727 ], [ -84.419379446368566, 39.250101780331136 ], [ -84.418976611860444, 39.249329697203663 ], [ -84.418723521565468, 39.247983370997915 ], [ -84.41390022481913, 39.247672507428938 ], [ -84.412585421507018, 39.247379294767647 ], [ -84.411748431262211, 39.24691426689283 ], [ -84.411119345180595, 39.246281393668674 ], [ -84.410751552325195, 39.245534391731738 ], [ -84.410676260536619, 39.244736662868029 ], [ -84.410772468383954, 39.243867155779576 ], [ -84.411091905554471, 39.24310639964434 ], [ -84.414346170519352, 39.243275484275472 ], [ -84.414645013776834, 39.240453683357735 ], [ -84.419652790856134, 39.23711459939679 ], [ -84.420579723030897, 39.236752466552623 ], [ -84.421601974188022, 39.236615450848895 ], [ -84.425381053406426, 39.236838988633416 ], [ -84.426662234039057, 39.237227949269197 ], [ -84.427630072240305, 39.237015534552 ], [ -84.428420198529622, 39.237004044954347 ], [ -84.429733415572912, 39.23728218179685 ], [ -84.430813779681287, 39.237925949056532 ], [ -84.431005982881047, 39.238112865125004 ], [ -84.429686660433831, 39.24030760096403 ], [ -84.431587918608543, 39.240419062740244 ], [ -84.430893084579267, 39.241683313428979 ], [ -84.431526953499898, 39.242168293809513 ], [ -84.432043069999423, 39.242855347784548 ], [ -84.432284168779177, 39.243628629833722 ], [ -84.432281094468891, 39.244160121072674 ], [ -84.432146383721047, 39.244681193289509 ], [ -84.431709842043404, 39.24540083889962 ], [ -84.430492924666666, 39.246430407016142 ], [ -84.429719833015341, 39.246888481087517 ] ] ], [ [ [ -84.396403456807306, 39.250385162345601 ], [ -84.397338018418409, 39.250768015334529 ], [ -84.397861469152161, 39.2511360198421 ], [ -84.398577953168413, 39.252075125367341 ], [ -84.398772364508744, 39.252882422901124 ], [ -84.398721101762106, 39.253704621442324 ], [ -84.398611997063995, 39.254225601606102 ], [ -84.398241129172533, 39.254914380582775 ], [ -84.394604041538969, 39.254815818889647 ], [ -84.395010702442349, 39.250224831210517 ], [ -84.396403456807306, 39.250385162345601 ] ] ] ] } }
]
}
