{"type":"FeatureCollection","crs":{"type":"name","properties":{"name":"urn:ogc:def:crs:OGC:1.3:CRS84"}},"features":[{"type":"Feature","properties":{"name":"Hamilton County"},"geometry":{"type":"Polygon","coordinates":[[[-84.293197,39.179411],[-84.297488,39.176609],[-84.29868,39.175487],[-84.29937,39.174309],[-84.297637,39.170205],[-84.296164,39.168952],[-84.295534,39.167983],[-84.295437,39.167767],[-84.295334,39.167456],[-84.295383,39.167052],[-84.295665,39.166614],[-84.296027,39.166285],[-84.29644,39.166087],[-84.298875,39.165168],[-84.299442,39.164775],[-84.299946,39.164221],[-84.30013,39.163918],[-84.300699,39.163897],[-84.3011,39.163117],[-84.301537,39.161885],[-84.301901,39.160279],[-84.302118,39.158475],[-84.302025,39.154714],[-84.301905,39.153475],[-84.301472,39.151998],[-84.305146,39.125382],[-84.30598,39.120335],[-84.307732,39.108864],[-84.312603,39.075833],[-84.314982,39.059319],[-84.315972,39.051851],[-84.318582,39.03359],[-84.320066,39.021496],[-84.320703,39.022107],[-84.32142,39.023073],[-84.321798,39.02343],[-84.324107,39.025109],[-84.325676,39.02613],[-84.325998,39.026416],[-84.326148,39.0267],[-84.326358,39.026784],[-84.326576,39.027075],[-84.32704,39.027464],[-84.327304,39.027579],[-84.328622,39.028524],[-84.329166,39.028804],[-84.330667,39.02944],[-84.334025,39.031333],[-84.334234,39.031553],[-84.334878,39.0318],[-84.335572,39.032184],[-84.335818,39.032437],[-84.336362,39.032646],[-84.338276,39.033644],[-84.338832,39.033869],[-84.339233,39.033984],[-84.339874,39.034286],[-84.34094,39.03495],[-84.342326,39.035433],[-84.343776,39.035817],[-84.344143,39.035872],[-84.344739,39.03608],[-84.344928,39.036168],[-84.345742,39.036733],[-84.347661,39.037517],[-84.352245,39.038954],[-84.354152,39.03947],[-84.355543,39.039918],[-84.355992,39.039969],[-84.357516,39.040567],[-84.359538,39.041176],[-84.360781,39.041505],[-84.362753,39.04175],[-84.364162,39.042107],[-84.367256,39.042731],[-84.370671,39.043142],[-84.373513,39.043371],[-84.374996,39.04376],[-84.377122,39.044119],[-84.378841,39.044279],[-84.379781,39.04445],[-84.380589,39.044517],[-84.383774,39.044974],[-84.385356,39.045139],[-84.386468,39.0452],[-84.387103,39.045206],[-84.387533,39.045162],[-84.387825,39.045096],[-84.388994,39.044674],[-84.389693,39.044466],[-84.390232,39.044395],[-84.390644,39.044406],[-84.391498,39.044533],[-84.392226,39.044873],[-84.393022,39.045142],[-84.394346,39.045138],[-84.394678,39.045176],[-84.39524,39.04539],[-84.396397,39.045561],[-84.398677,39.046094],[-84.40015,39.046336],[-84.400809,39.046375],[-84.401026,39.046354],[-84.401548,39.046162],[-84.402046,39.045826],[-84.40255,39.045618],[-84.402797,39.045569],[-84.403794,39.04558],[-84.404118,39.045658],[-84.406653,39.045707],[-84.407334,39.045751],[-84.408114,39.045872],[-84.4106,39.046389],[-84.411065,39.046537],[-84.411586,39.046647],[-84.411791,39.046776],[-84.412291,39.046845],[-84.413425,39.047274],[-84.413855,39.047562],[-84.414766,39.047916],[-84.416347,39.048839],[-84.416874,39.049097],[-84.417378,39.049317],[-84.417631,39.049388],[-84.418421,39.049482],[-84.419435,39.04985],[-84.422317,39.05142],[-84.423429,39.051739],[-84.423658,39.051898],[-84.424154,39.052064],[-84.424678,39.052151],[-84.424982,39.052272],[-84.426448,39.053073],[-84.427417,39.053902],[-84.428431,39.055011],[-84.428683,39.055368],[-84.428677,39.055467],[-84.428614,39.055511],[-84.428494,39.055517],[-84.427686,39.055056],[-84.426357,39.053996],[-84.424666,39.052903],[-84.42418,39.052727],[-84.424053,39.052716],[-84.423927,39.052799],[-84.42395,39.052969],[-84.424403,39.053424],[-84.424844,39.053737],[-84.425543,39.054149],[-84.426236,39.054644],[-84.4285,39.056702],[-84.429353,39.057334],[-84.429379,39.057469],[-84.430115,39.058026],[-84.430631,39.058679],[-84.431227,39.060732],[-84.432,39.063944],[-84.432304,39.065498],[-84.432728,39.066656],[-84.432957,39.067535],[-84.433025,39.068394],[-84.433158,39.068781],[-84.433404,39.070631],[-84.433542,39.072662],[-84.433725,39.073821],[-84.433438,39.075918],[-84.43337,39.07678],[-84.433393,39.077977],[-84.433461,39.078537],[-84.433639,39.079102],[-84.433673,39.079368],[-84.434103,39.080167],[-84.434195,39.080546],[-84.434137,39.080734],[-84.434218,39.080991],[-84.434149,39.081186],[-84.434155,39.081545],[-84.434011,39.082034],[-84.433765,39.084038],[-84.43392,39.084439],[-84.434258,39.084812],[-84.434252,39.084939],[-84.434562,39.085108],[-84.434954,39.085153],[-84.435031,39.085965],[-84.43549,39.086794],[-84.435524,39.086964],[-84.435444,39.088507],[-84.435094,39.090341],[-84.435014,39.092394],[-84.434905,39.092723],[-84.433954,39.094079],[-84.433805,39.094513],[-84.433794,39.094858],[-84.43396,39.095792],[-84.434629,39.098635],[-84.434877,39.099163],[-84.435192,39.100272],[-84.435625,39.101306],[-84.436475,39.102715],[-84.43738,39.104439],[-84.43777,39.104966],[-84.438715,39.106069],[-84.439103,39.10674],[-84.439271,39.106844],[-84.440211,39.108457],[-84.440744,39.109205],[-84.441964,39.110583],[-84.443258,39.112163],[-84.443666,39.112504],[-84.444737,39.113674],[-84.445236,39.114003],[-84.445597,39.114305],[-84.446468,39.115156],[-84.447625,39.1161],[-84.449521,39.117423],[-84.449583,39.11755],[-84.449774,39.117571],[-84.450392,39.117873],[-84.451395,39.118526],[-84.452593,39.119179],[-84.454607,39.12001],[-84.455434,39.120234],[-84.456695,39.120662],[-84.45787,39.120979],[-84.459039,39.121381],[-84.462516,39.121825],[-84.464358,39.121999],[-84.464613,39.121956],[-84.465707,39.121923],[-84.469523,39.121417],[-84.470663,39.121554],[-84.471065,39.121537],[-84.471735,39.121406],[-84.472595,39.121131],[-84.474107,39.120592],[-84.475855,39.119878],[-84.476187,39.119697],[-84.476731,39.119269],[-84.479195,39.118153],[-84.480696,39.117406],[-84.481212,39.116934],[-84.48175,39.11656],[-84.482254,39.116352],[-84.482638,39.116055],[-84.487736,39.111409],[-84.488683,39.110486],[-84.489228,39.109865],[-84.490316,39.108212],[-84.491347,39.107037],[-84.492076,39.105842],[-84.493301,39.104099],[-84.493519,39.10355],[-84.493845,39.103006],[-84.494006,39.102836],[-84.495392,39.10188],[-84.497083,39.100298],[-84.497793,39.099771],[-84.499432,39.098793],[-84.499996,39.098377],[-84.502222,39.096968],[-84.503259,39.096386],[-84.504686,39.095706],[-84.50586,39.09524],[-84.507717,39.094621],[-84.507976,39.094582],[-84.510083,39.093891],[-84.510914,39.093683],[-84.512022,39.093539],[-84.513498,39.093218],[-84.518477,39.092457],[-84.519806,39.092298],[-84.521456,39.092178],[-84.522974,39.092134],[-84.524006,39.092201],[-84.52541,39.092394],[-84.5262,39.092548],[-84.526693,39.092685],[-84.527295,39.092916],[-84.528395,39.093432],[-84.529742,39.094203],[-84.530303,39.094405],[-84.530893,39.09474],[-84.531451,39.09514],[-84.534858,39.096729],[-84.536789,39.097547],[-84.539407,39.098575],[-84.541263,39.099264],[-84.542029,39.099479],[-84.542329,39.099481],[-84.543853,39.09975],[-84.545584,39.099904],[-84.546769,39.099904],[-84.54827,39.099812],[-84.550133,39.099626],[-84.550872,39.099488],[-84.551714,39.099247],[-84.552608,39.098923],[-84.553943,39.098226],[-84.554757,39.097594],[-84.556751,39.095882],[-84.558418,39.094339],[-84.559048,39.093641],[-84.559339,39.093115],[-84.560979,39.091149],[-84.561151,39.090974],[-84.561553,39.090725],[-84.562331,39.089563],[-84.563551,39.0883],[-84.564199,39.087757],[-84.569144,39.084045],[-84.570416,39.08321],[-84.571332,39.082666],[-84.571825,39.082472],[-84.571962,39.08237],[-84.57332,39.081881],[-84.57658,39.08103],[-84.580287,39.080316],[-84.584842,39.079536],[-84.588601,39.07864],[-84.589113,39.078604],[-84.590022,39.078344],[-84.593828,39.077574],[-84.595964,39.076942],[-84.59708,39.076525],[-84.598639,39.075514],[-84.599401,39.075107],[-84.600863,39.074448],[-84.601802,39.074151],[-84.603905,39.073667],[-84.60544,39.073525],[-84.60591,39.073409],[-84.607538,39.073309],[-84.608335,39.073348],[-84.609062,39.073271],[-84.613846,39.073401],[-84.616848,39.073262],[-84.618023,39.073311],[-84.618401,39.073245],[-84.619008,39.073316],[-84.621707,39.073797],[-84.623156,39.074154],[-84.627757,39.075551],[-84.628459,39.075952],[-84.62872,39.07598],[-84.62943,39.076233],[-84.630135,39.076354],[-84.632381,39.076531],[-84.632587,39.076575],[-84.633194,39.076965],[-84.634604,39.078448],[-84.635629,39.079376],[-84.636431,39.079948],[-84.637509,39.080547],[-84.637626,39.080707],[-84.638345,39.081036],[-84.638521,39.08126],[-84.638838,39.081371],[-84.639486,39.081921],[-84.639835,39.082311],[-84.640414,39.08281],[-84.641365,39.083442],[-84.642597,39.084338],[-84.643118,39.084816],[-84.644126,39.085871],[-84.644754,39.086638],[-84.647186,39.088848],[-84.647578,39.089284],[-84.648223,39.08971],[-84.649684,39.090978],[-84.651082,39.092011],[-84.652589,39.092984],[-84.653202,39.093324],[-84.65727,39.09517],[-84.657455,39.095333],[-84.658571,39.095753],[-84.660691,39.096462],[-84.663309,39.097143],[-84.663549,39.097274],[-84.664753,39.097506],[-84.665492,39.097715],[-84.666014,39.097808],[-84.666581,39.09788],[-84.667285,39.097907],[-84.670018,39.097639],[-84.671353,39.097551],[-84.672144,39.097535],[-84.673221,39.097574],[-84.673972,39.097672],[-84.675502,39.097975],[-84.677478,39.0982],[-84.679593,39.098535],[-84.680389,39.098722],[-84.68228,39.099425],[-84.685328,39.100441],[-84.686531,39.10105],[-84.686716,39.101246],[-84.687288,39.101501],[-84.688241,39.102303],[-84.688823,39.102637],[-84.689717,39.103494],[-84.692622,39.107524],[-84.692697,39.107712],[-84.692903,39.107793],[-84.693808,39.10877],[-84.695005,39.109819],[-84.695223,39.110072],[-84.696065,39.111126],[-84.696701,39.111834],[-84.696746,39.112018],[-84.697039,39.112273],[-84.697669,39.113111],[-84.697962,39.113317],[-84.698936,39.114727],[-84.701954,39.118522],[-84.703015,39.119631],[-84.704597,39.121432],[-84.70533,39.122365],[-84.706149,39.123144],[-84.706808,39.123923],[-84.707037,39.124039],[-84.707937,39.125017],[-84.70926,39.126701],[-84.711122,39.129298],[-84.711449,39.129688],[-84.711919,39.130138],[-84.713283,39.131126],[-84.71362,39.131565],[-84.714119,39.132465],[-84.714417,39.132855],[-84.715952,39.134409],[-84.716201,39.134729],[-84.71699,39.135292],[-84.717969,39.136291],[-84.718199,39.136418],[-84.718577,39.136802],[-84.720163,39.137999],[-84.722736,39.139766],[-84.723124,39.14009],[-84.723395,39.140161],[-84.724283,39.140797],[-84.724959,39.141111],[-84.725498,39.141417],[-84.726789,39.142316],[-84.728294,39.143042],[-84.732947,39.144737],[-84.736603,39.145933],[-84.737421,39.146097],[-84.73843,39.146376],[-84.738647,39.146486],[-84.739352,39.14659],[-84.739564,39.146705],[-84.739988,39.146755],[-84.742635,39.147379],[-84.743403,39.147527],[-84.744526,39.147636],[-84.744761,39.147334],[-84.744967,39.147263],[-84.745127,39.147257],[-84.745299,39.147295],[-84.745638,39.147592],[-84.74636,39.147716],[-84.748686,39.147623],[-84.749995,39.147674],[-84.7517,39.147439],[-84.753453,39.147056],[-84.756006,39.146036],[-84.757693,39.145145],[-84.759137,39.14431],[-84.761314,39.142747],[-84.761657,39.142558],[-84.761967,39.142314],[-84.762328,39.142128],[-84.762964,39.141609],[-84.763027,39.141408],[-84.764682,39.140121],[-84.765834,39.139287],[-84.766012,39.139279],[-84.766229,39.139092],[-84.76627,39.138914],[-84.767255,39.137942],[-84.768069,39.137284],[-84.768332,39.137249],[-84.769335,39.136305],[-84.769736,39.135861],[-84.770653,39.135042],[-84.771438,39.134151],[-84.771455,39.133869],[-84.772228,39.132931],[-84.772291,39.132876],[-84.772429,39.132849],[-84.773065,39.131987],[-84.774154,39.130706],[-84.774148,39.130411],[-84.775013,39.129313],[-84.776228,39.12765],[-84.777505,39.126042],[-84.778382,39.125037],[-84.778456,39.12481],[-84.77868,39.124503],[-84.780445,39.12256],[-84.780989,39.121896],[-84.781992,39.120836],[-84.782461,39.120254],[-84.783321,39.118899],[-84.783733,39.118404],[-84.784054,39.118069],[-84.784581,39.117631],[-84.785664,39.116955],[-84.786426,39.116363],[-84.786833,39.115962],[-84.787395,39.115523],[-84.78826,39.115007],[-84.789452,39.114431],[-84.790993,39.113838],[-84.792975,39.113179],[-84.793726,39.112995],[-84.794167,39.112817],[-84.796562,39.112323],[-84.797851,39.111956],[-84.800023,39.111495],[-84.801558,39.111083],[-84.801782,39.111089],[-84.802658,39.110858],[-84.803348,39.110748],[-84.803776,39.110601],[-84.80542,39.110299],[-84.810628,39.109151],[-84.811075,39.108888],[-84.811287,39.108657],[-84.811699,39.107702],[-84.811963,39.107345],[-84.812295,39.107043],[-84.812599,39.106879],[-84.812913,39.106808],[-84.813379,39.106598],[-84.813968,39.106445],[-84.81461,39.106203],[-84.815378,39.106022],[-84.817458,39.105659],[-84.819194,39.105577],[-84.819817,39.105503],[-84.819996,39.115282],[-84.8202,39.149901],[-84.82027,39.164472],[-84.820355,39.204375],[-84.820322,39.206147],[-84.820376,39.211585],[-84.820146,39.248051],[-84.819726,39.273109],[-84.819431,39.305226],[-84.787567,39.305065],[-84.774287,39.304957],[-84.709604,39.304747],[-84.669399,39.304732],[-84.65418,39.304896],[-84.642012,39.304886],[-84.64183,39.304901],[-84.641516,39.305361],[-84.639722,39.308909],[-84.639538,39.309123],[-84.638999,39.309589],[-84.638101,39.310229],[-84.636952,39.310694],[-84.636071,39.310864],[-84.634919,39.310944],[-84.634182,39.311057],[-84.633808,39.311154],[-84.631565,39.311884],[-84.631224,39.312065],[-84.616542,39.311137],[-84.598673,39.308515],[-84.590493,39.30833],[-84.579727,39.30801],[-84.562358,39.308092],[-84.551275,39.307043],[-84.542402,39.306254],[-84.523722,39.303229],[-84.504972,39.305881],[-84.48454,39.301611],[-84.465463,39.302918],[-84.428152,39.29867],[-84.401247,39.297856],[-84.390719,39.297485],[-84.370709,39.294422],[-84.353338,39.292286],[-84.334104,39.293312],[-84.315892,39.292744],[-84.296518,39.291749],[-84.291577,39.291104],[-84.277767,39.289395],[-84.262349,39.288347],[-84.262765,39.287885],[-84.263344,39.287],[-84.263897,39.286375],[-84.264217,39.285889],[-84.264367,39.285566],[-84.264483,39.285144],[-84.264606,39.285007],[-84.264906,39.284373],[-84.265365,39.283107],[-84.265434,39.282724],[-84.26541,39.282416],[-84.265138,39.281643],[-84.265078,39.281138],[-84.26496,39.280844],[-84.264525,39.280307],[-84.26052,39.27914],[-84.259414,39.278742],[-84.258241,39.278179],[-84.257432,39.277718],[-84.256782,39.277239],[-84.256618,39.27705],[-84.256571,39.276827],[-84.256563,39.276529],[-84.256646,39.276021],[-84.256947,39.275303],[-84.25707,39.275119],[-84.257835,39.274693],[-84.258398,39.274214],[-84.258808,39.273489],[-84.258938,39.273166],[-84.259137,39.272295],[-84.259321,39.27187],[-84.259543,39.270582],[-84.259687,39.270196],[-84.260349,39.268871],[-84.260832,39.268329],[-84.261003,39.26801],[-84.261085,39.267756],[-84.261108,39.267369],[-84.261081,39.26694],[-84.260945,39.266353],[-84.260983,39.265941],[-84.261152,39.265553],[-84.261599,39.264964],[-84.262029,39.264622],[-84.262745,39.264447],[-84.264164,39.264438],[-84.264398,39.264396],[-84.267625,39.262451],[-84.268307,39.261932],[-84.26855,39.261674],[-84.269453,39.26045],[-84.270003,39.259882],[-84.270818,39.25916],[-84.27101,39.258935],[-84.271947,39.258243],[-84.272365,39.258008],[-84.272752,39.25785],[-84.273259,39.257723],[-84.273611,39.257498],[-84.274488,39.257084],[-84.275546,39.256425],[-84.275769,39.256226],[-84.27621,39.256067],[-84.27711,39.255561],[-84.277786,39.25528],[-84.2809,39.253504],[-84.282405,39.252506],[-84.283233,39.252107],[-84.2836,39.251856],[-84.283952,39.25168],[-84.284865,39.251389],[-84.285696,39.251178],[-84.287601,39.250849],[-84.288671,39.250568],[-84.289415,39.250301],[-84.291694,39.249658],[-84.292409,39.249337],[-84.293037,39.248962],[-84.293347,39.24888],[-84.293892,39.248584],[-84.294196,39.248281],[-84.294537,39.247767],[-84.295374,39.246692],[-84.295941,39.246128],[-84.296229,39.245518],[-84.296424,39.244944],[-84.296392,39.243702],[-84.296527,39.242834],[-84.296474,39.241575],[-84.296507,39.239476],[-84.296719,39.23866],[-84.297101,39.238054],[-84.297557,39.237553],[-84.299088,39.235323],[-84.299827,39.234826],[-84.300632,39.234397],[-84.301494,39.23404],[-84.30242,39.233755],[-84.302726,39.233798],[-84.304342,39.234333],[-84.30529,39.234372],[-84.305998,39.234477],[-84.306264,39.234477],[-84.306603,39.234434],[-84.306905,39.234322],[-84.307339,39.233701],[-84.30743,39.233433],[-84.307607,39.233133],[-84.308497,39.231868],[-84.308905,39.231439],[-84.309407,39.231055],[-84.312293,39.229513],[-84.31261,39.229324],[-84.312901,39.229057],[-84.313635,39.228732],[-84.315142,39.227968],[-84.317428,39.226093],[-84.318459,39.225066],[-84.319115,39.224715],[-84.319553,39.224429],[-84.32016,39.223912],[-84.32027,39.223724],[-84.32027,39.223523],[-84.320027,39.222764],[-84.319888,39.222622],[-84.319448,39.222321],[-84.319231,39.222225],[-84.317941,39.221827],[-84.317328,39.22156],[-84.31647,39.220887],[-84.316099,39.220442],[-84.315612,39.219358],[-84.315372,39.218594],[-84.31504,39.217819],[-84.314761,39.216984],[-84.31449,39.215938],[-84.313498,39.213373],[-84.313406,39.21284],[-84.312044,39.210861],[-84.310368,39.209285],[-84.305274,39.208867],[-84.299063,39.209092],[-84.295384,39.209884],[-84.293707,39.210559],[-84.291842,39.211805],[-84.288159,39.213165],[-84.288173,39.21329],[-84.286746,39.213464],[-84.286024,39.213486],[-84.284888,39.213369],[-84.284129,39.213027],[-84.283435,39.212798],[-84.283049,39.212512],[-84.282552,39.212015],[-84.282395,39.210422],[-84.280068,39.20753],[-84.278332,39.206092],[-84.277224,39.204765],[-84.276695,39.203941],[-84.27676,39.201177],[-84.278002,39.197572],[-84.278411,39.19707],[-84.281981,39.194402],[-84.282622,39.192978],[-84.282795,39.192432],[-84.283256,39.191629],[-84.283493,39.191305],[-84.283877,39.190894],[-84.284961,39.189955],[-84.285563,39.189339],[-84.286696,39.188577],[-84.287192,39.188175],[-84.287498,39.187845],[-84.287945,39.187117],[-84.288287,39.186319],[-84.288527,39.18537],[-84.288498,39.184682],[-84.288142,39.183204],[-84.288212,39.182213],[-84.288309,39.181892],[-84.288472,39.181588],[-84.288752,39.181258],[-84.289109,39.180977],[-84.289458,39.18079],[-84.29007,39.180545],[-84.291539,39.18052],[-84.292882,39.179855],[-84.293197,39.179411]]]}}],"name":"county"}